[{"location":"California Institute of Abnormal Arts (C.I.A.)","address":"11334 Burbank Blvd. North Hollywood, ","formattedAddress":"11334 Burbank Blvd, North Hollywood, CA 91601, USA","neighborhood":"North Hollywood","lat":34.1719873,"lng":-118.3774298,"zipcode":"91601"},{"location":"T. Boyle's Tavern","address":"37 N. Catalina Ave. Pasadena, ","formattedAddress":"37 N Catalina Ave, Pasadena, CA 91106, USA","neighborhood":null,"lat":34.1466284,"lng":-118.1299577,"zipcode":"91106"},{"location":"The Monty","address":"1222 W. Seventh St. Los Angeles, ","formattedAddress":"1222 W 7th St, Los Angeles, CA 90017, USA","neighborhood":"Central LA","lat":34.0515896,"lng":-118.2667901,"zipcode":"90017"},{"location":"UCLA Center For Intercultural Performance","address":"120 Westwood Plaza Los Angeles, ","formattedAddress":"120 Westwood Plaza, Los Angeles, CA 90095, USA","neighborhood":"Westwood","lat":34.0728461,"lng":-118.4447953,"zipcode":"90095"},{"location":"The UCLA Faculty Center","address":"480 Charles E. Young Dr. Los Angeles, ","formattedAddress":"480 Charles E Young Drive West, Los Angeles, CA 90095, USA","neighborhood":"Westwood","lat":34.0702743,"lng":-118.4477155,"zipcode":"90095"},{"location":"Acerogami","address":"228 W. Second St. Pomona, ","formattedAddress":"228 W 2nd St, Pomona, CA 91766, USA","neighborhood":"Westmont","lat":34.0575391,"lng":-117.751646,"zipcode":"91766"},{"location":"Let Live Theatre","address":"916 N. Formosa Ave. Los Angeles, ","formattedAddress":"916 N Formosa Ave, Los Angeles, CA 90046, USA","neighborhood":"Central LA","lat":34.0877004,"lng":-118.3458947,"zipcode":"90046"},{"location":"Downtown Independent Theater","address":"251 S. Main St. Los Angeles, ","formattedAddress":"251 S Main St, Los Angeles, CA 90012, USA","neighborhood":"Central LA","lat":34.050286,"lng":-118.245687,"zipcode":"90012"},{"location":"Antaeus Theatre Company","address":"110 E. Broadway Glendale, ","formattedAddress":"110 E Broadway, Glendale, CA 91205, USA","neighborhood":"Downtown","lat":34.1461412,"lng":-118.2543168,"zipcode":"91205"},{"location":"Pasadena Museum of History","address":"470 W. Walnut St. Pasadena, ","formattedAddress":"470 W Walnut St, Pasadena, CA 91103, USA","neighborhood":"North Arroyo","lat":34.1490951,"lng":-118.1609863,"zipcode":"91103"},{"location":"Broke L.A.","address":"4560 Worth St. Los Angeles, ","formattedAddress":"4560 Worth St, Los Angeles, CA 90063, USA","neighborhood":null,"lat":34.0615938,"lng":-118.1857776,"zipcode":"90063"},{"location":"John Wooden Center","address":"221 Westwood Plaza Los Angeles, ","formattedAddress":"221 Westwood Plaza, Los Angeles, CA 90077, USA","neighborhood":"Westwood","lat":34.071726,"lng":-118.445317,"zipcode":"90077"},{"location":"Libbey Bowl","address":"210 S. Signal St. Ojai, ","formattedAddress":"210 S Signal St, Ojai, CA 93023, USA","neighborhood":null,"lat":34.4458781,"lng":-119.2458306,"zipcode":"93023"},{"location":"California Institute of Abnormal Arts (C.I.A.)","address":"11334 Burbank Blvd. North Hollywood, ","formattedAddress":"11334 Burbank Blvd, North Hollywood, CA 91601, USA","neighborhood":"North Hollywood","lat":34.1719873,"lng":-118.3774298,"zipcode":"91601"},{"location":"UCLA Center For Intercultural Performance","address":"120 Westwood Plaza Los Angeles, ","formattedAddress":"120 Westwood Plaza, Los Angeles, CA 90095, USA","neighborhood":"Westwood","lat":34.0728461,"lng":-118.4447953,"zipcode":"90095"},{"location":"Golden Eagle Ballroom, Cal State L.A.","address":"5151 State University Dr. Los Angeles, ","formattedAddress":"5151 State University Dr, Los Angeles, CA 90032, USA","neighborhood":null,"lat":34.0615308,"lng":-118.1733051,"zipcode":"90032"},{"location":"Let Live Theatre","address":"916 N. Formosa Ave. Los Angeles, ","formattedAddress":"916 N Formosa Ave, Los Angeles, CA 90046, USA","neighborhood":"Central LA","lat":34.0877004,"lng":-118.3458947,"zipcode":"90046"},{"location":"That ’80s Bar","address":"10555 Mills Ave. Montclair, ","formattedAddress":"10555 S Mills Ave, Montclair, CA 91763, USA","neighborhood":null,"lat":34.0621194,"lng":-117.7172512,"zipcode":"91763"},{"location":"The Gem Theatre","address":"12852 Main St. Garden Grove, California 92840 714-741-9550","formattedAddress":"12852 Main St, Garden Grove, CA 92840, USA","neighborhood":null,"lat":33.77639449999999,"lng":-117.9407127,"zipcode":"92840"},{"location":"Exchange L.A.","address":"618 S. Spring St. Los Angeles, ","formattedAddress":"618 S Spring St, Los Angeles, CA 90014, USA","neighborhood":"Downtown","lat":34.0452545,"lng":-118.2511393,"zipcode":"90014"},{"location":"Create Nightclub","address":"6021 Hollywood Blvd. Los Angeles, ","formattedAddress":"6021 Hollywood Blvd, Los Angeles, CA 90028, USA","neighborhood":"Hollywood","lat":34.1020426,"lng":-118.3209169,"zipcode":"90028"},{"location":"Antaeus Theatre Company","address":"110 E. Broadway Glendale, ","formattedAddress":"110 E Broadway, Glendale, CA 91205, USA","neighborhood":"Downtown","lat":34.1461412,"lng":-118.2543168,"zipcode":"91205"},{"location":"Pasadena Museum of History","address":"470 W. Walnut St. Pasadena, ","formattedAddress":"470 W Walnut St, Pasadena, CA 91103, USA","neighborhood":"North Arroyo","lat":34.1490951,"lng":-118.1609863,"zipcode":"91103"},{"location":"Campbell Hall, UC Santa Barbara","address":"Building 538, Mesa Rd. Santa Barbara, ","formattedAddress":"538 Mesa Rd, Santa Barbara, CA 93117, USA","neighborhood":null,"lat":34.4207224,"lng":-119.8504666,"zipcode":"93117"},{"location":"Let Live Theatre","address":"916 N. Formosa Ave. Los Angeles, ","formattedAddress":"916 N Formosa Ave, Los Angeles, CA 90046, USA","neighborhood":"Central LA","lat":34.0877004,"lng":-118.3458947,"zipcode":"90046"},{"location":"The Escondite","address":"410 Boyd St. Los Angeles, ","formattedAddress":"410 Boyd St, Los Angeles, CA 90013, USA","neighborhood":"Central LA","lat":34.04609440000001,"lng":-118.2421687,"zipcode":"90013"},{"location":"Hyperslow","address":"487 S Fairfax Ave Los Angeles, ","formattedAddress":"487 S Fairfax Ave, Los Angeles, CA 90036, USA","neighborhood":"Central LA","lat":34.0674935,"lng":-118.3615402,"zipcode":"90036"},{"location":"Escape Room L.A.","address":"120 E. 8th St Los Angeles, ","formattedAddress":"120 E 8th St, Los Angeles, CA 90014, USA","neighborhood":"Downtown","lat":34.0420721,"lng":-118.2528292,"zipcode":"90014"},{"location":"The Copper Still","address":"4493 Beverly Blvd. Los Angeles, ","formattedAddress":"4493 Beverly Blvd, Los Angeles, CA 90004, USA","neighborhood":"Hollywood","lat":34.0764323,"lng":-118.3066935,"zipcode":"90004"},{"location":"Los Angeles Convention Center","address":"1201 S. Figueroa St. Los Angeles, ","formattedAddress":"1201 S Figueroa St, Los Angeles, CA 90015, USA","neighborhood":"Central LA","lat":34.0413606,"lng":-118.2697771,"zipcode":"90015"},{"location":"FM Fine Art Gallery","address":"834 N. La Brea Ave. Los Angeles, ","formattedAddress":"834 N La Brea Ave, Los Angeles, CA 90038, USA","neighborhood":"Central LA","lat":34.0862389,"lng":-118.3437364,"zipcode":"90038"},{"location":"Colombo's Italian Steakhouse & Jazz Club","address":"1833 Colorado Blvd. Eagle Rock, ","formattedAddress":"1833 Colorado Blvd, Los Angeles, CA 90041, USA","neighborhood":"Northeast Los Angeles","lat":34.1395978,"lng":-118.2072713,"zipcode":"90041"},{"location":"The Automobile Driving Museum","address":"610 Lairport St. El Segundo, ","formattedAddress":"610 Lairport St, El Segundo, CA 90245, USA","neighborhood":null,"lat":33.9247131,"lng":-118.3922325,"zipcode":"90245"},{"location":"Escape Room L.A.","address":"120 E. 8th St Los Angeles, ","formattedAddress":"120 E 8th St, Los Angeles, CA 90014, USA","neighborhood":"Downtown","lat":34.0420721,"lng":-118.2528292,"zipcode":"90014"},{"location":"Colombo's Italian Steakhouse & Jazz Club","address":"1833 Colorado Blvd. Eagle Rock, ","formattedAddress":"1833 Colorado Blvd, Los Angeles, CA 90041, USA","neighborhood":"Northeast Los Angeles","lat":34.1395978,"lng":-118.2072713,"zipcode":"90041"},{"location":"The Kibitz Room","address":"419 N. Fairfax Ave. Los Angeles, ","formattedAddress":"419 N Fairfax Ave, Los Angeles, CA 90036, USA","neighborhood":"Central LA","lat":34.0789742,"lng":-118.361875,"zipcode":"90036"},{"location":"Trip","address":"2101 Lincoln Blvd. Santa Monica, ","formattedAddress":"2101 Lincoln Blvd, Santa Monica, CA 90405, USA","neighborhood":"Ocean Park","lat":34.0109254,"lng":-118.4809526,"zipcode":"90405"},{"location":"Westfield Valencia Town Center","address":"24201 Valencia Blvd. Valencia, ","formattedAddress":"24201 Valencia Blvd, Valencia, CA 91355, USA","neighborhood":"Valencia","lat":34.4176299,"lng":-118.5608039,"zipcode":"91355"},{"location":"Zan Beer","address":"3377 Wilshire Blvd., #200 Los Angeles, ","formattedAddress":"3377 Wilshire Blvd #200, Los Angeles, CA 90010, USA","neighborhood":"Koreatown","lat":34.0622606,"lng":-118.2975594,"zipcode":"90010"},{"location":"Palm Tree L.A.","address":"3240 Wilshire Blvd. Los Angeles, ","formattedAddress":"3240 Wilshire Blvd, Los Angeles, CA 90010, USA","neighborhood":"Koreatown","lat":34.0614383,"lng":-118.2925458,"zipcode":"90010"},{"location":"Good Shepherd School","address":"6338 N Figueroa St. Los Angeles, ","formattedAddress":"6338 N Figueroa St, Los Angeles, CA 90042, USA","neighborhood":"Northeast Los Angeles","lat":34.11658200000001,"lng":-118.182717,"zipcode":"90042"},{"location":"La Brea Bakery Cafe","address":"468 S. La Brea Ave. Los Angeles, ","formattedAddress":"468 S La Brea Ave, Los Angeles, CA 90036, USA","neighborhood":"Central LA","lat":34.0650629,"lng":-118.3436925,"zipcode":"90036"},{"location":"Colombo's Italian Steakhouse & Jazz Club","address":"1833 Colorado Blvd. Eagle Rock, ","formattedAddress":"1833 Colorado Blvd, Los Angeles, CA 90041, USA","neighborhood":"Northeast Los Angeles","lat":34.1395978,"lng":-118.2072713,"zipcode":"90041"},{"location":"Hollywood Forever Cemetery","address":"6000 Santa Monica Blvd. Los Angeles, ","formattedAddress":"6000 Santa Monica Blvd, Los Angeles, CA 90038, USA","neighborhood":"Hollywood","lat":34.0904912,"lng":-118.3198111,"zipcode":"90038"},{"location":"The Automobile Driving Museum","address":"610 Lairport St. El Segundo, ","formattedAddress":"610 Lairport St, El Segundo, CA 90245, USA","neighborhood":null,"lat":33.9247131,"lng":-118.3922325,"zipcode":"90245"},{"location":"Escape Room L.A.","address":"120 E. 8th St Los Angeles, ","formattedAddress":"120 E 8th St, Los Angeles, CA 90014, USA","neighborhood":"Downtown","lat":34.0420721,"lng":-118.2528292,"zipcode":"90014"},{"location":"The Townhouse","address":"52 Windward Ave. Venice, ","formattedAddress":"52 Windward Ave, Venice, CA 90291, USA","neighborhood":"Venice","lat":33.9871768,"lng":-118.4726295,"zipcode":"90291"},{"location":"Hyperion Tavern","address":"1941 Hyperion Ave. Los Angeles, ","formattedAddress":"1941 Hyperion Ave, Los Angeles, CA 90027, USA","neighborhood":"Los Feliz","lat":34.0982695,"lng":-118.2750725,"zipcode":"90027"},{"location":"The Attic","address":"14633 Ventura Blvd. Sherman Oaks, California 91403 818-485-2200","formattedAddress":"14633 Ventura Blvd, Sherman Oaks, CA 91403, USA","neighborhood":"Sherman Oaks","lat":34.1514925,"lng":-118.4521178,"zipcode":"91403"},{"location":"Vintage Grocers","address":"140 Promenade Way Westlake Village, California 91362 805-230-0010","formattedAddress":"140 Promenade Way, Thousand Oaks, CA 91362, USA","neighborhood":null,"lat":34.1587765,"lng":-118.8208825,"zipcode":"91362"},{"location":"MODA Hollywood, Museum of Digital Art","address":"7190 Sunset Blvd. Los Angeles, ","formattedAddress":"7190 Sunset Blvd, Los Angeles, CA 90046, USA","neighborhood":"Central LA","lat":34.0977169,"lng":-118.3468353,"zipcode":"90046"},{"location":"Cinespace","address":"6356 Hollywood Blvd. Los Angeles, ","formattedAddress":"6356 Hollywood Blvd, Los Angeles, CA 90028, USA","neighborhood":"Hollywood","lat":34.101267,"lng":-118.328501,"zipcode":"90028"},{"location":"Don Chente Bar, Grill & Lounge","address":"248 S. Figueroa St. Los Angeles, ","formattedAddress":"248 S Figueroa St, Los Angeles, CA 90012, USA","neighborhood":"Central LA","lat":34.0558862,"lng":-118.2537877,"zipcode":"90012"},{"location":"Au Fudge","address":"9010 Melrose Ave West Hollywood, California 90069 424-288-4268","formattedAddress":"9010 Melrose Ave, West Hollywood, CA 90069, USA","neighborhood":"Central LA","lat":34.0805544,"lng":-118.3882164,"zipcode":"90069"},{"location":"Antaeus Theatre Company","address":"110 E. Broadway Glendale, ","formattedAddress":"110 E Broadway, Glendale, CA 91205, USA","neighborhood":"Downtown","lat":34.1461412,"lng":-118.2543168,"zipcode":"91205"},{"location":"Loews Hollywood Hotel","address":"1755 N. Highland Ave. Hollywood, ","formattedAddress":"1755 Highland Ave, Hollywood, CA 90028, USA","neighborhood":"Hollywood","lat":34.1029312,"lng":-118.3391684,"zipcode":"90028"},{"location":"Colombo's Italian Steakhouse & Jazz Club","address":"1833 Colorado Blvd. Eagle Rock, ","formattedAddress":"1833 Colorado Blvd, Los Angeles, CA 90041, USA","neighborhood":"Northeast Los Angeles","lat":34.1395978,"lng":-118.2072713,"zipcode":"90041"},{"location":"Angel City Brewing Co.","address":"216 S. Alameda St. Los Angeles, ","formattedAddress":"216 S Alameda St, Los Angeles, CA 90012, USA","neighborhood":"Central LA","lat":34.0467796,"lng":-118.2380984,"zipcode":"90012"},{"location":"Escape Room L.A.","address":"120 E. 8th St Los Angeles, ","formattedAddress":"120 E 8th St, Los Angeles, CA 90014, USA","neighborhood":"Downtown","lat":34.0420721,"lng":-118.2528292,"zipcode":"90014"},{"location":"Antaeus Theatre Company","address":"110 E. Broadway Glendale, ","formattedAddress":"110 E Broadway, Glendale, CA 91205, USA","neighborhood":"Downtown","lat":34.1461412,"lng":-118.2543168,"zipcode":"91205"},{"location":"USC, Bovard Auditorium","address":"3551 Trousdale Parkway Los Angeles, ","formattedAddress":"3551 Trousdale Pkwy, Los Angeles, CA 90089, USA","neighborhood":"South Los Angeles","lat":34.0209141,"lng":-118.2855371,"zipcode":"90089"},{"location":"The Greek Theatre","address":"2700 N. Vermont Ave. Los Angeles, ","formattedAddress":"2700 N Vermont Ave, Los Angeles, CA 90027, USA","neighborhood":null,"lat":34.1205588,"lng":-118.2963915,"zipcode":"90027"},{"location":"Empire Polo Club","address":"81-800 Avenue 51 Indio, ","formattedAddress":"81-800 Avenue 51, Indio, CA 92201, USA","neighborhood":null,"lat":33.6826141,"lng":-116.2382135,"zipcode":"92201"},{"location":"Loews Hollywood Hotel","address":"1755 N. Highland Ave. Hollywood, ","formattedAddress":"1755 Highland Ave, Hollywood, CA 90028, USA","neighborhood":"Hollywood","lat":34.1029312,"lng":-118.3391684,"zipcode":"90028"},{"location":"Comedy Union","address":"5040 W. Pico Blvd. Los Angeles, ","formattedAddress":"5040 W Pico Blvd, Los Angeles, CA 90019, USA","neighborhood":"Central LA","lat":34.047547,"lng":-118.34761,"zipcode":"90019"},{"location":"The Conga Room","address":"800 W. Olympic Blvd. Los Angeles, ","formattedAddress":"800 W Olympic Blvd, Los Angeles, CA 90015, USA","neighborhood":"Downtown","lat":34.0449376,"lng":-118.2654979,"zipcode":"90015"},{"location":"Create Nightclub","address":"6021 Hollywood Blvd. Los Angeles, ","formattedAddress":"6021 Hollywood Blvd, Los Angeles, CA 90028, USA","neighborhood":"Hollywood","lat":34.1020426,"lng":-118.3209169,"zipcode":"90028"},{"location":"The Automobile Driving Museum","address":"610 Lairport St. El Segundo, ","formattedAddress":"610 Lairport St, El Segundo, CA 90245, USA","neighborhood":null,"lat":33.9247131,"lng":-118.3922325,"zipcode":"90245"},{"location":"Tia Chucha's Centro Cultural & Bookstore","address":"13197-A Gladstone Ave. Sylmar, ","formattedAddress":"13197 Gladstone Ave, Sylmar, CA 91342, USA","neighborhood":"Sylmar","lat":34.310469,"lng":-118.4282789,"zipcode":"91342"},{"location":"Riviera 31","address":"Hotel Sofitel, 8555 Beverly Blvd. Los Angeles, California 90048 310-278-5444","formattedAddress":"8555 Beverly Blvd, Los Angeles, CA 90048, USA","neighborhood":"Central LA","lat":34.0763642,"lng":-118.3774949,"zipcode":"90048"},{"location":"Exchange L.A.","address":"618 S. Spring St. Los Angeles, ","formattedAddress":"618 S Spring St, Los Angeles, CA 90014, USA","neighborhood":"Downtown","lat":34.0452545,"lng":-118.2511393,"zipcode":"90014"},{"location":"Westwood Village","address":"1031 Broxton Ave Los Angeles, CA California 90024 310-470-1812","formattedAddress":"1031 Broxton Ave, Los Angeles, CA 90024, USA","neighborhood":"Westwood","lat":34.0618175,"lng":-118.4465493,"zipcode":"90024"},{"location":"Antaeus Theatre Company","address":"110 E. Broadway Glendale, ","formattedAddress":"110 E Broadway, Glendale, CA 91205, USA","neighborhood":"Downtown","lat":34.1461412,"lng":-118.2543168,"zipcode":"91205"},{"location":"South Park Center","address":"1139 S. Hill St. Los Angeles, ","formattedAddress":"1139 Hill St, Los Angeles, CA 90015, USA","neighborhood":"Downtown","lat":34.0390574,"lng":-118.2611996,"zipcode":"90015"},{"location":"The Prospector","address":"2400 E. Seventh St. Long Beach, ","formattedAddress":"2400 E 7th St, Long Beach, CA 90804, USA","neighborhood":"Eastside","lat":33.775159,"lng":-118.163089,"zipcode":"90804"},{"location":"Empire Polo Club","address":"81-800 Avenue 51 Indio, ","formattedAddress":"81-800 Avenue 51, Indio, CA 92201, USA","neighborhood":null,"lat":33.6826141,"lng":-116.2382135,"zipcode":"92201"},{"location":"Loews Hollywood Hotel","address":"1755 N. Highland Ave. Hollywood, ","formattedAddress":"1755 Highland Ave, Hollywood, CA 90028, USA","neighborhood":"Hollywood","lat":34.1029312,"lng":-118.3391684,"zipcode":"90028"},{"location":"The Village at Ed Gould Plaza.","address":"1125 N McCadden Pl Los Angeles, Ca 90038 323-860-7302","formattedAddress":"1125 N McCadden Pl, Los Angeles, CA 90038, USA","neighborhood":"Central LA","lat":34.0918968,"lng":-118.3376887,"zipcode":"90038"},{"location":"Cheviot Hills Recreation Center","address":"2551 Motor Ave. Los Angeles, ","formattedAddress":"2551 Motor Ave, Los Angeles, CA 90064, USA","neighborhood":"Cheviot Hills","lat":34.0452361,"lng":-118.4079537,"zipcode":"90064"},{"location":"Sagebrush Cantina","address":"23527 Calabasas Rd. Calabasas, ","formattedAddress":"23527 Calabasas Rd, Calabasas, CA 91302, USA","neighborhood":null,"lat":34.1576413,"lng":-118.6395266,"zipcode":"91302"},{"location":"Oyster House Saloon","address":"12446 Moorpark St. Studio City, ","formattedAddress":"12446 Moorpark St, Studio City, CA 91604, USA","neighborhood":"Studio City","lat":34.1501758,"lng":-118.4047244,"zipcode":"91604"},{"location":"Desert Rose","address":"1700 Hillhurst Ave. Los Angeles, ","formattedAddress":"1700 Hillhurst Ave, Los Angeles, CA 90027, USA","neighborhood":"Central LA","lat":34.1019661,"lng":-118.287047,"zipcode":"90027"},{"location":"Edgemar center","address":"2437 main st Santa Monica, CALIFORNIA 90405 310-399-3666","formattedAddress":"2437 Main St, Santa Monica, CA 90405, USA","neighborhood":"Ocean Park","lat":34.0035616,"lng":-118.4847408,"zipcode":"90405"},{"location":"Antaeus Theatre Company","address":"110 E. Broadway Glendale, ","formattedAddress":"110 E Broadway, Glendale, CA 91205, USA","neighborhood":"Downtown","lat":34.1461412,"lng":-118.2543168,"zipcode":"91205"},{"location":"UCLA Store","address":"308 Westwood Plaza Los Angeles, ","formattedAddress":"308 Westwood Plaza, Los Angeles, CA 90024, USA","neighborhood":"Westwood","lat":34.070418,"lng":-118.4441451,"zipcode":"90024"},{"location":"Empire Polo Club","address":"81-800 Avenue 51 Indio, ","formattedAddress":"81-800 Avenue 51, Indio, CA 92201, USA","neighborhood":null,"lat":33.6826141,"lng":-116.2382135,"zipcode":"92201"},{"location":"The Escondite","address":"410 Boyd St. Los Angeles, ","formattedAddress":"410 Boyd St, Los Angeles, CA 90013, USA","neighborhood":"Central LA","lat":34.04609440000001,"lng":-118.2421687,"zipcode":"90013"},{"location":"Cheviot Hills Recreation Center","address":"2551 Motor Ave. Los Angeles, ","formattedAddress":"2551 Motor Ave, Los Angeles, CA 90064, USA","neighborhood":"Cheviot Hills","lat":34.0452361,"lng":-118.4079537,"zipcode":"90064"},{"location":"Lewis Family Playhouse","address":"12505 Cultural Center Dr. Rancho Cucamonga, ","formattedAddress":"12505 Cultural Center Dr, Rancho Cucamonga, CA 91739, USA","neighborhood":null,"lat":34.112922,"lng":-117.532576,"zipcode":"91739"},{"location":"Westwood Village","address":"1031 Broxton Ave Los Angeles, CA California 90024 310-470-1812","formattedAddress":"1031 Broxton Ave, Los Angeles, CA 90024, USA","neighborhood":"Westwood","lat":34.0618175,"lng":-118.4465493,"zipcode":"90024"},{"location":"Luxe Sunset Boulevard Hotel","address":"11461 Sunset Blvd. Brentwood, ","formattedAddress":"11461 Sunset Blvd, Los Angeles, CA 90049, USA","neighborhood":"Brentwood","lat":34.0726109,"lng":-118.4685961,"zipcode":"90049"},{"location":"The Gem Theatre","address":"12852 Main St. Garden Grove, California 92840 714-741-9550","formattedAddress":"12852 Main St, Garden Grove, CA 92840, USA","neighborhood":null,"lat":33.77639449999999,"lng":-117.9407127,"zipcode":"92840"},{"location":"The Village at Westfield Topanga","address":"6250 Topanga Canyon Blvd. Woodland Hills, ","formattedAddress":"6250 Topanga Canyon Blvd, Woodland Hills, CA 91367, USA","neighborhood":"Woodland Hills","lat":34.184131,"lng":-118.605084,"zipcode":"91367"},{"location":"The Hideaway Bar & Grill","address":"12122 Kagel Canyon Rd. Sylmar, ","formattedAddress":"12122 Kagel Canyon Rd, Sylmar, CA 91342, USA","neighborhood":"Sylmar","lat":34.2890611,"lng":-118.3759028,"zipcode":"91342"},{"location":"Celebration Theatre","address":"6760 Lexington Ave. Los Angeles, ","formattedAddress":"6760 Lexington Ave, Los Angeles, CA 90038, USA","neighborhood":"Central LA","lat":34.092476,"lng":-118.3377019,"zipcode":"90038"},{"location":"Fundamental los angeles","address":"1303 Westwood Blvd. Los Angeles, Ca Westwood, ","formattedAddress":"1303 Westwood Blvd, Los Angeles, CA 90024, USA","neighborhood":"Westwood","lat":34.0567699,"lng":-118.443025,"zipcode":"90024"},{"location":"The Automobile Driving Museum","address":"610 Lairport St. El Segundo, ","formattedAddress":"610 Lairport St, El Segundo, CA 90245, USA","neighborhood":null,"lat":33.9247131,"lng":-118.3922325,"zipcode":"90245"},{"location":"Melrose Trading Post","address":"7850 Melrose Ave. Los Angeles, ","formattedAddress":"7850 Melrose Ave, Los Angeles, CA 90036, USA","neighborhood":"Central LA","lat":34.0834007,"lng":-118.3597341,"zipcode":"90036"},{"location":"Junior High","address":"5656 Hollywood Blvd. Hollywood, ","formattedAddress":"5656 Hollywood Blvd, Los Angeles, CA 90028, USA","neighborhood":"Hollywood","lat":34.1015213,"lng":-118.3133915,"zipcode":"90028"},{"location":"Colombo's Italian Steakhouse & Jazz Club","address":"1833 Colorado Blvd. Eagle Rock, ","formattedAddress":"1833 Colorado Blvd, Los Angeles, CA 90041, USA","neighborhood":"Northeast Los Angeles","lat":34.1395978,"lng":-118.2072713,"zipcode":"90041"},{"location":"Westfield Valencia Town Center","address":"24201 Valencia Blvd. Valencia, ","formattedAddress":"24201 Valencia Blvd, Valencia, CA 91355, USA","neighborhood":"Valencia","lat":34.4176299,"lng":-118.5608039,"zipcode":"91355"},{"location":"Colombo's Italian Steakhouse & Jazz Club","address":"1833 Colorado Blvd. Eagle Rock, ","formattedAddress":"1833 Colorado Blvd, Los Angeles, CA 90041, USA","neighborhood":"Northeast Los Angeles","lat":34.1395978,"lng":-118.2072713,"zipcode":"90041"},{"location":"Downtown Independent Theater","address":"251 S. Main St. Los Angeles, ","formattedAddress":"251 S Main St, Los Angeles, CA 90012, USA","neighborhood":"Central LA","lat":34.050286,"lng":-118.245687,"zipcode":"90012"},{"location":"Palm Tree L.A.","address":"3240 Wilshire Blvd. Los Angeles, ","formattedAddress":"3240 Wilshire Blvd, Los Angeles, CA 90010, USA","neighborhood":"Koreatown","lat":34.0614383,"lng":-118.2925458,"zipcode":"90010"},{"location":"The Kibitz Room","address":"419 N. Fairfax Ave. Los Angeles, ","formattedAddress":"419 N Fairfax Ave, Los Angeles, CA 90036, USA","neighborhood":"Central LA","lat":34.0789742,"lng":-118.361875,"zipcode":"90036"},{"location":"Good Shepherd School","address":"6338 N Figueroa St. Los Angeles, ","formattedAddress":"6338 N Figueroa St, Los Angeles, CA 90042, USA","neighborhood":"Northeast Los Angeles","lat":34.11658200000001,"lng":-118.182717,"zipcode":"90042"},{"location":"Gardenia Restaurant & Lounge","address":"7066 Santa Monica Blvd. Los Angeles, ","formattedAddress":"7066 Santa Monica Blvd, West Hollywood, CA 90038, USA","neighborhood":"Hollywood","lat":34.0907143,"lng":-118.3433321,"zipcode":"90038"},{"location":"The Automobile Driving Museum","address":"610 Lairport St. El Segundo, ","formattedAddress":"610 Lairport St, El Segundo, CA 90245, USA","neighborhood":null,"lat":33.9247131,"lng":-118.3922325,"zipcode":"90245"},{"location":"Trip","address":"2101 Lincoln Blvd. Santa Monica, ","formattedAddress":"2101 Lincoln Blvd, Santa Monica, CA 90405, USA","neighborhood":"Ocean Park","lat":34.0109254,"lng":-118.4809526,"zipcode":"90405"},{"location":"Rafa's Lounge","address":"1836 W. Sunset Blvd. Los Angeles, ","formattedAddress":"1836 Sunset Blvd, Los Angeles, CA 90026, USA","neighborhood":"Echo Park","lat":34.0778325,"lng":-118.2603935,"zipcode":"90026"},{"location":"Colombo's Italian Steakhouse & Jazz Club","address":"1833 Colorado Blvd. Eagle Rock, ","formattedAddress":"1833 Colorado Blvd, Los Angeles, CA 90041, USA","neighborhood":"Northeast Los Angeles","lat":34.1395978,"lng":-118.2072713,"zipcode":"90041"},{"location":"The Beverly O'Neill Theater","address":"300 E. Ocean Blvd., Long Beach Convention & Entertainment Center Long Beach, ","formattedAddress":"300 E Ocean Blvd, Long Beach, CA 90802, USA","neighborhood":"Waterfront","lat":33.7652636,"lng":-118.1893385,"zipcode":"90802"},{"location":"Hollywood Forever Cemetery","address":"6000 Santa Monica Blvd. Los Angeles, ","formattedAddress":"6000 Santa Monica Blvd, Los Angeles, CA 90038, USA","neighborhood":"Hollywood","lat":34.0904912,"lng":-118.3198111,"zipcode":"90038"},{"location":"Shrine Auditorium & Expo Hall","address":"665 W. Jefferson Blvd. Los Angeles, ","formattedAddress":"665 W Jefferson Blvd, Los Angeles, CA 90007, USA","neighborhood":"South Los Angeles","lat":34.0236612,"lng":-118.2812202,"zipcode":"90007"},{"location":"Honeycut","address":"819 S. Flower St. Los Angeles, ","formattedAddress":"819 S Flower St, Los Angeles, CA 90017, USA","neighborhood":"Downtown","lat":34.047025,"lng":-118.2608795,"zipcode":"90017"},{"location":"The Automobile Driving Museum","address":"610 Lairport St. El Segundo, ","formattedAddress":"610 Lairport St, El Segundo, CA 90245, USA","neighborhood":null,"lat":33.9247131,"lng":-118.3922325,"zipcode":"90245"},{"location":"Westwood Village","address":"1031 Broxton Ave Los Angeles, CA California 90024 310-470-1812","formattedAddress":"1031 Broxton Ave, Los Angeles, CA 90024, USA","neighborhood":"Westwood","lat":34.0618175,"lng":-118.4465493,"zipcode":"90024"},{"location":"Au Fudge","address":"9010 Melrose Ave West Hollywood, California 90069 424-288-4268","formattedAddress":"9010 Melrose Ave, West Hollywood, CA 90069, USA","neighborhood":"Central LA","lat":34.0805544,"lng":-118.3882164,"zipcode":"90069"},{"location":"Westfield Valencia Town Center","address":"24201 Valencia Blvd. Valencia, ","formattedAddress":"24201 Valencia Blvd, Valencia, CA 91355, USA","neighborhood":"Valencia","lat":34.4176299,"lng":-118.5608039,"zipcode":"91355"},{"location":"Hyperion Tavern","address":"1941 Hyperion Ave. Los Angeles, ","formattedAddress":"1941 Hyperion Ave, Los Angeles, CA 90027, USA","neighborhood":"Los Feliz","lat":34.0982695,"lng":-118.2750725,"zipcode":"90027"},{"location":"Vintage Grocers","address":"140 Promenade Way Westlake Village, California 91362 805-230-0010","formattedAddress":"140 Promenade Way, Thousand Oaks, CA 91362, USA","neighborhood":null,"lat":34.1587765,"lng":-118.8208825,"zipcode":"91362"},{"location":"Culver Hotel","address":"9400 Culver Blvd. Culver City, ","formattedAddress":"9400 Culver Blvd, Culver City, CA 90232, USA","neighborhood":"Downtown","lat":34.0238488,"lng":-118.394145,"zipcode":"90232"},{"location":"The Townhouse","address":"52 Windward Ave. Venice, ","formattedAddress":"52 Windward Ave, Venice, CA 90291, USA","neighborhood":"Venice","lat":33.9871768,"lng":-118.4726295,"zipcode":"90291"},{"location":"Hollywood Playhouse at the Zephyr Theatre","address":"7456 Melrose Ave Los Angeles, ","formattedAddress":"7456 Melrose Ave, West Hollywood, CA 90046, USA","neighborhood":"Central LA","lat":34.0833229,"lng":-118.3525757,"zipcode":"90046"},{"location":"Don Chente Bar, Grill & Lounge","address":"248 S. Figueroa St. Los Angeles, ","formattedAddress":"248 S Figueroa St, Los Angeles, CA 90012, USA","neighborhood":"Central LA","lat":34.0558862,"lng":-118.2537877,"zipcode":"90012"},{"location":"Antaeus Theatre Company","address":"110 E. Broadway Glendale, ","formattedAddress":"110 E Broadway, Glendale, CA 91205, USA","neighborhood":"Downtown","lat":34.1461412,"lng":-118.2543168,"zipcode":"91205"},{"location":"The Greek Theatre","address":"2700 N. Vermont Ave. Los Angeles, ","formattedAddress":"2700 N Vermont Ave, Los Angeles, CA 90027, USA","neighborhood":null,"lat":34.1205588,"lng":-118.2963915,"zipcode":"90027"},{"location":"The Beverly O'Neill Theater","address":"300 E. Ocean Blvd., Long Beach Convention & Entertainment Center Long Beach, ","formattedAddress":"300 E Ocean Blvd, Long Beach, CA 90802, USA","neighborhood":"Waterfront","lat":33.7652636,"lng":-118.1893385,"zipcode":"90802"},{"location":"Santa Barbara Vintners","address":"597 Avenue of Flags Buellton, ","formattedAddress":"597 Ave Of The Flags, Buellton, CA 93427, USA","neighborhood":null,"lat":34.617959,"lng":-120.1911985,"zipcode":"93427"},{"location":"Colombo's Italian Steakhouse & Jazz Club","address":"1833 Colorado Blvd. Eagle Rock, ","formattedAddress":"1833 Colorado Blvd, Los Angeles, CA 90041, USA","neighborhood":"Northeast Los Angeles","lat":34.1395978,"lng":-118.2072713,"zipcode":"90041"},{"location":"OPICA Adult Day Care Center","address":"11759 Missouri Ave. West Los Angeles, ","formattedAddress":"11759 Missouri Ave, Los Angeles, CA 90025, USA","neighborhood":"Sawtelle","lat":34.0377763,"lng":-118.4532338,"zipcode":"90025"},{"location":"Griffins of Kinsale","address":"1007 Mission St. South Pasadena, CA 626-799-0926","formattedAddress":"1007 Mission St, South Pasadena, CA 91030, USA","neighborhood":null,"lat":34.1155694,"lng":-118.1568061,"zipcode":"91030"},{"location":"Westwood Village","address":"1031 Broxton Ave Los Angeles, CA California 90024 310-470-1812","formattedAddress":"1031 Broxton Ave, Los Angeles, CA 90024, USA","neighborhood":"Westwood","lat":34.0618175,"lng":-118.4465493,"zipcode":"90024"},{"location":"The Gem Theatre","address":"12852 Main St. Garden Grove, California 92840 714-741-9550","formattedAddress":"12852 Main St, Garden Grove, CA 92840, USA","neighborhood":null,"lat":33.77639449999999,"lng":-117.9407127,"zipcode":"92840"},{"location":"The Automobile Driving Museum","address":"610 Lairport St. El Segundo, ","formattedAddress":"610 Lairport St, El Segundo, CA 90245, USA","neighborhood":null,"lat":33.9247131,"lng":-118.3922325,"zipcode":"90245"},{"location":"The SmokeHouse Restaurant","address":"4420 W. Lakeside Dr. Burbank, ","formattedAddress":"4420 Lakeside Dr, Burbank, CA 91505, USA","neighborhood":null,"lat":34.1455215,"lng":-118.341308,"zipcode":"91505"},{"location":"Celebration Theatre","address":"6760 Lexington Ave. Los Angeles, ","formattedAddress":"6760 Lexington Ave, Los Angeles, CA 90038, USA","neighborhood":"Central LA","lat":34.092476,"lng":-118.3377019,"zipcode":"90038"},{"location":"One Roof","address":"1333 6th Ave Venice Ave, ","formattedAddress":"California WB & 6th Ave (Venice) NS, Los Angeles, CA 90291, USA","neighborhood":"Venice","lat":33.991424,"lng":-118.465568,"zipcode":"90291"},{"location":"The Three Clubs","address":"1123 Vine St Hollywood, ","formattedAddress":"1123 Vine St, Los Angeles, CA 90038, USA","neighborhood":"Central LA","lat":34.0914653,"lng":-118.3271185,"zipcode":"90038"},{"location":"Antaeus Theatre Company","address":"110 E. Broadway Glendale, ","formattedAddress":"110 E Broadway, Glendale, CA 91205, USA","neighborhood":"Downtown","lat":34.1461412,"lng":-118.2543168,"zipcode":"91205"},{"location":"The Beverly O'Neill Theater","address":"300 E. Ocean Blvd., Long Beach Convention & Entertainment Center Long Beach, ","formattedAddress":"300 E Ocean Blvd, Long Beach, CA 90802, USA","neighborhood":"Waterfront","lat":33.7652636,"lng":-118.1893385,"zipcode":"90802"},{"location":"UCLA Center For Intercultural Performance","address":"120 Westwood Plaza Los Angeles, ","formattedAddress":"120 Westwood Plaza, Los Angeles, CA 90095, USA","neighborhood":"Westwood","lat":34.0728461,"lng":-118.4447953,"zipcode":"90095"},{"location":"Richard & Karen Carpenter Performing Arts Center","address":"6200 Atherton St. Long Beach, ","formattedAddress":"6200 E Atherton St, Long Beach, CA 90815, USA","neighborhood":null,"lat":33.788396,"lng":-118.1126051,"zipcode":"90815"},{"location":"The Greek Theatre","address":"2700 N. Vermont Ave. Los Angeles, ","formattedAddress":"2700 N Vermont Ave, Los Angeles, CA 90027, USA","neighborhood":null,"lat":34.1205588,"lng":-118.2963915,"zipcode":"90027"},{"location":"Pasadena Civic Auditorium","address":"300 E. Green St. Pasadena, ","formattedAddress":"300 E Green St, Pasadena, CA 91101, USA","neighborhood":null,"lat":34.143817,"lng":-118.144302,"zipcode":"91101"},{"location":"Empire Polo Club","address":"81-800 Avenue 51 Indio, ","formattedAddress":"81-800 Avenue 51, Indio, CA 92201, USA","neighborhood":null,"lat":33.6826141,"lng":-116.2382135,"zipcode":"92201"},{"location":"National Orange Show Events Center","address":"689 S. \"E\" St. San Bernardino, ","formattedAddress":"689 S E St, San Bernardino, CA 92408, USA","neighborhood":"Show Place","lat":34.088185,"lng":-117.2920614,"zipcode":"92408"},{"location":"L.A. Workers Center","address":"1251 S. St. Andrews Place, Los Angeles, ","formattedAddress":"1251 S St Andrews Pl, Los Angeles, CA 90019, USA","neighborhood":"Central LA","lat":34.0475834,"lng":-118.3120182,"zipcode":"90019"},{"location":"Santa Barbara Vintners","address":"597 Avenue of Flags Buellton, ","formattedAddress":"597 Ave Of The Flags, Buellton, CA 93427, USA","neighborhood":null,"lat":34.617959,"lng":-120.1911985,"zipcode":"93427"},{"location":"Write Your Life LA","address":"2629 Purdue Ave. Los Angeles, ","formattedAddress":"2629 Purdue Ave, Los Angeles, CA 90064, USA","neighborhood":"Mar Vista","lat":34.0294761,"lng":-118.4371307,"zipcode":"90064"},{"location":"Edgemar Center for the Arts","address":"2437 Main St. Santa Monica, ","formattedAddress":"2437 Main St, Santa Monica, CA 90405, USA","neighborhood":"Ocean Park","lat":34.0035616,"lng":-118.4847408,"zipcode":"90405"},{"location":"GTC Burbank","address":"1111-B W. Olive Ave. Burbank, ","formattedAddress":"1111 W Olive Ave, Burbank, CA 91506, USA","neighborhood":null,"lat":34.1721349,"lng":-118.3185346,"zipcode":"91506"},{"location":"Miles Memorial Playhouse","address":"1130 Lincoln Blvd. Santa Monica, ","formattedAddress":"1130 Lincoln Blvd, Santa Monica, CA 90403, USA","neighborhood":"Wilshire Montana","lat":34.0226618,"lng":-118.4956828,"zipcode":"90403"},{"location":"That ’80s Bar","address":"10555 Mills Ave. Montclair, ","formattedAddress":"10555 S Mills Ave, Montclair, CA 91763, USA","neighborhood":null,"lat":34.0621194,"lng":-117.7172512,"zipcode":"91763"},{"location":"Riviera 31","address":"Hotel Sofitel, 8555 Beverly Blvd. Los Angeles, California 90048 310-278-5444","formattedAddress":"8555 Beverly Blvd, Los Angeles, CA 90048, USA","neighborhood":"Central LA","lat":34.0763642,"lng":-118.3774949,"zipcode":"90048"},{"location":"Los Angeles Convention Center","address":"1201 S. Figueroa St. Los Angeles, ","formattedAddress":"1201 S Figueroa St, Los Angeles, CA 90015, USA","neighborhood":"Central LA","lat":34.0413606,"lng":-118.2697771,"zipcode":"90015"},{"location":"Create Nightclub","address":"6021 Hollywood Blvd. Los Angeles, ","formattedAddress":"6021 Hollywood Blvd, Los Angeles, CA 90028, USA","neighborhood":"Hollywood","lat":34.1020426,"lng":-118.3209169,"zipcode":"90028"},{"location":"Tia Chucha's Centro Cultural & Bookstore","address":"13197-A Gladstone Ave. Sylmar, ","formattedAddress":"13197 Gladstone Ave, Sylmar, CA 91342, USA","neighborhood":"Sylmar","lat":34.310469,"lng":-118.4282789,"zipcode":"91342"},{"location":"Antaeus Theatre Company","address":"110 E. Broadway Glendale, ","formattedAddress":"110 E Broadway, Glendale, CA 91205, USA","neighborhood":"Downtown","lat":34.1461412,"lng":-118.2543168,"zipcode":"91205"},{"location":"The Beverly O'Neill Theater","address":"300 E. Ocean Blvd., Long Beach Convention & Entertainment Center Long Beach, ","formattedAddress":"300 E Ocean Blvd, Long Beach, CA 90802, USA","neighborhood":"Waterfront","lat":33.7652636,"lng":-118.1893385,"zipcode":"90802"},{"location":"William S Hart Park","address":"24151 Newhall Ave Santa Clarita, ","formattedAddress":"24151 Newhall Ave, Santa Clarita, CA 91321, USA","neighborhood":"Newhall","lat":34.3753971,"lng":-118.5257901,"zipcode":"91321"},{"location":"First Lutheran Church & School","address":"2900 W. Carson St. Torrance, ","formattedAddress":"2900 W Carson St, Torrance, CA 90503, USA","neighborhood":"Madrona","lat":33.830901,"lng":-118.3386614,"zipcode":"90503"},{"location":"Libbey Bowl","address":"210 S. Signal St. Ojai, ","formattedAddress":"210 S Signal St, Ojai, CA 93023, USA","neighborhood":null,"lat":34.4458781,"lng":-119.2458306,"zipcode":"93023"},{"location":"Richard & Karen Carpenter Performing Arts Center","address":"6200 Atherton St. Long Beach, ","formattedAddress":"6200 E Atherton St, Long Beach, CA 90815, USA","neighborhood":null,"lat":33.788396,"lng":-118.1126051,"zipcode":"90815"},{"location":"Carbon","address":"9300 Venice Blvd. Los Angeles, ","formattedAddress":"9300 Venice Blvd, Culver City, CA 90232, USA","neighborhood":"Downtown","lat":34.0256409,"lng":-118.3941515,"zipcode":"90232"},{"location":"Queen Mary Events Park","address":"next to the big boat, 1126 Queens Highway Long Beach, ","formattedAddress":"1126 Queens Hwy, Long Beach, CA 90802, USA","neighborhood":"Queensway Bay","lat":33.7526356,"lng":-118.1903235,"zipcode":"90802"},{"location":"Empire Polo Club","address":"81-800 Avenue 51 Indio, ","formattedAddress":"81-800 Avenue 51, Indio, CA 92201, USA","neighborhood":null,"lat":33.6826141,"lng":-116.2382135,"zipcode":"92201"},{"location":"National Orange Show Events Center","address":"689 S. \"E\" St. San Bernardino, ","formattedAddress":"689 S E St, San Bernardino, CA 92408, USA","neighborhood":"Show Place","lat":34.088185,"lng":-117.2920614,"zipcode":"92408"},{"location":"Santa Barbara Vintners","address":"597 Avenue of Flags Buellton, ","formattedAddress":"597 Ave Of The Flags, Buellton, CA 93427, USA","neighborhood":null,"lat":34.617959,"lng":-120.1911985,"zipcode":"93427"},{"location":"R Bar","address":"3331 W. Eighth St. Los Angeles, ","formattedAddress":"3331 W 8th St, Los Angeles, CA 90005, USA","neighborhood":"Central LA","lat":34.0578538,"lng":-118.301083,"zipcode":"90005"},{"location":"Cana Rum Bar","address":"714 W. Olympic Blvd. Los Angeles, ","formattedAddress":"714 W Olympic Blvd, Los Angeles, CA 90015, USA","neighborhood":"Downtown","lat":34.0443748,"lng":-118.2633425,"zipcode":"90015"},{"location":"Antaeus Theatre Company","address":"110 E. Broadway Glendale, ","formattedAddress":"110 E Broadway, Glendale, CA 91205, USA","neighborhood":"Downtown","lat":34.1461412,"lng":-118.2543168,"zipcode":"91205"},{"location":"The Beverly O'Neill Theater","address":"300 E. Ocean Blvd., Long Beach Convention & Entertainment Center Long Beach, ","formattedAddress":"300 E Ocean Blvd, Long Beach, CA 90802, USA","neighborhood":"Waterfront","lat":33.7652636,"lng":-118.1893385,"zipcode":"90802"},{"location":"The Ralph Freud Playhouse","address":"Macgowan Hall, 245 Charles E. Young Drive East, UCLA Los Angeles, ","formattedAddress":"245 Charles E Young Dr E, Los Angeles, CA 90095, USA","neighborhood":"Westwood","lat":34.0758239,"lng":-118.4396702,"zipcode":"90095"},{"location":"William S Hart Park","address":"24151 Newhall Ave Santa Clarita, ","formattedAddress":"24151 Newhall Ave, Santa Clarita, CA 91321, USA","neighborhood":"Newhall","lat":34.3753971,"lng":-118.5257901,"zipcode":"91321"},{"location":"Pasadena Civic Auditorium","address":"300 E. Green St. Pasadena, ","formattedAddress":"300 E Green St, Pasadena, CA 91101, USA","neighborhood":null,"lat":34.143817,"lng":-118.144302,"zipcode":"91101"},{"location":"Olive Dell Nudist Ranch","address":"26520 Keissel Rd. Colton, California 92324 909-825-6619","formattedAddress":"26520 Keissel Rd, Colton, CA 92324, USA","neighborhood":"Live Oak Canyon","lat":34.005313,"lng":-117.2253054,"zipcode":"92324"},{"location":"Empire Polo Club","address":"81-800 Avenue 51 Indio, ","formattedAddress":"81-800 Avenue 51, Indio, CA 92201, USA","neighborhood":null,"lat":33.6826141,"lng":-116.2382135,"zipcode":"92201"},{"location":"Santa Barbara Vintners","address":"597 Avenue of Flags Buellton, ","formattedAddress":"597 Ave Of The Flags, Buellton, CA 93427, USA","neighborhood":null,"lat":34.617959,"lng":-120.1911985,"zipcode":"93427"},{"location":"National Orange Show Events Center","address":"689 S. \"E\" St. San Bernardino, ","formattedAddress":"689 S E St, San Bernardino, CA 92408, USA","neighborhood":"Show Place","lat":34.088185,"lng":-117.2920614,"zipcode":"92408"},{"location":"The Escondite","address":"410 Boyd St. Los Angeles, ","formattedAddress":"410 Boyd St, Los Angeles, CA 90013, USA","neighborhood":"Central LA","lat":34.04609440000001,"lng":-118.2421687,"zipcode":"90013"},{"location":"American Legion Hollywood Post 43","address":"2035 N. Highland Ave. Los Angeles, ","formattedAddress":"2035 Highland Ave, Los Angeles, CA 90068, USA","neighborhood":"Central LA","lat":34.1078175,"lng":-118.337995,"zipcode":"90068"},{"location":"Westwood Village","address":"1031 Broxton Ave Los Angeles, CA California 90024 310-470-1812","formattedAddress":"1031 Broxton Ave, Los Angeles, CA 90024, USA","neighborhood":"Westwood","lat":34.0618175,"lng":-118.4465493,"zipcode":"90024"},{"location":"The Gem Theatre","address":"12852 Main St. Garden Grove, California 92840 714-741-9550","formattedAddress":"12852 Main St, Garden Grove, CA 92840, USA","neighborhood":null,"lat":33.77639449999999,"lng":-117.9407127,"zipcode":"92840"},{"location":"Malibu Lagoon SMBAS","address":"PCH & Cross Creek Rd. Malibu, ","formattedAddress":"Pacific Coast Hwy & Cross Creek Rd, Malibu, CA 90265, USA","neighborhood":"Eastern Malibu","lat":34.0344407,"lng":-118.6851038,"zipcode":"90265"},{"location":"Edgemar center","address":"2437 main st Santa Monica, CALIFORNIA 90405 310-399-3666","formattedAddress":"2437 Main St, Santa Monica, CA 90405, USA","neighborhood":"Ocean Park","lat":34.0035616,"lng":-118.4847408,"zipcode":"90405"},{"location":"Colombo's Italian Steakhouse & Jazz Club","address":"1833 Colorado Blvd. Eagle Rock, ","formattedAddress":"1833 Colorado Blvd, Los Angeles, CA 90041, USA","neighborhood":"Northeast Los Angeles","lat":34.1395978,"lng":-118.2072713,"zipcode":"90041"},{"location":"Colombo's Italian Steakhouse & Jazz Club","address":"1833 Colorado Blvd. Eagle Rock, ","formattedAddress":"1833 Colorado Blvd, Los Angeles, CA 90041, USA","neighborhood":"Northeast Los Angeles","lat":34.1395978,"lng":-118.2072713,"zipcode":"90041"},{"location":"Zan Beer","address":"3377 Wilshire Blvd., #200 Los Angeles, ","formattedAddress":"3377 Wilshire Blvd #200, Los Angeles, CA 90010, USA","neighborhood":"Koreatown","lat":34.0622606,"lng":-118.2975594,"zipcode":"90010"},{"location":"Westfield Valencia Town Center","address":"24201 Valencia Blvd. Valencia, ","formattedAddress":"24201 Valencia Blvd, Valencia, CA 91355, USA","neighborhood":"Valencia","lat":34.4176299,"lng":-118.5608039,"zipcode":"91355"},{"location":"Palm Tree L.A.","address":"3240 Wilshire Blvd. Los Angeles, ","formattedAddress":"3240 Wilshire Blvd, Los Angeles, CA 90010, USA","neighborhood":"Koreatown","lat":34.0614383,"lng":-118.2925458,"zipcode":"90010"},{"location":"Downtown Independent Theater","address":"251 S. Main St. Los Angeles, ","formattedAddress":"251 S Main St, Los Angeles, CA 90012, USA","neighborhood":"Central LA","lat":34.050286,"lng":-118.245687,"zipcode":"90012"},{"location":"The Kibitz Room","address":"419 N. Fairfax Ave. Los Angeles, ","formattedAddress":"419 N Fairfax Ave, Los Angeles, CA 90036, USA","neighborhood":"Central LA","lat":34.0789742,"lng":-118.361875,"zipcode":"90036"},{"location":"Gardenia Restaurant & Lounge","address":"7066 Santa Monica Blvd. Los Angeles, ","formattedAddress":"7066 Santa Monica Blvd, West Hollywood, CA 90038, USA","neighborhood":"Hollywood","lat":34.0907143,"lng":-118.3433321,"zipcode":"90038"},{"location":"Good Shepherd School","address":"6338 N Figueroa St. Los Angeles, ","formattedAddress":"6338 N Figueroa St, Los Angeles, CA 90042, USA","neighborhood":"Northeast Los Angeles","lat":34.11658200000001,"lng":-118.182717,"zipcode":"90042"},{"location":"Colombo's Italian Steakhouse & Jazz Club","address":"1833 Colorado Blvd. Eagle Rock, ","formattedAddress":"1833 Colorado Blvd, Los Angeles, CA 90041, USA","neighborhood":"Northeast Los Angeles","lat":34.1395978,"lng":-118.2072713,"zipcode":"90041"},{"location":"Richard & Karen Carpenter Performing Arts Center","address":"6200 Atherton St. Long Beach, ","formattedAddress":"6200 E Atherton St, Long Beach, CA 90815, USA","neighborhood":null,"lat":33.788396,"lng":-118.1126051,"zipcode":"90815"},{"location":"The Greek Theatre","address":"2700 N. Vermont Ave. Los Angeles, ","formattedAddress":"2700 N Vermont Ave, Los Angeles, CA 90027, USA","neighborhood":null,"lat":34.1205588,"lng":-118.2963915,"zipcode":"90027"},{"location":"Vintage Grocers","address":"140 Promenade Way Westlake Village, California 91362 805-230-0010","formattedAddress":"140 Promenade Way, Thousand Oaks, CA 91362, USA","neighborhood":null,"lat":34.1587765,"lng":-118.8208825,"zipcode":"91362"},{"location":"Hyperion Tavern","address":"1941 Hyperion Ave. Los Angeles, ","formattedAddress":"1941 Hyperion Ave, Los Angeles, CA 90027, USA","neighborhood":"Los Feliz","lat":34.0982695,"lng":-118.2750725,"zipcode":"90027"},{"location":"Au Fudge","address":"9010 Melrose Ave West Hollywood, California 90069 424-288-4268","formattedAddress":"9010 Melrose Ave, West Hollywood, CA 90069, USA","neighborhood":"Central LA","lat":34.0805544,"lng":-118.3882164,"zipcode":"90069"},{"location":"The Townhouse","address":"52 Windward Ave. Venice, ","formattedAddress":"52 Windward Ave, Venice, CA 90291, USA","neighborhood":"Venice","lat":33.9871768,"lng":-118.4726295,"zipcode":"90291"},{"location":"Trip","address":"2101 Lincoln Blvd. Santa Monica, ","formattedAddress":"2101 Lincoln Blvd, Santa Monica, CA 90405, USA","neighborhood":"Ocean Park","lat":34.0109254,"lng":-118.4809526,"zipcode":"90405"},{"location":"Precinct","address":"357 S. Broadway Los Angeles, ","formattedAddress":"357 S Broadway, Los Angeles, CA 90013, USA","neighborhood":"Downtown","lat":34.0498858,"lng":-118.2495102,"zipcode":"90013"},{"location":"Tuning Fork","address":"12051 Ventura Place Studio City, ","formattedAddress":"12051 Ventura Pl, Studio City, CA 91604, USA","neighborhood":"Studio City","lat":34.1446269,"lng":-118.3943098,"zipcode":"91604"},{"location":"Cinespace","address":"6356 Hollywood Blvd. Los Angeles, ","formattedAddress":"6356 Hollywood Blvd, Los Angeles, CA 90028, USA","neighborhood":"Hollywood","lat":34.101267,"lng":-118.328501,"zipcode":"90028"},{"location":"Culver Hotel","address":"9400 Culver Blvd. Culver City, ","formattedAddress":"9400 Culver Blvd, Culver City, CA 90232, USA","neighborhood":"Downtown","lat":34.0238488,"lng":-118.394145,"zipcode":"90232"},{"location":"The Pink Elephant","address":"2810 Main St. Santa Monica, ","formattedAddress":"2810 Main St, Santa Monica, CA 90405, USA","neighborhood":"Ocean Park","lat":33.999782,"lng":-118.4817373,"zipcode":"90405"},{"location":"MODA Hollywood, Museum of Digital Art","address":"7190 Sunset Blvd. Los Angeles, ","formattedAddress":"7190 Sunset Blvd, Los Angeles, CA 90046, USA","neighborhood":"Central LA","lat":34.0977169,"lng":-118.3468353,"zipcode":"90046"},{"location":"Antaeus Theatre Company","address":"110 E. Broadway Glendale, ","formattedAddress":"110 E Broadway, Glendale, CA 91205, USA","neighborhood":"Downtown","lat":34.1461412,"lng":-118.2543168,"zipcode":"91205"},{"location":"The Beverly O'Neill Theater","address":"300 E. Ocean Blvd., Long Beach Convention & Entertainment Center Long Beach, ","formattedAddress":"300 E Ocean Blvd, Long Beach, CA 90802, USA","neighborhood":"Waterfront","lat":33.7652636,"lng":-118.1893385,"zipcode":"90802"},{"location":"Hollywood Forever Cemetery","address":"6000 Santa Monica Blvd. Los Angeles, ","formattedAddress":"6000 Santa Monica Blvd, Los Angeles, CA 90038, USA","neighborhood":"Hollywood","lat":34.0904912,"lng":-118.3198111,"zipcode":"90038"},{"location":"The Greek Theatre","address":"2700 N. Vermont Ave. Los Angeles, ","formattedAddress":"2700 N Vermont Ave, Los Angeles, CA 90027, USA","neighborhood":null,"lat":34.1205588,"lng":-118.2963915,"zipcode":"90027"},{"location":"Richard & Karen Carpenter Performing Arts Center","address":"6200 Atherton St. Long Beach, ","formattedAddress":"6200 E Atherton St, Long Beach, CA 90815, USA","neighborhood":null,"lat":33.788396,"lng":-118.1126051,"zipcode":"90815"},{"location":"Colombo's Italian Steakhouse & Jazz Club","address":"1833 Colorado Blvd. Eagle Rock, ","formattedAddress":"1833 Colorado Blvd, Los Angeles, CA 90041, USA","neighborhood":"Northeast Los Angeles","lat":34.1395978,"lng":-118.2072713,"zipcode":"90041"},{"location":"Shrine Auditorium & Expo Hall","address":"665 W. Jefferson Blvd. Los Angeles, ","formattedAddress":"665 W Jefferson Blvd, Los Angeles, CA 90007, USA","neighborhood":"South Los Angeles","lat":34.0236612,"lng":-118.2812202,"zipcode":"90007"},{"location":"Westfield Valencia Town Center","address":"24201 Valencia Blvd. Valencia, ","formattedAddress":"24201 Valencia Blvd, Valencia, CA 91355, USA","neighborhood":"Valencia","lat":34.4176299,"lng":-118.5608039,"zipcode":"91355"},{"location":"Los Angeles Athletic Club","address":"431 W. Seventh St. Los Angeles, ","formattedAddress":"431 W 7th St, Los Angeles, CA 90014, USA","neighborhood":"Central LA","lat":34.0465967,"lng":-118.2550311,"zipcode":"90014"},{"location":"Westwood Village","address":"1031 Broxton Ave Los Angeles, CA California 90024 310-470-1812","formattedAddress":"1031 Broxton Ave, Los Angeles, CA 90024, USA","neighborhood":"Westwood","lat":34.0618175,"lng":-118.4465493,"zipcode":"90024"},{"location":"Antaeus Theatre Company","address":"110 E. Broadway Glendale, ","formattedAddress":"110 E Broadway, Glendale, CA 91205, USA","neighborhood":"Downtown","lat":34.1461412,"lng":-118.2543168,"zipcode":"91205"},{"location":"Knights of Columbus Hall","address":"21433 Strathern St. Canoga Park, ","formattedAddress":"21433 Strathern St, Canoga Park, CA 91304, USA","neighborhood":"Canoga Park","lat":34.21586130000001,"lng":-118.5988151,"zipcode":"91304"},{"location":"The Beverly O'Neill Theater","address":"300 E. Ocean Blvd., Long Beach Convention & Entertainment Center Long Beach, ","formattedAddress":"300 E Ocean Blvd, Long Beach, CA 90802, USA","neighborhood":"Waterfront","lat":33.7652636,"lng":-118.1893385,"zipcode":"90802"},{"location":"UCLA Center For Intercultural Performance","address":"120 Westwood Plaza Los Angeles, ","formattedAddress":"120 Westwood Plaza, Los Angeles, CA 90095, USA","neighborhood":"Westwood","lat":34.0728461,"lng":-118.4447953,"zipcode":"90095"},{"location":"Empire Polo Club","address":"81-800 Avenue 51 Indio, ","formattedAddress":"81-800 Avenue 51, Indio, CA 92201, USA","neighborhood":null,"lat":33.6826141,"lng":-116.2382135,"zipcode":"92201"},{"location":"Shrine Auditorium & Expo Hall","address":"665 W. Jefferson Blvd. Los Angeles, ","formattedAddress":"665 W Jefferson Blvd, Los Angeles, CA 90007, USA","neighborhood":"South Los Angeles","lat":34.0236612,"lng":-118.2812202,"zipcode":"90007"},{"location":"American Legion Hollywood Post 43","address":"2035 N. Highland Ave. Los Angeles, ","formattedAddress":"2035 Highland Ave, Los Angeles, CA 90068, USA","neighborhood":"Central LA","lat":34.1078175,"lng":-118.337995,"zipcode":"90068"},{"location":"Exchange L.A.","address":"618 S. Spring St. Los Angeles, ","formattedAddress":"618 S Spring St, Los Angeles, CA 90014, USA","neighborhood":"Downtown","lat":34.0452545,"lng":-118.2511393,"zipcode":"90014"},{"location":"The Conga Room","address":"800 W. Olympic Blvd. Los Angeles, ","formattedAddress":"800 W Olympic Blvd, Los Angeles, CA 90015, USA","neighborhood":"Downtown","lat":34.0449376,"lng":-118.2654979,"zipcode":"90015"},{"location":"Spaghettini Seal Beach","address":"3005 Old Ranch Parkway Seal Beach, ","formattedAddress":"3005 Old Ranch Pkwy, Seal Beach, CA 90740, USA","neighborhood":null,"lat":33.7765033,"lng":-118.0736813,"zipcode":"90740"},{"location":"Comedy Union","address":"5040 W. Pico Blvd. Los Angeles, ","formattedAddress":"5040 W Pico Blvd, Los Angeles, CA 90019, USA","neighborhood":"Central LA","lat":34.047547,"lng":-118.34761,"zipcode":"90019"},{"location":"Stars on Brand","address":"417 N. Brand Blvd. Glendale, ","formattedAddress":"417 N Brand Blvd, Glendale, CA 91203, USA","neighborhood":"Downtown","lat":34.1524264,"lng":-118.255263,"zipcode":"91203"},{"location":"Tia Chucha's Centro Cultural & Bookstore","address":"13197-A Gladstone Ave. Sylmar, ","formattedAddress":"13197 Gladstone Ave, Sylmar, CA 91342, USA","neighborhood":"Sylmar","lat":34.310469,"lng":-118.4282789,"zipcode":"91342"},{"location":"Antaeus Theatre Company","address":"110 E. Broadway Glendale, ","formattedAddress":"110 E Broadway, Glendale, CA 91205, USA","neighborhood":"Downtown","lat":34.1461412,"lng":-118.2543168,"zipcode":"91205"},{"location":"Empire Polo Club","address":"81-800 Avenue 51 Indio, ","formattedAddress":"81-800 Avenue 51, Indio, CA 92201, USA","neighborhood":null,"lat":33.6826141,"lng":-116.2382135,"zipcode":"92201"},{"location":"Golden Eagle Ballroom, Cal State L.A.","address":"5151 State University Dr. Los Angeles, ","formattedAddress":"5151 State University Dr, Los Angeles, CA 90032, USA","neighborhood":null,"lat":34.0615308,"lng":-118.1733051,"zipcode":"90032"},{"location":"Pantages Theatre","address":"6233 Hollywood Blvd. Los Angeles, ","formattedAddress":"6233 Hollywood Blvd, Los Angeles, CA 90028, USA","neighborhood":"Hollywood","lat":34.102001,"lng":-118.325867,"zipcode":"90028"},{"location":"San Gabriel Mission Playhouse","address":"320 Mission Dr. San Gabriel, ","formattedAddress":"320 N Mission Dr, San Gabriel, CA 91775, USA","neighborhood":null,"lat":34.1068399,"lng":-118.1112117,"zipcode":"91775"},{"location":"Richard & Karen Carpenter Performing Arts Center","address":"6200 Atherton St. Long Beach, ","formattedAddress":"6200 E Atherton St, Long Beach, CA 90815, USA","neighborhood":null,"lat":33.788396,"lng":-118.1126051,"zipcode":"90815"},{"location":"Pantages Theatre","address":"6233 Hollywood Blvd. Los Angeles, ","formattedAddress":"6233 Hollywood Blvd, Los Angeles, CA 90028, USA","neighborhood":"Hollywood","lat":34.102001,"lng":-118.325867,"zipcode":"90028"},{"location":"The Press","address":"129 Harvard Ave. Claremont, ","formattedAddress":"129 Harvard Ave N, Claremont, CA 91711, USA","neighborhood":null,"lat":34.0951767,"lng":-117.716711,"zipcode":"91711"},{"location":"The Beverly O'Neill Theater","address":"300 E. Ocean Blvd., Long Beach Convention & Entertainment Center Long Beach, ","formattedAddress":"300 E Ocean Blvd, Long Beach, CA 90802, USA","neighborhood":"Waterfront","lat":33.7652636,"lng":-118.1893385,"zipcode":"90802"},{"location":"Shrine Auditorium & Expo Hall","address":"665 W. Jefferson Blvd. Los Angeles, ","formattedAddress":"665 W Jefferson Blvd, Los Angeles, CA 90007, USA","neighborhood":"South Los Angeles","lat":34.0236612,"lng":-118.2812202,"zipcode":"90007"},{"location":"That ’80s Bar","address":"10555 Mills Ave. Montclair, ","formattedAddress":"10555 S Mills Ave, Montclair, CA 91763, USA","neighborhood":null,"lat":34.0621194,"lng":-117.7172512,"zipcode":"91763"},{"location":"R Bar","address":"3331 W. Eighth St. Los Angeles, ","formattedAddress":"3331 W 8th St, Los Angeles, CA 90005, USA","neighborhood":"Central LA","lat":34.0578538,"lng":-118.301083,"zipcode":"90005"},{"location":"Melrose Trading Post","address":"7850 Melrose Ave. Los Angeles, ","formattedAddress":"7850 Melrose Ave, Los Angeles, CA 90036, USA","neighborhood":"Central LA","lat":34.0834007,"lng":-118.3597341,"zipcode":"90036"},{"location":"American Legion Hollywood Post 43","address":"2035 N. Highland Ave. Los Angeles, ","formattedAddress":"2035 Highland Ave, Los Angeles, CA 90068, USA","neighborhood":"Central LA","lat":34.1078175,"lng":-118.337995,"zipcode":"90068"},{"location":"Exchange L.A.","address":"618 S. Spring St. Los Angeles, ","formattedAddress":"618 S Spring St, Los Angeles, CA 90014, USA","neighborhood":"Downtown","lat":34.0452545,"lng":-118.2511393,"zipcode":"90014"},{"location":"Antaeus Theatre Company","address":"110 E. Broadway Glendale, ","formattedAddress":"110 E Broadway, Glendale, CA 91205, USA","neighborhood":"Downtown","lat":34.1461412,"lng":-118.2543168,"zipcode":"91205"},{"location":"The Beverly O'Neill Theater","address":"300 E. Ocean Blvd., Long Beach Convention & Entertainment Center Long Beach, ","formattedAddress":"300 E Ocean Blvd, Long Beach, CA 90802, USA","neighborhood":"Waterfront","lat":33.7652636,"lng":-118.1893385,"zipcode":"90802"},{"location":"Richard & Karen Carpenter Performing Arts Center","address":"6200 Atherton St. Long Beach, ","formattedAddress":"6200 E Atherton St, Long Beach, CA 90815, USA","neighborhood":null,"lat":33.788396,"lng":-118.1126051,"zipcode":"90815"},{"location":"The Hollywood Roosevelt Hotel","address":"7000 Hollywood Blvd. Los Angeles, ","formattedAddress":"7000 Hollywood Blvd, Los Angeles, CA 90028, USA","neighborhood":"Hollywood","lat":34.1012777,"lng":-118.3416128,"zipcode":"90028"},{"location":"Woodley Park","address":"6350 Woodley Ave. Van Nuys, ","formattedAddress":"6350 Woodley Ave, Van Nuys, CA 91436, USA","neighborhood":"Van Nuys","lat":34.1786563,"lng":-118.4764638,"zipcode":"91436"},{"location":"Empire Polo Club","address":"81-800 Avenue 51 Indio, ","formattedAddress":"81-800 Avenue 51, Indio, CA 92201, USA","neighborhood":null,"lat":33.6826141,"lng":-116.2382135,"zipcode":"92201"},{"location":"Community of Brentwood","address":"11620 San Vicente Blvd. Los Angeles, ","formattedAddress":"11620 San Vicente Blvd, Los Angeles, CA 90049, USA","neighborhood":"Brentwood","lat":34.0533974,"lng":-118.462692,"zipcode":"90049"},{"location":"Fox Performing Arts Center","address":"3801 Mission Inn Ave. Riverside, ","formattedAddress":"3801 Mission Inn Avenue, Riverside, CA 92501, USA","neighborhood":"Downtown Riverside","lat":33.9839822,"lng":-117.3752903,"zipcode":"92501"},{"location":"The Escondite","address":"410 Boyd St. Los Angeles, ","formattedAddress":"410 Boyd St, Los Angeles, CA 90013, USA","neighborhood":"Central LA","lat":34.04609440000001,"lng":-118.2421687,"zipcode":"90013"},{"location":"Shrine Auditorium & Expo Hall","address":"665 W. Jefferson Blvd. Los Angeles, ","formattedAddress":"665 W Jefferson Blvd, Los Angeles, CA 90007, USA","neighborhood":"South Los Angeles","lat":34.0236612,"lng":-118.2812202,"zipcode":"90007"},{"location":"The Hideaway Bar & Grill","address":"12122 Kagel Canyon Rd. Sylmar, ","formattedAddress":"12122 Kagel Canyon Rd, Sylmar, CA 91342, USA","neighborhood":"Sylmar","lat":34.2890611,"lng":-118.3759028,"zipcode":"91342"},{"location":"The Kibitz Room","address":"419 N. Fairfax Ave. Los Angeles, ","formattedAddress":"419 N Fairfax Ave, Los Angeles, CA 90036, USA","neighborhood":"Central LA","lat":34.0789742,"lng":-118.361875,"zipcode":"90036"},{"location":"Twelve Two One Lounge","address":"1221 N. San Fernando Rd. Burbank, ","formattedAddress":"1221 N San Fernando Blvd, Burbank, CA 91504, USA","neighborhood":null,"lat":34.1890189,"lng":-118.3203307,"zipcode":"91504"},{"location":"American Legion Hollywood Post 43","address":"2035 N. Highland Ave. Los Angeles, ","formattedAddress":"2035 Highland Ave, Los Angeles, CA 90068, USA","neighborhood":"Central LA","lat":34.1078175,"lng":-118.337995,"zipcode":"90068"},{"location":"Westwood Village","address":"1031 Broxton Ave Los Angeles, CA California 90024 310-470-1812","formattedAddress":"1031 Broxton Ave, Los Angeles, CA 90024, USA","neighborhood":"Westwood","lat":34.0618175,"lng":-118.4465493,"zipcode":"90024"},{"location":"GTC Burbank","address":"1111-B W. Olive Ave. Burbank, ","formattedAddress":"1111 W Olive Ave, Burbank, CA 91506, USA","neighborhood":null,"lat":34.1721349,"lng":-118.3185346,"zipcode":"91506"},{"location":"Annenberg Space for Photography","address":"2000 Avenue of the Stars Century City ","formattedAddress":"2000 Avenue of the Stars, Los Angeles, CA 90067, USA","neighborhood":"Century City","lat":34.0583595,"lng":-118.4148332,"zipcode":"90067"},{"location":"Hudson Loft","address":"1200 S Hope Street Los Angeles ","formattedAddress":"1200 S Hope St, Los Angeles, CA 90015, USA","neighborhood":"Downtown","lat":34.0404671,"lng":-118.2642647,"zipcode":"90015"},{"location":"Santa Fe Dam Recreation Area","address":"15501 E. Arrow Highway. Irwindale CA","formattedAddress":"15501 E Arrow Hwy, Azusa, CA 91702, USA","neighborhood":null,"lat":34.1070358,"lng":-117.9201891,"zipcode":"91702"},{"location":"Grand Arts High School Concert Hall","address":"450 N. Grand Ave. Downtown ","formattedAddress":"450 N Grand Ave, Los Angeles, CA 90012, USA","neighborhood":"Central LA","lat":34.0599295,"lng":-118.2442035,"zipcode":"90012"},{"location":"Downtown Long Beach","address":"Linden Ave. and E. Broadway Long Beach CA","formattedAddress":"E Broadway & Linden Ave, Long Beach, CA 90802, USA","neighborhood":"Downtown","lat":33.7692751,"lng":-118.1863671,"zipcode":"90802"},{"location":"Highland Park and surrounding areas","address":"York Blvd. and N. Ave. 50 Los Angeles CA","formattedAddress":"York Blvd & N Avenue 50, Los Angeles, CA 90042, USA","neighborhood":"Eagle Rock","lat":34.1214799,"lng":-118.206906,"zipcode":"90042"},{"location":"Downtown Pomona","address":"Downtown Pomona Pomona ","formattedAddress":"119 W 2nd St, Pomona, CA 91766, USA","neighborhood":"Westmont","lat":34.0580378,"lng":-117.7506816,"zipcode":"91766"},{"location":"Universal City Metro Parking Lot","address":"3953 Lankershim Blvd Universal City ","formattedAddress":"3953 Lankershim Blvd, Studio City, CA 91604, USA","neighborhood":"Studio City","lat":34.1406909,"lng":-118.3613406,"zipcode":"91604"},{"location":"Memorial Park Pasadena","address":"85 E. Holly Street Pasadena ","formattedAddress":"85 E Holly St, Pasadena, CA 91103, USA","neighborhood":null,"lat":34.1478774,"lng":-118.1486,"zipcode":"91103"},{"location":"Holmby Park Lawn Bowling","address":"646 Comstock Ave  ","formattedAddress":"646 Comstock Ave, Los Angeles, CA 90024, USA","neighborhood":"Holmby Hills","lat":34.0716739,"lng":-118.4282502,"zipcode":"90024"},{"location":"Highland Hall Waldorf School","address":"17100 Superior St., Northridge, CA Northridge ","formattedAddress":"17100 Superior St, Los Angeles, CA 91325, USA","neighborhood":"Northridge","lat":34.245522,"lng":-118.505681,"zipcode":"91325"},{"location":"Platform LA","address":"8850 Washington Blvd., Culver City CA Culver City ","formattedAddress":"8850 Washington Blvd, Culver City, CA 90232, USA","neighborhood":"Lucerne - Higuera","lat":34.0267713,"lng":-118.3881923,"zipcode":"90232"},{"location":"Santa Monica Pier","address":"200 Santa Monica Pier Santa Monica ","formattedAddress":"200 Santa Monica Pier, Santa Monica, CA 90401, USA","neighborhood":null,"lat":34.0098476,"lng":-118.4964629,"zipcode":"90401"},{"location":"Magic Box at the Reef","address":"1933 South Broadway Los Angeles ","formattedAddress":"1933 S Broadway, Los Angeles, CA 90007, USA","neighborhood":"South Los Angeles","lat":34.0312448,"lng":-118.2665321,"zipcode":"90007"},{"location":"Timbuk2 Venice","address":"1410 Abbot Kinney Blvd. Venice ","formattedAddress":"1410 Abbot Kinney Blvd, Venice, CA 90291, USA","neighborhood":"Venice","lat":33.9903609,"lng":-118.4657543,"zipcode":"90291"},{"location":"Bloomingdale's Sherman Oaks","address":"14060 Riverside Drive Sherman Oaks ","formattedAddress":"14060 Riverside Dr, Sherman Oaks, CA 91423, USA","neighborhood":"Sherman Oaks","lat":34.1571124,"lng":-118.4393248,"zipcode":"91423"},{"location":"MuzeuMM","address":"4817 West Adams Boulevard, Los Angeles, ","formattedAddress":"4817 W Adams Blvd, Los Angeles, CA 90016, USA","neighborhood":"South Los Angeles","lat":34.0327492,"lng":-118.3455766,"zipcode":"90016"},{"location":"Downstairs Auditorium Church of Scientology","address":"4810 W Sunset Blvd, LA, CA Los Feliz ","formattedAddress":"4810 Sunset Blvd, Los Angeles, CA 90027, USA","neighborhood":"Central LA","lat":34.0973134,"lng":-118.2942859,"zipcode":"90027"},{"location":"SugarMynt Gallery","address":"810 Meridian Ave. South Pasadena, CA South Pasadena ","formattedAddress":"810 Meridian Ave, South Pasadena, CA 91030, USA","neighborhood":null,"lat":34.1162721,"lng":-118.1571171,"zipcode":"91030"},{"location":"Bergamot Station","address":"2525 Michigan Avenue, Santa Monica, CA  ","formattedAddress":"2525 Michigan Ave, Santa Monica, CA 90405, USA","neighborhood":"Pico","lat":34.02778929999999,"lng":-118.4684355,"zipcode":"90405"},{"location":"Plaza de la Raza’s Margo Albert Theatre in Lincoln Park","address":"3540 N. Mission Road  Lincoln Heights ","formattedAddress":"3540 N Mission Rd, Los Angeles, CA 90031, USA","neighborhood":"Northeast Los Angeles","lat":34.0672034,"lng":-118.2034603,"zipcode":"90031"},{"location":"Plaza de la Raza’s Margo Albert Theatre in Lincoln Park","address":"3540 N. Mission Road  Lincoln Heights ","formattedAddress":"3540 N Mission Rd, Los Angeles, CA 90031, USA","neighborhood":"Northeast Los Angeles","lat":34.0672034,"lng":-118.2034603,"zipcode":"90031"},{"location":"Aon Center","address":"707 Wilshire Blvd Los Angeles ","formattedAddress":"707 Wilshire Blvd, Los Angeles, CA 90017, USA","neighborhood":"Downtown","lat":34.0492638,"lng":-118.2570896,"zipcode":"90017"},{"location":"Getty Center","address":"1200 Getty Center Drive Los Angeles ","formattedAddress":"1200 Getty Center Dr, Los Angeles, CA 90049, USA","neighborhood":"Brentwood","lat":34.0790329,"lng":-118.4751057,"zipcode":"90049"},{"location":"Hermosa Beach Community Theatre","address":"710 Pier Ave. Hermosa Beach Hermosa Beach ","formattedAddress":"710 Pier Ave, Hermosa Beach, CA 90254, USA","neighborhood":null,"lat":33.8644405,"lng":-118.3939144,"zipcode":"90254"},{"location":"Santa Monica Playhouse - The Other Space","address":"1211 4th Street Santa Monica ","formattedAddress":"1211 4th St, Santa Monica, CA 90401, USA","neighborhood":"Downtown","lat":34.0189556,"lng":-118.4977074,"zipcode":"90401"},{"location":"Art Share LA","address":"801 East 4th Place Little Tokyo ","formattedAddress":"801 E 4th Pl, Los Angeles, CA 90013, USA","neighborhood":"Downtown","lat":34.0445952,"lng":-118.2364072,"zipcode":"90013"},{"location":"Page 71 Lounge","address":"11916 Ventura Blvd, Studio City, California  Studio City ","formattedAddress":"11916 Ventura Blvd, Studio City, CA 91604, USA","neighborhood":"Studio City","lat":34.14294590000001,"lng":-118.3913741,"zipcode":"91604"},{"location":"Downey Civic Theatre","address":"8435 Firestone Blvd Downey ","formattedAddress":"8435 Firestone Blvd, Downey, CA 90241, USA","neighborhood":null,"lat":33.9392379,"lng":-118.1297583,"zipcode":"90241"},{"location":"Moonlight Rollerway","address":"5110 San Fernando Road Glendale ","formattedAddress":"5110 San Fernando Rd, Glendale, CA 91204, USA","neighborhood":"Moorpark","lat":34.144696,"lng":-118.270245,"zipcode":"91204"},{"location":"Luckman Fine Arts Complex","address":"5151 State University Drive Los Angeles CA","formattedAddress":"5151 State University Dr, Los Angeles, CA 90032, USA","neighborhood":null,"lat":34.0615308,"lng":-118.1733051,"zipcode":"90032"},{"location":"The Second Stage at Sacred Fools Theatre","address":"6320 Santa Monica Blvd., Hollywood, CA Hollywood ","formattedAddress":"6320 Santa Monica Blvd, Los Angeles, CA 90038, USA","neighborhood":"Hollywood","lat":34.0905418,"lng":-118.3276065,"zipcode":"90038"},{"location":"Promenade Playhouse","address":"1404 Third Street Promenade Santa Monica ","formattedAddress":"1404 3rd Street Promenade, Santa Monica, CA 90401, USA","neighborhood":"Downtown","lat":34.0154063,"lng":-118.4958936,"zipcode":"90401"},{"location":"Highways Performance Space","address":"1651 18th St. Santa Monica ","formattedAddress":"1651 18th St, Santa Monica, CA 90404, USA","neighborhood":null,"lat":34.0236722,"lng":-118.4772538,"zipcode":"90404"},{"location":"SKYLIGHT THEATRE","address":"1816 1/2 N Vermont Ave. Los Angeles ","formattedAddress":"1816 1/2 N Vermont Ave, Los Angeles, CA 90027, USA","neighborhood":"Central LA","lat":34.1040603,"lng":-118.2915836,"zipcode":"90027"},{"location":"Four Seasons, Westlake Village","address":"2 Dole Dr. Westlake Village ","formattedAddress":"2 Dole Dr, Westlake Village, CA 91362, USA","neighborhood":null,"lat":34.1514383,"lng":-118.8039355,"zipcode":"91362"},{"location":"New Roads School","address":"3131 Olympic Blvd., Santa Monica  ","formattedAddress":"3131 Olympic Blvd, Santa Monica, CA 90404, USA","neighborhood":null,"lat":34.0312851,"lng":-118.4612321,"zipcode":"90404"},{"location":"Timbuk2 Venice","address":"1410 Abbot Kinney Blvd. Venice ","formattedAddress":"1410 Abbot Kinney Blvd, Venice, CA 90291, USA","neighborhood":"Venice","lat":33.9903609,"lng":-118.4657543,"zipcode":"90291"},{"location":"SugarMynt Gallery","address":"810 Meridian Ave. South Pasadena, CA South Pasadena ","formattedAddress":"810 Meridian Ave, South Pasadena, CA 91030, USA","neighborhood":null,"lat":34.1162721,"lng":-118.1571171,"zipcode":"91030"},{"location":"The Second Stage at Sacred Fools Theatre","address":"6320 Santa Monica Blvd., Hollywood, CA Hollywood ","formattedAddress":"6320 Santa Monica Blvd, Los Angeles, CA 90038, USA","neighborhood":"Hollywood","lat":34.0905418,"lng":-118.3276065,"zipcode":"90038"},{"location":"SKYLIGHT THEATRE","address":"1816 1/2 N Vermont Ave. Los Angeles ","formattedAddress":"1816 1/2 N Vermont Ave, Los Angeles, CA 90027, USA","neighborhood":"Central LA","lat":34.1040603,"lng":-118.2915836,"zipcode":"90027"},{"location":"Platform LA","address":"8850 Washington Blvd., Culver City CA Culver City ","formattedAddress":"8850 Washington Blvd, Culver City, CA 90232, USA","neighborhood":"Lucerne - Higuera","lat":34.0267713,"lng":-118.3881923,"zipcode":"90232"},{"location":"Montrose, Honolulu Ave","address":"2400 Honolulu Ave La Crescenta-Montrose ","formattedAddress":"2400 Honolulu Ave, Montrose, CA 91020, USA","neighborhood":"Montrose","lat":34.2063571,"lng":-118.2304414,"zipcode":"91020"},{"location":"With Love Market and Cafe","address":"1969 S. Vermont Ave, Los Angeles, CA Historic West Adams ","formattedAddress":"2263 S Harvard Blvd, Los Angeles, CA 90018, USA","neighborhood":"South Los Angeles","lat":34.0343726,"lng":-118.3072306,"zipcode":"90018"},{"location":"Occidental College, Patterson Field","address":"1600 Campus Rd, Los Angeles, CA Eagle Rock ","formattedAddress":"1600 Campus Rd, Los Angeles, CA 90041, USA","neighborhood":"Northeast Los Angeles","lat":34.127357,"lng":-118.2104997,"zipcode":"90041"},{"location":"we live in space","address":"2520 W Jefferson Blvd Jefferson ","formattedAddress":"2520 W Jefferson Blvd, Los Angeles, CA 90018, USA","neighborhood":"South Los Angeles","lat":34.0254836,"lng":-118.3232017,"zipcode":"90018"},{"location":"The Pasadena Civic","address":"300 E Green St. Pasadena CA","formattedAddress":"300 E Green St, Pasadena, CA 91101, USA","neighborhood":null,"lat":34.143817,"lng":-118.144302,"zipcode":"91101"},{"location":"ArcLight Cinemas HOLLYWOOD","address":"6360 W. Sunset Blvd. Hollywood ","formattedAddress":"6360 Sunset Blvd, Los Angeles, CA 90028, USA","neighborhood":"Central LA","lat":34.0973718,"lng":-118.3278725,"zipcode":"90028"},{"location":"Verdugo Bar","address":"3408 Verdugo Road Los Angeles ","formattedAddress":"3408 Verdugo Rd, Los Angeles, CA 90065, USA","neighborhood":"Northeast Los Angeles","lat":34.1137406,"lng":-118.2349602,"zipcode":"90065"},{"location":"Acme Comedy Theatre","address":"135 N La Brea Avenue, Los Angeles, CA La Brea ","formattedAddress":"135 N La Brea Ave, Los Angeles, CA 90036, USA","neighborhood":"Central LA","lat":34.0746854,"lng":-118.3443585,"zipcode":"90036"},{"location":"The Escondite","address":"410 Boyd St Little Tokyo ","formattedAddress":"410 Boyd St, Los Angeles, CA 90013, USA","neighborhood":"Central LA","lat":34.04609440000001,"lng":-118.2421687,"zipcode":"90013"},{"location":"GRAMMY Museum","address":"A245, 800 West Olympic Boulevard Los Angeles CA","formattedAddress":"800 W Olympic Blvd, Los Angeles, CA 90015, USA","neighborhood":"Downtown","lat":34.0449376,"lng":-118.2654979,"zipcode":"90015"},{"location":"MOCA","address":"250 South Grand Avenue Los Angeles ","formattedAddress":"250 S Grand Ave, Los Angeles, CA 90012, USA","neighborhood":"Downtown","lat":34.0534223,"lng":-118.2504046,"zipcode":"90012"},{"location":"The Hungry Cat","address":"4067 W. Pico Blvd. Los Angeles ","formattedAddress":"4067 W Pico Blvd, Los Angeles, CA 90019, USA","neighborhood":"Central LA","lat":34.047775,"lng":-118.3241134,"zipcode":"90019"},{"location":"LARGO at the CORONET","address":"366 N. La Cienega Blvd Los Angeles ","formattedAddress":"366 N La Cienega Blvd, Los Angeles, CA 90048, USA","neighborhood":"Beverly Grove","lat":34.0778713,"lng":-118.3763218,"zipcode":"90048"},{"location":"SugarMynt Gallery","address":"810 Meridian Ave. South Pasadena, CA South Pasadena ","formattedAddress":"810 Meridian Ave, South Pasadena, CA 91030, USA","neighborhood":null,"lat":34.1162721,"lng":-118.1571171,"zipcode":"91030"},{"location":"The Second Stage at Sacred Fools Theatre","address":"6320 Santa Monica Blvd., Hollywood, CA Hollywood ","formattedAddress":"6320 Santa Monica Blvd, Los Angeles, CA 90038, USA","neighborhood":"Hollywood","lat":34.0905418,"lng":-118.3276065,"zipcode":"90038"},{"location":"SKYLIGHT THEATRE","address":"1816 1/2 N Vermont Ave. Los Angeles ","formattedAddress":"1816 1/2 N Vermont Ave, Los Angeles, CA 90027, USA","neighborhood":"Central LA","lat":34.1040603,"lng":-118.2915836,"zipcode":"90027"},{"location":"we live in space","address":"2520 W Jefferson Blvd Jefferson ","formattedAddress":"2520 W Jefferson Blvd, Los Angeles, CA 90018, USA","neighborhood":"South Los Angeles","lat":34.0254836,"lng":-118.3232017,"zipcode":"90018"},{"location":"ArcLight Cinemas HOLLYWOOD","address":"6360 W. Sunset Blvd. Hollywood ","formattedAddress":"6360 Sunset Blvd, Los Angeles, CA 90028, USA","neighborhood":"Central LA","lat":34.0973718,"lng":-118.3278725,"zipcode":"90028"},{"location":"Heal the Bay's Santa Monica Pier Aquarium","address":"1600 Ocean Front Walk  ","formattedAddress":"1600 Ocean Front Walk, Santa Monica, CA 90401, USA","neighborhood":null,"lat":34.010005,"lng":-118.4959934,"zipcode":"90401"},{"location":"Altadena Stables","address":"3064 Ridgeview Dr, Altadena, CA Altadena ","formattedAddress":"3064 Ridgeview Dr, Altadena, CA 91001, USA","neighborhood":null,"lat":34.1986289,"lng":-118.164354,"zipcode":"91001"},{"location":"GRAMMY Museum","address":"A245, 800 West Olympic Boulevard Los Angeles CA","formattedAddress":"800 W Olympic Blvd, Los Angeles, CA 90015, USA","neighborhood":"Downtown","lat":34.0449376,"lng":-118.2654979,"zipcode":"90015"},{"location":"LARGO at the CORONET","address":"366 N. La Cienega Blvd Los Angeles ","formattedAddress":"366 N La Cienega Blvd, Los Angeles, CA 90048, USA","neighborhood":"Beverly Grove","lat":34.0778713,"lng":-118.3763218,"zipcode":"90048"},{"location":"SugarMynt Gallery","address":"810 Meridian Ave. South Pasadena, CA South Pasadena ","formattedAddress":"810 Meridian Ave, South Pasadena, CA 91030, USA","neighborhood":null,"lat":34.1162721,"lng":-118.1571171,"zipcode":"91030"},{"location":"The Second Stage at Sacred Fools Theatre","address":"6320 Santa Monica Blvd., Hollywood, CA Hollywood ","formattedAddress":"6320 Santa Monica Blvd, Los Angeles, CA 90038, USA","neighborhood":"Hollywood","lat":34.0905418,"lng":-118.3276065,"zipcode":"90038"},{"location":"SKYLIGHT THEATRE","address":"1816 1/2 N Vermont Ave. Los Angeles ","formattedAddress":"1816 1/2 N Vermont Ave, Los Angeles, CA 90027, USA","neighborhood":"Central LA","lat":34.1040603,"lng":-118.2915836,"zipcode":"90027"},{"location":"we live in space","address":"2520 W Jefferson Blvd Jefferson ","formattedAddress":"2520 W Jefferson Blvd, Los Angeles, CA 90018, USA","neighborhood":"South Los Angeles","lat":34.0254836,"lng":-118.3232017,"zipcode":"90018"},{"location":"Heal the Bay's Santa Monica Pier Aquarium","address":"1600 Ocean Front Walk  ","formattedAddress":"1600 Ocean Front Walk, Santa Monica, CA 90401, USA","neighborhood":null,"lat":34.010005,"lng":-118.4959934,"zipcode":"90401"},{"location":"MOCA","address":"250 South Grand Avenue Los Angeles ","formattedAddress":"250 S Grand Ave, Los Angeles, CA 90012, USA","neighborhood":"Downtown","lat":34.0534223,"lng":-118.2504046,"zipcode":"90012"},{"location":"MOCA","address":"250 South Grand Avenue Los Angeles ","formattedAddress":"250 S Grand Ave, Los Angeles, CA 90012, USA","neighborhood":"Downtown","lat":34.0534223,"lng":-118.2504046,"zipcode":"90012"},{"location":"LARGO at the CORONET","address":"366 N. La Cienega Blvd Los Angeles ","formattedAddress":"366 N La Cienega Blvd, Los Angeles, CA 90048, USA","neighborhood":"Beverly Grove","lat":34.0778713,"lng":-118.3763218,"zipcode":"90048"},{"location":"SugarMynt Gallery","address":"810 Meridian Ave. South Pasadena, CA South Pasadena ","formattedAddress":"810 Meridian Ave, South Pasadena, CA 91030, USA","neighborhood":null,"lat":34.1162721,"lng":-118.1571171,"zipcode":"91030"},{"location":"The Second Stage at Sacred Fools Theatre","address":"6320 Santa Monica Blvd., Hollywood, CA Hollywood ","formattedAddress":"6320 Santa Monica Blvd, Los Angeles, CA 90038, USA","neighborhood":"Hollywood","lat":34.0905418,"lng":-118.3276065,"zipcode":"90038"},{"location":"SKYLIGHT THEATRE","address":"1816 1/2 N Vermont Ave. Los Angeles ","formattedAddress":"1816 1/2 N Vermont Ave, Los Angeles, CA 90027, USA","neighborhood":"Central LA","lat":34.1040603,"lng":-118.2915836,"zipcode":"90027"},{"location":"we live in space","address":"2520 W Jefferson Blvd Jefferson ","formattedAddress":"2520 W Jefferson Blvd, Los Angeles, CA 90018, USA","neighborhood":"South Los Angeles","lat":34.0254836,"lng":-118.3232017,"zipcode":"90018"},{"location":"Heal the Bay's Santa Monica Pier Aquarium","address":"1600 Ocean Front Walk  ","formattedAddress":"1600 Ocean Front Walk, Santa Monica, CA 90401, USA","neighborhood":null,"lat":34.010005,"lng":-118.4959934,"zipcode":"90401"},{"location":"La Brea Bakery Café","address":"468 South La Brea Ave Los Angeles ","formattedAddress":"468 S La Brea Ave, Los Angeles, CA 90036, USA","neighborhood":"Central LA","lat":34.0650629,"lng":-118.3436925,"zipcode":"90036"},{"location":"Hi Hat LA","address":"5043 York Blvd Los Angeles ","formattedAddress":"5043 York Blvd, Los Angeles, CA 90042, USA","neighborhood":"Eagle Rock","lat":34.1214595,"lng":-118.2053922,"zipcode":"90042"},{"location":"Downtown Los Angeles Historic Core","address":"Sixth St. and Spring St. Los Angeles CA","formattedAddress":"W 6th St & S Spring St, Los Angeles, CA 90014, USA","neighborhood":"Downtown","lat":34.0459485,"lng":-118.2509641,"zipcode":"90014"},{"location":"GRAMMY Museum","address":"A245, 800 West Olympic Boulevard Los Angeles CA","formattedAddress":"800 W Olympic Blvd, Los Angeles, CA 90015, USA","neighborhood":"Downtown","lat":34.0449376,"lng":-118.2654979,"zipcode":"90015"},{"location":"Annenberg Space for Photography","address":"2000 Avenue of the Stars Century City ","formattedAddress":"2000 Avenue of the Stars, Los Angeles, CA 90067, USA","neighborhood":"Century City","lat":34.0583595,"lng":-118.4148332,"zipcode":"90067"},{"location":"SugarMynt Gallery","address":"810 Meridian Ave. South Pasadena, CA South Pasadena ","formattedAddress":"810 Meridian Ave, South Pasadena, CA 91030, USA","neighborhood":null,"lat":34.1162721,"lng":-118.1571171,"zipcode":"91030"},{"location":"The Second Stage at Sacred Fools Theatre","address":"6320 Santa Monica Blvd., Hollywood, CA Hollywood ","formattedAddress":"6320 Santa Monica Blvd, Los Angeles, CA 90038, USA","neighborhood":"Hollywood","lat":34.0905418,"lng":-118.3276065,"zipcode":"90038"},{"location":"SKYLIGHT THEATRE","address":"1816 1/2 N Vermont Ave. Los Angeles ","formattedAddress":"1816 1/2 N Vermont Ave, Los Angeles, CA 90027, USA","neighborhood":"Central LA","lat":34.1040603,"lng":-118.2915836,"zipcode":"90027"},{"location":"we live in space","address":"2520 W Jefferson Blvd Jefferson ","formattedAddress":"2520 W Jefferson Blvd, Los Angeles, CA 90018, USA","neighborhood":"South Los Angeles","lat":34.0254836,"lng":-118.3232017,"zipcode":"90018"},{"location":"Heal the Bay's Santa Monica Pier Aquarium","address":"1600 Ocean Front Walk  ","formattedAddress":"1600 Ocean Front Walk, Santa Monica, CA 90401, USA","neighborhood":null,"lat":34.010005,"lng":-118.4959934,"zipcode":"90401"},{"location":"Millikan Middle School","address":"5041 Sunnyslope Ave (entrance to the field is on Magnolia by Buffalo) Sherman Oaks, "},{"location":"Rose Bowl , Pasadena CA","address":"1001 Rose Bowl Drive   ","formattedAddress":"1001 Rose Bowl Dr, Pasadena, CA 91103, USA","neighborhood":"North Arroyo","lat":34.1606364,"lng":-118.1674865,"zipcode":"91103"},{"location":"Carnival Cruise Lines","address":"231 Windsor Way Long Beach ","formattedAddress":"231 Windsor Way, Long Beach, CA 90802, USA","neighborhood":"Queensway Bay","lat":33.7513045,"lng":-118.1888151,"zipcode":"90802"},{"location":"Frederick R. Weisman Museum of Art at Pepperdine University","address":"24255 Pacific Coast Highway Malibu ","formattedAddress":"24255 Pacific Coast Hwy, Malibu, CA 90265, USA","neighborhood":null,"lat":34.0347766,"lng":-118.7034357,"zipcode":"90265"},{"location":"The Pike Outlets","address":"95 South Pine Avenue Long Beach ","formattedAddress":"95 S Pine Ave, Long Beach, CA 90802, USA","neighborhood":"Waterfront","lat":33.76475,"lng":-118.1941419,"zipcode":"90802"},{"location":"Beverly Hills Plaza Hotel and Spa","address":"10300 Wilshire Blvd Los Angeles, CA  ","formattedAddress":"10300 Wilshire Blvd, Los Angeles, CA 90024, USA","neighborhood":"Westwood","lat":34.0674478,"lng":-118.4257888,"zipcode":"90024"},{"location":"NerdMelt Showroom","address":"7522 W. Sunset Blvd. Los Angeles, CA  ","formattedAddress":"7522 Sunset Blvd, Los Angeles, CA 90046, USA","neighborhood":"Central LA","lat":34.0978181,"lng":-118.3535229,"zipcode":"90046"},{"location":"LACE","address":"6522 Hollywood Blvd. Los Angeles ","formattedAddress":"6522 Hollywood Blvd, Los Angeles, CA 90028, USA","neighborhood":"Hollywood","lat":34.1013404,"lng":-118.3319275,"zipcode":"90028"},{"location":"The Pasadena Civic","address":"300 E Green St. Pasadena CA","formattedAddress":"300 E Green St, Pasadena, CA 91101, USA","neighborhood":null,"lat":34.143817,"lng":-118.144302,"zipcode":"91101"},{"location":"Greek Theatre","address":"2700 N. Vermont Ave. Los Angeles ","formattedAddress":"2700 N Vermont Ave, Los Angeles, CA 90027, USA","neighborhood":null,"lat":34.1205588,"lng":-118.2963915,"zipcode":"90027"},{"location":"Colburn School’s Zipper Concert Hall","address":"200 South Grand Avenue Los Angeles ","formattedAddress":"200 S Grand Ave, Los Angeles, CA 90012, USA","neighborhood":"Downtown","lat":34.0540039,"lng":-118.2498686,"zipcode":"90012"},{"location":"Battleship IOWA","address":"250 s harbor blvd san pedro ","formattedAddress":"250 S Harbor Blvd, San Pedro, CA 90731, USA","neighborhood":"San Pedro","lat":33.7420554,"lng":-118.2773064,"zipcode":"90731"},{"location":"SugarMynt Gallery","address":"810 Meridian Ave. South Pasadena, CA South Pasadena ","formattedAddress":"810 Meridian Ave, South Pasadena, CA 91030, USA","neighborhood":null,"lat":34.1162721,"lng":-118.1571171,"zipcode":"91030"},{"location":"The Second Stage at Sacred Fools Theatre","address":"6320 Santa Monica Blvd., Hollywood, CA Hollywood ","formattedAddress":"6320 Santa Monica Blvd, Los Angeles, CA 90038, USA","neighborhood":"Hollywood","lat":34.0905418,"lng":-118.3276065,"zipcode":"90038"},{"location":"SKYLIGHT THEATRE","address":"1816 1/2 N Vermont Ave. Los Angeles ","formattedAddress":"1816 1/2 N Vermont Ave, Los Angeles, CA 90027, USA","neighborhood":"Central LA","lat":34.1040603,"lng":-118.2915836,"zipcode":"90027"},{"location":"we live in space","address":"2520 W Jefferson Blvd Jefferson ","formattedAddress":"2520 W Jefferson Blvd, Los Angeles, CA 90018, USA","neighborhood":"South Los Angeles","lat":34.0254836,"lng":-118.3232017,"zipcode":"90018"},{"location":"Heal the Bay's Santa Monica Pier Aquarium","address":"1600 Ocean Front Walk  ","formattedAddress":"1600 Ocean Front Walk, Santa Monica, CA 90401, USA","neighborhood":null,"lat":34.010005,"lng":-118.4959934,"zipcode":"90401"},{"location":"Frederick R. Weisman Museum of Art at Pepperdine University","address":"24255 Pacific Coast Highway Malibu ","formattedAddress":"24255 Pacific Coast Hwy, Malibu, CA 90265, USA","neighborhood":null,"lat":34.0347766,"lng":-118.7034357,"zipcode":"90265"},{"location":"Carnival Cruise Lines","address":"231 Windsor Way Long Beach ","formattedAddress":"231 Windsor Way, Long Beach, CA 90802, USA","neighborhood":"Queensway Bay","lat":33.7513045,"lng":-118.1888151,"zipcode":"90802"},{"location":"Citadel Outlets","address":"100 Citadel Drive, Suite 480 Los Angeles ","formattedAddress":"100 Citadel Dr #480, Commerce, CA 90040, USA","neighborhood":"South Montebello","lat":34.006156,"lng":-118.1516239,"zipcode":"90040"},{"location":"Los Angeles Convention Center","address":"1201 S Figueroa St Los Angeles ","formattedAddress":"1201 S Figueroa St, Los Angeles, CA 90015, USA","neighborhood":"Central LA","lat":34.0413606,"lng":-118.2697771,"zipcode":"90015"},{"location":"Location TBD","address":"Location TBD Location TBD CA Los Angeles","formattedAddress":"1070 Myra Ave, Los Angeles, CA 90029, USA","neighborhood":"Silver Lake","lat":34.0914892,"lng":-118.283584,"zipcode":"90029"},{"location":"Echo Park Garden Gallery","address":"1858 Echo Park Ave. Los Angeles, CA  Silver Lake ","formattedAddress":"1858 Echo Park Ave, Los Angeles, CA 90026, USA","neighborhood":"Echo Park","lat":34.085265,"lng":-118.252452,"zipcode":"90026"},{"location":"The Dolby Theatre  Hollywood & Highland","address":"6801 Hollywood Blvd Hollywood ","formattedAddress":"6801 Hollywood Blvd, Los Angeles, CA 90028, USA","neighborhood":"Hollywood","lat":34.1025903,"lng":-118.3400444,"zipcode":"90028"},{"location":"Battleship IOWA","address":"250 s harbor blvd san pedro ","formattedAddress":"250 S Harbor Blvd, San Pedro, CA 90731, USA","neighborhood":"San Pedro","lat":33.7420554,"lng":-118.2773064,"zipcode":"90731"},{"location":"Greek Theatre","address":"2700 N. Vermont Ave. Los Angeles ","formattedAddress":"2700 N Vermont Ave, Los Angeles, CA 90027, USA","neighborhood":null,"lat":34.1205588,"lng":-118.2963915,"zipcode":"90027"},{"location":"Highways Performance Space","address":"1651 18th St. Santa Monica ","formattedAddress":"1651 18th St, Santa Monica, CA 90404, USA","neighborhood":null,"lat":34.0236722,"lng":-118.4772538,"zipcode":"90404"},{"location":"UCB SUNSET","address":"5419 Sunset Blvd, Los Angeles, ","formattedAddress":"5419 Sunset Blvd, Los Angeles, CA 90027, USA","neighborhood":"Central LA","lat":34.0984638,"lng":-118.3079614,"zipcode":"90027"},{"location":"Heritage Square Museum","address":"3800 Homer Street Los Angeles, CA Lincoln Heights ","formattedAddress":"3800 Homer St, Los Angeles, CA 90031, USA","neighborhood":"Northeast Los Angeles","lat":34.0880775,"lng":-118.208078,"zipcode":"90031"},{"location":"Doheny Greystone Mansion","address":"905 Loma Vista Drive  ","formattedAddress":"905 Loma Vista Dr, Beverly Hills, CA 90210, USA","neighborhood":null,"lat":34.0921765,"lng":-118.4014507,"zipcode":"90210"},{"location":"Million Dollar Theatre","address":"307 S Broadway, Los Angeles, CA  Little Tokyo ","formattedAddress":"307 S Broadway, Los Angeles, CA 90013, USA","neighborhood":"Downtown","lat":34.0508937,"lng":-118.2483757,"zipcode":"90013"},{"location":"Aratani Theatre (JACCC)","address":"244 S San Pedro Street. Los Angeles ","formattedAddress":"244 S San Pedro St, Los Angeles, CA 90012, USA","neighborhood":"Central LA","lat":34.04778,"lng":-118.2418045,"zipcode":"90012"},{"location":"Terrace Theater","address":"300 E Ocean BL Long Beach CA","formattedAddress":"300 E Ocean Blvd, Long Beach, CA 90802, USA","neighborhood":"Waterfront","lat":33.76520350000001,"lng":-118.1893341,"zipcode":"90802"},{"location":"Caltech Beckman Auditorium","address":"332 S Michigan Ave  ","formattedAddress":"332 S Michigan Ave, Chicago, IL 60604, USA","neighborhood":"Chicago Loop","lat":41.8773145,"lng":-87.6248258,"zipcode":"60604"},{"location":"Lineage Performing Arts Center","address":"89 S. Fair Oaks Avenue Pasadena ","formattedAddress":"89 S Fair Oaks Ave, Pasadena, CA 91105, USA","neighborhood":"Northeast Los Angeles","lat":34.1441498,"lng":-118.15071,"zipcode":"91105"},{"location":"SugarMynt Gallery","address":"810 Meridian Ave. South Pasadena, CA South Pasadena ","formattedAddress":"810 Meridian Ave, South Pasadena, CA 91030, USA","neighborhood":null,"lat":34.1162721,"lng":-118.1571171,"zipcode":"91030"},{"location":"The Second Stage at Sacred Fools Theatre","address":"6320 Santa Monica Blvd., Hollywood, CA Hollywood ","formattedAddress":"6320 Santa Monica Blvd, Los Angeles, CA 90038, USA","neighborhood":"Hollywood","lat":34.0905418,"lng":-118.3276065,"zipcode":"90038"},{"location":"SKYLIGHT THEATRE","address":"1816 1/2 N Vermont Ave. Los Angeles ","formattedAddress":"1816 1/2 N Vermont Ave, Los Angeles, CA 90027, USA","neighborhood":"Central LA","lat":34.1040603,"lng":-118.2915836,"zipcode":"90027"},{"location":"we live in space","address":"2520 W Jefferson Blvd Jefferson ","formattedAddress":"2520 W Jefferson Blvd, Los Angeles, CA 90018, USA","neighborhood":"South Los Angeles","lat":34.0254836,"lng":-118.3232017,"zipcode":"90018"},{"location":"Frederick R. Weisman Museum of Art at Pepperdine University","address":"24255 Pacific Coast Highway Malibu ","formattedAddress":"24255 Pacific Coast Hwy, Malibu, CA 90265, USA","neighborhood":null,"lat":34.0347766,"lng":-118.7034357,"zipcode":"90265"},{"location":"Carnival Cruise Lines","address":"231 Windsor Way Long Beach ","formattedAddress":"231 Windsor Way, Long Beach, CA 90802, USA","neighborhood":"Queensway Bay","lat":33.7513045,"lng":-118.1888151,"zipcode":"90802"},{"location":"Los Angeles Convention Center","address":"1201 S Figueroa St Los Angeles ","formattedAddress":"1201 S Figueroa St, Los Angeles, CA 90015, USA","neighborhood":"Central LA","lat":34.0413606,"lng":-118.2697771,"zipcode":"90015"},{"location":"Echo Park Garden Gallery","address":"1858 Echo Park Ave. Los Angeles, CA  Silver Lake ","formattedAddress":"1858 Echo Park Ave, Los Angeles, CA 90026, USA","neighborhood":"Echo Park","lat":34.085265,"lng":-118.252452,"zipcode":"90026"},{"location":"The Dolby Theatre  Hollywood & Highland","address":"6801 Hollywood Blvd Hollywood ","formattedAddress":"6801 Hollywood Blvd, Los Angeles, CA 90028, USA","neighborhood":"Hollywood","lat":34.1025903,"lng":-118.3400444,"zipcode":"90028"},{"location":"Heritage Square Museum","address":"3800 Homer Street Lincoln Heights ","formattedAddress":"3800 Homer St, Los Angeles, CA 90031, USA","neighborhood":"Northeast Los Angeles","lat":34.0880775,"lng":-118.208078,"zipcode":"90031"},{"location":"Lomita Library","address":"24200 Narbonne Ave.,Lomita, CA  Lomita ","formattedAddress":"24200 Narbonne Ave, Lomita, CA 90717, USA","neighborhood":null,"lat":33.8052497,"lng":-118.3191419,"zipcode":"90717"},{"location":"Manhatten Beach Library","address":"1320 Highland Ave. Manhattan Beach, CA Manhattan Beach ","formattedAddress":"1320 Highland Ave, Manhattan Beach, CA 90266, USA","neighborhood":null,"lat":33.8868743,"lng":-118.4103574,"zipcode":"90266"},{"location":"Pasadena Convention Center","address":"300 E. Green St. Pasadena CA","formattedAddress":"300 E Green St, Pasadena, CA 91101, USA","neighborhood":null,"lat":34.143817,"lng":-118.144302,"zipcode":"91101"},{"location":"Citadel Outlets","address":"100 Citadel Drive, Suite 480 Los Angeles ","formattedAddress":"100 Citadel Dr #480, Commerce, CA 90040, USA","neighborhood":"South Montebello","lat":34.006156,"lng":-118.1516239,"zipcode":"90040"},{"location":"Diamond Bar Library","address":"21800 Copley Dr. Diamond Bar, CA.  Diamond Bar ","formattedAddress":"21800 Copley Dr, Diamond Bar, CA 91765, USA","neighborhood":"Valle Lindo","lat":33.999116,"lng":-117.8306461,"zipcode":"91765"},{"location":"Fairfax Pop-Up","address":"485 S. Fairfax Ave Los Angeles, CA La Brea ","formattedAddress":"485 S Fairfax Ave, Los Angeles, CA 90036, USA","neighborhood":"Central LA","lat":34.067564,"lng":-118.361706,"zipcode":"90036"},{"location":"Dabney Lounge, Caltech","address":"1200 E. California Blvd. Pasadena ","formattedAddress":"1200 E California Blvd, Pasadena, CA 91106, USA","neighborhood":null,"lat":34.1342922,"lng":-118.1248773,"zipcode":"91106"},{"location":"Highways Performance Space","address":"1651 18th St. Santa Monica ","formattedAddress":"1651 18th St, Santa Monica, CA 90404, USA","neighborhood":null,"lat":34.0236722,"lng":-118.4772538,"zipcode":"90404"},{"location":"Devoe House","address":"Hollywood Hills Hollywood ","formattedAddress":"Hollywood Hills, Hollywood, FL 33021, USA","neighborhood":"Hollywood Hills","lat":26.0204621,"lng":-80.1930859,"zipcode":"33021"},{"location":"Battleship USS IOWA","address":"250 S Harbor Blvd Los Angeles ","formattedAddress":"250 S Harbor Blvd, San Pedro, CA 90731, USA","neighborhood":"San Pedro","lat":33.7420554,"lng":-118.2773064,"zipcode":"90731"},{"location":"Annenberg Space for Photography","address":"2000 Avenue of the Stars Century City ","formattedAddress":"2000 Avenue of the Stars, Los Angeles, CA 90067, USA","neighborhood":"Century City","lat":34.0583595,"lng":-118.4148332,"zipcode":"90067"},{"location":"MOCA","address":"250 South Grand Avenue Los Angeles ","formattedAddress":"250 S Grand Ave, Los Angeles, CA 90012, USA","neighborhood":"Downtown","lat":34.0534223,"lng":-118.2504046,"zipcode":"90012"},{"location":"SugarMynt Gallery","address":"810 Meridian Ave. South Pasadena, CA South Pasadena ","formattedAddress":"810 Meridian Ave, South Pasadena, CA 91030, USA","neighborhood":null,"lat":34.1162721,"lng":-118.1571171,"zipcode":"91030"},{"location":"The Second Stage at Sacred Fools Theatre","address":"6320 Santa Monica Blvd., Hollywood, CA Hollywood ","formattedAddress":"6320 Santa Monica Blvd, Los Angeles, CA 90038, USA","neighborhood":"Hollywood","lat":34.0905418,"lng":-118.3276065,"zipcode":"90038"},{"location":"SKYLIGHT THEATRE","address":"1816 1/2 N Vermont Ave. Los Angeles ","formattedAddress":"1816 1/2 N Vermont Ave, Los Angeles, CA 90027, USA","neighborhood":"Central LA","lat":34.1040603,"lng":-118.2915836,"zipcode":"90027"},{"location":"we live in space","address":"2520 W Jefferson Blvd Jefferson ","formattedAddress":"2520 W Jefferson Blvd, Los Angeles, CA 90018, USA","neighborhood":"South Los Angeles","lat":34.0254836,"lng":-118.3232017,"zipcode":"90018"},{"location":"Frederick R. Weisman Museum of Art at Pepperdine University","address":"24255 Pacific Coast Highway Malibu ","formattedAddress":"24255 Pacific Coast Hwy, Malibu, CA 90265, USA","neighborhood":null,"lat":34.0347766,"lng":-118.7034357,"zipcode":"90265"},{"location":"Carnival Cruise Lines","address":"231 Windsor Way Long Beach ","formattedAddress":"231 Windsor Way, Long Beach, CA 90802, USA","neighborhood":"Queensway Bay","lat":33.7513045,"lng":-118.1888151,"zipcode":"90802"},{"location":"Echo Park Garden Gallery","address":"1858 Echo Park Ave. Los Angeles, CA  Silver Lake ","formattedAddress":"1858 Echo Park Ave, Los Angeles, CA 90026, USA","neighborhood":"Echo Park","lat":34.085265,"lng":-118.252452,"zipcode":"90026"},{"location":"The Dolby Theatre  Hollywood & Highland","address":"6801 Hollywood Blvd Hollywood ","formattedAddress":"6801 Hollywood Blvd, Los Angeles, CA 90028, USA","neighborhood":"Hollywood","lat":34.1025903,"lng":-118.3400444,"zipcode":"90028"},{"location":"Devoe House","address":"Hollywood Hills Hollywood ","formattedAddress":"Hollywood Hills, Hollywood, FL 33021, USA","neighborhood":"Hollywood Hills","lat":26.0204621,"lng":-80.1930859,"zipcode":"33021"},{"location":"Pasadena Convention Center","address":"300 E. Green St. Pasadena CA","formattedAddress":"300 E Green St, Pasadena, CA 91101, USA","neighborhood":null,"lat":34.143817,"lng":-118.144302,"zipcode":"91101"},{"location":"Esterel at the Sofitel","address":"8555 Beverly Blvd Los Angeles ","formattedAddress":"8555 Beverly Blvd, Los Angeles, CA 90048, USA","neighborhood":"Central LA","lat":34.0763464,"lng":-118.3774857,"zipcode":"90048"},{"location":"Citadel Outlets","address":"100 Citadel Drive, Suite 480 Los Angeles ","formattedAddress":"100 Citadel Dr #480, Commerce, CA 90040, USA","neighborhood":"South Montebello","lat":34.006156,"lng":-118.1516239,"zipcode":"90040"},{"location":"Hornblower ticket booth at Fisherman’s Village Marina","address":"13755 Fiji Way Marina del Rey ","formattedAddress":"13755 Fiji Way, Marina Del Rey, CA 90292, USA","neighborhood":null,"lat":33.9725614,"lng":-118.4462468,"zipcode":"90292"},{"location":"Ackerman Grand Ballroom","address":"308 Westwood Plaza Los Angeles CA","formattedAddress":"308 Westwood Plaza, Los Angeles, CA 90024, USA","neighborhood":"Westwood","lat":34.070418,"lng":-118.4441451,"zipcode":"90024"},{"location":"The Escondite","address":"410 Boyd St Little Tokyo ","formattedAddress":"410 Boyd St, Los Angeles, CA 90013, USA","neighborhood":"Central LA","lat":34.04609440000001,"lng":-118.2421687,"zipcode":"90013"},{"location":"The Regent","address":"448 South Main Street Los Angeles CA","formattedAddress":"448 S Main St, Los Angeles, CA 90013, USA","neighborhood":"Central LA","lat":34.046981,"lng":-118.2478,"zipcode":"90013"},{"location":"Redbird","address":"4067 W. Pico Blvd. Los Angeles ","formattedAddress":"4067 W Pico Blvd, Los Angeles, CA 90019, USA","neighborhood":"Central LA","lat":34.047775,"lng":-118.3241134,"zipcode":"90019"},{"location":"ACME Comedy Theater","address":"135 N. La Brea Ave. Los Angeles ","formattedAddress":"135 N La Brea Ave, Los Angeles, CA 90036, USA","neighborhood":"Central LA","lat":34.0746854,"lng":-118.3443585,"zipcode":"90036"},{"location":"SugarMynt Gallery","address":"810 Meridian Ave. South Pasadena, CA South Pasadena ","formattedAddress":"810 Meridian Ave, South Pasadena, CA 91030, USA","neighborhood":null,"lat":34.1162721,"lng":-118.1571171,"zipcode":"91030"},{"location":"The Second Stage at Sacred Fools Theatre","address":"6320 Santa Monica Blvd., Hollywood, CA Hollywood ","formattedAddress":"6320 Santa Monica Blvd, Los Angeles, CA 90038, USA","neighborhood":"Hollywood","lat":34.0905418,"lng":-118.3276065,"zipcode":"90038"},{"location":"SKYLIGHT THEATRE","address":"1816 1/2 N Vermont Ave. Los Angeles ","formattedAddress":"1816 1/2 N Vermont Ave, Los Angeles, CA 90027, USA","neighborhood":"Central LA","lat":34.1040603,"lng":-118.2915836,"zipcode":"90027"},{"location":"we live in space","address":"2520 W Jefferson Blvd Jefferson ","formattedAddress":"2520 W Jefferson Blvd, Los Angeles, CA 90018, USA","neighborhood":"South Los Angeles","lat":34.0254836,"lng":-118.3232017,"zipcode":"90018"},{"location":"Frederick R. Weisman Museum of Art at Pepperdine University","address":"24255 Pacific Coast Highway Malibu ","formattedAddress":"24255 Pacific Coast Hwy, Malibu, CA 90265, USA","neighborhood":null,"lat":34.0347766,"lng":-118.7034357,"zipcode":"90265"},{"location":"Chester Washington Golf Course","address":"1818 Charlie Sifford Drive, Los Angeles, CA Westmont ","formattedAddress":"1818 Charlie Sifford Dr, Los Angeles, CA 90047, USA","neighborhood":"South Los Angeles","lat":33.9239031,"lng":-118.3097079,"zipcode":"90047"},{"location":"Mountain Meadows Golf Course","address":"1875 Fairplex Drive, Pomona, CA Pomona ","formattedAddress":"1875 Fairplex Dr, Pomona, CA 91768, USA","neighborhood":"Bonita","lat":34.0825186,"lng":-117.7744782,"zipcode":"91768"},{"location":"iO West","address":"6366 Hollywood Blvd Hollywood ","formattedAddress":"6366 Hollywood Blvd, Los Angeles, CA 90028, USA","neighborhood":"Hollywood","lat":34.1013952,"lng":-118.3287424,"zipcode":"90028"},{"location":"MOCA","address":"250 South Grand Avenue Los Angeles ","formattedAddress":"250 S Grand Ave, Los Angeles, CA 90012, USA","neighborhood":"Downtown","lat":34.0534223,"lng":-118.2504046,"zipcode":"90012"},{"location":"The Wallis Annenberg Center of Performing Arts","address":"9390 North Santa Monica Boulevard Beverly Hills ","formattedAddress":"9390 N Santa Monica Blvd, Beverly Hills, CA 90210, USA","neighborhood":null,"lat":34.07229,"lng":-118.4012055,"zipcode":"90210"},{"location":"Cinefamily","address":"8818 Sunset Blvd 8818 Sunset Blvd CA 0","formattedAddress":"8818 Sunset Blvd, West Hollywood, CA 90069, USA","neighborhood":"Sunset Strip","lat":34.090495,"lng":-118.383669,"zipcode":"90069"},{"location":"SugarMynt Gallery","address":"810 Meridian Ave. South Pasadena, CA South Pasadena ","formattedAddress":"810 Meridian Ave, South Pasadena, CA 91030, USA","neighborhood":null,"lat":34.1162721,"lng":-118.1571171,"zipcode":"91030"},{"location":"The Second Stage at Sacred Fools Theatre","address":"6320 Santa Monica Blvd., Hollywood, CA Hollywood ","formattedAddress":"6320 Santa Monica Blvd, Los Angeles, CA 90038, USA","neighborhood":"Hollywood","lat":34.0905418,"lng":-118.3276065,"zipcode":"90038"},{"location":"SKYLIGHT THEATRE","address":"1816 1/2 N Vermont Ave. Los Angeles ","formattedAddress":"1816 1/2 N Vermont Ave, Los Angeles, CA 90027, USA","neighborhood":"Central LA","lat":34.1040603,"lng":-118.2915836,"zipcode":"90027"},{"location":"we live in space","address":"2520 W Jefferson Blvd Jefferson ","formattedAddress":"2520 W Jefferson Blvd, Los Angeles, CA 90018, USA","neighborhood":"South Los Angeles","lat":34.0254836,"lng":-118.3232017,"zipcode":"90018"},{"location":"Frederick R. Weisman Museum of Art at Pepperdine University","address":"24255 Pacific Coast Highway Malibu ","formattedAddress":"24255 Pacific Coast Hwy, Malibu, CA 90265, USA","neighborhood":null,"lat":34.0347766,"lng":-118.7034357,"zipcode":"90265"},{"location":"Chester Washington Golf Course","address":"1818 Charlie Sifford Drive, Los Angeles, CA Westmont ","formattedAddress":"1818 Charlie Sifford Dr, Los Angeles, CA 90047, USA","neighborhood":"South Los Angeles","lat":33.9239031,"lng":-118.3097079,"zipcode":"90047"},{"location":"Mountain Meadows Golf Course","address":"1875 Fairplex Drive, Pomona, CA Pomona ","formattedAddress":"1875 Fairplex Dr, Pomona, CA 91768, USA","neighborhood":"Bonita","lat":34.0825186,"lng":-117.7744782,"zipcode":"91768"},{"location":"The Regent","address":"448 South Main Street Los Angeles CA","formattedAddress":"448 S Main St, Los Angeles, CA 90013, USA","neighborhood":"Central LA","lat":34.046981,"lng":-118.2478,"zipcode":"90013"},{"location":"MOCA","address":"250 South Grand Avenue Los Angeles ","formattedAddress":"250 S Grand Ave, Los Angeles, CA 90012, USA","neighborhood":"Downtown","lat":34.0534223,"lng":-118.2504046,"zipcode":"90012"},{"location":"SugarMynt Gallery","address":"810 Meridian Ave. South Pasadena, CA South Pasadena ","formattedAddress":"810 Meridian Ave, South Pasadena, CA 91030, USA","neighborhood":null,"lat":34.1162721,"lng":-118.1571171,"zipcode":"91030"},{"location":"The Second Stage at Sacred Fools Theatre","address":"6320 Santa Monica Blvd., Hollywood, CA Hollywood ","formattedAddress":"6320 Santa Monica Blvd, Los Angeles, CA 90038, USA","neighborhood":"Hollywood","lat":34.0905418,"lng":-118.3276065,"zipcode":"90038"},{"location":"SKYLIGHT THEATRE","address":"1816 1/2 N Vermont Ave. Los Angeles ","formattedAddress":"1816 1/2 N Vermont Ave, Los Angeles, CA 90027, USA","neighborhood":"Central LA","lat":34.1040603,"lng":-118.2915836,"zipcode":"90027"},{"location":"we live in space","address":"2520 W Jefferson Blvd Jefferson ","formattedAddress":"2520 W Jefferson Blvd, Los Angeles, CA 90018, USA","neighborhood":"South Los Angeles","lat":34.0254836,"lng":-118.3232017,"zipcode":"90018"},{"location":"Frederick R. Weisman Museum of Art at Pepperdine University","address":"24255 Pacific Coast Highway Malibu ","formattedAddress":"24255 Pacific Coast Hwy, Malibu, CA 90265, USA","neighborhood":null,"lat":34.0347766,"lng":-118.7034357,"zipcode":"90265"},{"location":"Chester Washington Golf Course","address":"1818 Charlie Sifford Drive, Los Angeles, CA Westmont ","formattedAddress":"1818 Charlie Sifford Dr, Los Angeles, CA 90047, USA","neighborhood":"South Los Angeles","lat":33.9239031,"lng":-118.3097079,"zipcode":"90047"},{"location":"Mountain Meadows Golf Course","address":"1875 Fairplex Drive, Pomona, CA Pomona ","formattedAddress":"1875 Fairplex Dr, Pomona, CA 91768, USA","neighborhood":"Bonita","lat":34.0825186,"lng":-117.7744782,"zipcode":"91768"},{"location":"William S. Hart Park","address":"24151 Newhall Avenue, Newhall, CA  Santa Clarita ","formattedAddress":"24151 Newhall Ave, Santa Clarita, CA 91321, USA","neighborhood":"Newhall","lat":34.3753971,"lng":-118.5257901,"zipcode":"91321"},{"location":"Shrine Expo Hall","address":"665 W Jefferson Blvd. Los Angeles CA","formattedAddress":"665 W Jefferson Blvd, Los Angeles, CA 90007, USA","neighborhood":"South Los Angeles","lat":34.0236612,"lng":-118.2812202,"zipcode":"90007"},{"location":"Rubicon Theatre Company","address":"1006 E. Main Street Ventura ","formattedAddress":"1006 E Main St, Ventura, CA 93001, USA","neighborhood":null,"lat":34.2805973,"lng":-119.2852082,"zipcode":"93001"},{"location":"Beverly O'Neill Theater - Long Beach Conv and Entertainment Ctr","address":"300 E Ocean BL Long Beach CA","formattedAddress":"300 E Ocean Blvd, Long Beach, CA 90802, USA","neighborhood":"Waterfront","lat":33.76520350000001,"lng":-118.1893341,"zipcode":"90802"},{"location":"Caltech Beckman Auditorium","address":"332 S Michigan Ave  ","formattedAddress":"332 S Michigan Ave, Chicago, IL 60604, USA","neighborhood":"Chicago Loop","lat":41.8773145,"lng":-87.6248258,"zipcode":"60604"},{"location":"MOCA","address":"250 South Grand Avenue Los Angeles ","formattedAddress":"250 S Grand Ave, Los Angeles, CA 90012, USA","neighborhood":"Downtown","lat":34.0534223,"lng":-118.2504046,"zipcode":"90012"},{"location":"Greek Theatre","address":"2700 N. Vermont Ave Los Angeles CA","formattedAddress":"2700 N Vermont Ave, Los Angeles, CA 90027, USA","neighborhood":null,"lat":34.1205588,"lng":-118.2963915,"zipcode":"90027"},{"location":"SugarMynt Gallery","address":"810 Meridian Ave. South Pasadena, CA South Pasadena ","formattedAddress":"810 Meridian Ave, South Pasadena, CA 91030, USA","neighborhood":null,"lat":34.1162721,"lng":-118.1571171,"zipcode":"91030"},{"location":"The Second Stage at Sacred Fools Theatre","address":"6320 Santa Monica Blvd., Hollywood, CA Hollywood ","formattedAddress":"6320 Santa Monica Blvd, Los Angeles, CA 90038, USA","neighborhood":"Hollywood","lat":34.0905418,"lng":-118.3276065,"zipcode":"90038"},{"location":"SKYLIGHT THEATRE","address":"1816 1/2 N Vermont Ave. Los Angeles ","formattedAddress":"1816 1/2 N Vermont Ave, Los Angeles, CA 90027, USA","neighborhood":"Central LA","lat":34.1040603,"lng":-118.2915836,"zipcode":"90027"},{"location":"we live in space","address":"2520 W Jefferson Blvd Jefferson ","formattedAddress":"2520 W Jefferson Blvd, Los Angeles, CA 90018, USA","neighborhood":"South Los Angeles","lat":34.0254836,"lng":-118.3232017,"zipcode":"90018"},{"location":"Frederick R. Weisman Museum of Art at Pepperdine University","address":"24255 Pacific Coast Highway Malibu ","formattedAddress":"24255 Pacific Coast Hwy, Malibu, CA 90265, USA","neighborhood":null,"lat":34.0347766,"lng":-118.7034357,"zipcode":"90265"},{"location":"Chester Washington Golf Course","address":"1818 Charlie Sifford Drive, Los Angeles, CA Westmont ","formattedAddress":"1818 Charlie Sifford Dr, Los Angeles, CA 90047, USA","neighborhood":"South Los Angeles","lat":33.9239031,"lng":-118.3097079,"zipcode":"90047"},{"location":"Mountain Meadows Golf Course","address":"1875 Fairplex Drive, Pomona, CA Pomona ","formattedAddress":"1875 Fairplex Dr, Pomona, CA 91768, USA","neighborhood":"Bonita","lat":34.0825186,"lng":-117.7744782,"zipcode":"91768"},{"location":"William S. Hart Park","address":"24151 Newhall Avenue, Newhall, CA  Santa Clarita ","formattedAddress":"24151 Newhall Ave, Santa Clarita, CA 91321, USA","neighborhood":"Newhall","lat":34.3753971,"lng":-118.5257901,"zipcode":"91321"},{"location":"Rubicon Theatre Company","address":"1006 E. Main Street Ventura ","formattedAddress":"1006 E Main St, Ventura, CA 93001, USA","neighborhood":null,"lat":34.2805973,"lng":-119.2852082,"zipcode":"93001"},{"location":"Southern California Gas Company Energy Resource Center","address":"9240 Firestone Blvd CA ","formattedAddress":"9240 Firestone Blvd, Downey, CA 90241, USA","neighborhood":null,"lat":33.9324927,"lng":-118.1190415,"zipcode":"90241"},{"location":"Los Angeles Mission College - Campus Center Building","address":"13356 Eldridge Ave. Sylmar ","formattedAddress":"13356 Eldridge Ave, Sylmar, CA 91342, USA","neighborhood":"Sylmar","lat":34.315788,"lng":-118.4200326,"zipcode":"91342"},{"location":"UCLA's Royce Hall","address":"340 Royce Drive  ","formattedAddress":"340 Royce Dr, Los Angeles, CA 90095, USA","neighborhood":"Westwood","lat":34.0728242,"lng":-118.4421682,"zipcode":"90095"},{"location":"Runway at Playa Vista","address":"12746 W. Jefferson Blvd, Playa Vista Mar Vista ","formattedAddress":"12746 W Jefferson Blvd, Playa Vista, CA 90094, USA","neighborhood":"Playa Vista","lat":33.9770366,"lng":-118.4173063,"zipcode":"90094"},{"location":"Oak Park High School","address":"899 North Kanan Road Oak Park ","formattedAddress":"899 Kanan Rd, Oak Park, CA 91377, USA","neighborhood":null,"lat":34.1805008,"lng":-118.7648977,"zipcode":"91377"},{"location":"McClintock Theatre, University of Southern California","address":"1010 W. Jefferson Blvd 1010 W. Jefferson Blvd ","formattedAddress":"1010 W. Jefferson Blvd., Los Angeles, California 90089, 1010 W Jefferson Blvd, Los Angeles, CA 90089, United States","neighborhood":null,"lat":34.0249043,"lng":-118.2873568,"zipcode":"90089"},{"location":"McClintock Theatre, University of Southern California","address":"1010 W. Jefferson Blvd 1010 W. Jefferson Blvd ","formattedAddress":"1010 W. Jefferson Blvd., Los Angeles, California 90089, 1010 W Jefferson Blvd, Los Angeles, CA 90089, United States","neighborhood":null,"lat":34.0249043,"lng":-118.2873568,"zipcode":"90089"},{"location":"Long Beach Arena- Long Beach Convention and Entertainment Center","address":"300 E. Ocean Blvd. Long Beach CA","formattedAddress":"300 E Ocean Blvd, Long Beach, CA 90802, USA","neighborhood":"Waterfront","lat":33.76520350000001,"lng":-118.1893341,"zipcode":"90802"},{"location":"Beverly O'Neill Theater - Long Beach Conv and Entertainment Ctr","address":"300 E Ocean BL Long Beach CA","formattedAddress":"300 E Ocean Blvd, Long Beach, CA 90802, USA","neighborhood":"Waterfront","lat":33.76520350000001,"lng":-118.1893341,"zipcode":"90802"},{"location":"UCLA Royce Hall","address":"340 Royce Drive  ","formattedAddress":"340 Royce Dr, Los Angeles, CA 90095, USA","neighborhood":"Westwood","lat":34.0728242,"lng":-118.4421682,"zipcode":"90095"},{"location":"MOCA","address":"250 South Grand Avenue Los Angeles ","formattedAddress":"250 S Grand Ave, Los Angeles, CA 90012, USA","neighborhood":"Downtown","lat":34.0534223,"lng":-118.2504046,"zipcode":"90012"},{"location":"SugarMynt Gallery","address":"810 Meridian Ave. South Pasadena, CA South Pasadena ","formattedAddress":"810 Meridian Ave, South Pasadena, CA 91030, USA","neighborhood":null,"lat":34.1162721,"lng":-118.1571171,"zipcode":"91030"},{"location":"The Second Stage at Sacred Fools Theatre","address":"6320 Santa Monica Blvd., Hollywood, CA Hollywood ","formattedAddress":"6320 Santa Monica Blvd, Los Angeles, CA 90038, USA","neighborhood":"Hollywood","lat":34.0905418,"lng":-118.3276065,"zipcode":"90038"},{"location":"SKYLIGHT THEATRE","address":"1816 1/2 N Vermont Ave. Los Angeles ","formattedAddress":"1816 1/2 N Vermont Ave, Los Angeles, CA 90027, USA","neighborhood":"Central LA","lat":34.1040603,"lng":-118.2915836,"zipcode":"90027"},{"location":"we live in space","address":"2520 W Jefferson Blvd Jefferson ","formattedAddress":"2520 W Jefferson Blvd, Los Angeles, CA 90018, USA","neighborhood":"South Los Angeles","lat":34.0254836,"lng":-118.3232017,"zipcode":"90018"},{"location":"Frederick R. Weisman Museum of Art at Pepperdine University","address":"24255 Pacific Coast Highway Malibu ","formattedAddress":"24255 Pacific Coast Hwy, Malibu, CA 90265, USA","neighborhood":null,"lat":34.0347766,"lng":-118.7034357,"zipcode":"90265"},{"location":"Chester Washington Golf Course","address":"1818 Charlie Sifford Drive, Los Angeles, CA Westmont ","formattedAddress":"1818 Charlie Sifford Dr, Los Angeles, CA 90047, USA","neighborhood":"South Los Angeles","lat":33.9239031,"lng":-118.3097079,"zipcode":"90047"},{"location":"Mountain Meadows Golf Course","address":"1875 Fairplex Drive, Pomona, CA Pomona ","formattedAddress":"1875 Fairplex Dr, Pomona, CA 91768, USA","neighborhood":"Bonita","lat":34.0825186,"lng":-117.7744782,"zipcode":"91768"},{"location":"William S. Hart Park","address":"24151 Newhall Avenue, Newhall, CA  Santa Clarita ","formattedAddress":"24151 Newhall Ave, Santa Clarita, CA 91321, USA","neighborhood":"Newhall","lat":34.3753971,"lng":-118.5257901,"zipcode":"91321"},{"location":"Rubicon Theatre Company","address":"1006 E. Main Street Ventura ","formattedAddress":"1006 E Main St, Ventura, CA 93001, USA","neighborhood":null,"lat":34.2805973,"lng":-119.2852082,"zipcode":"93001"},{"location":"UCLA's Royce Hall","address":"340 Royce Drive  ","formattedAddress":"340 Royce Dr, Los Angeles, CA 90095, USA","neighborhood":"Westwood","lat":34.0728242,"lng":-118.4421682,"zipcode":"90095"},{"location":"McClintock Theatre, University of Southern California","address":"1010 W. Jefferson Blvd 1010 W. Jefferson Blvd ","formattedAddress":"1010 W. Jefferson Blvd., Los Angeles, California 90089, 1010 W Jefferson Blvd, Los Angeles, CA 90089, United States","neighborhood":null,"lat":34.0249043,"lng":-118.2873568,"zipcode":"90089"},{"location":"McClintock Theatre, University of Southern California","address":"1010 W. Jefferson Blvd 1010 W. Jefferson Blvd ","formattedAddress":"1010 W. Jefferson Blvd., Los Angeles, California 90089, 1010 W Jefferson Blvd, Los Angeles, CA 90089, United States","neighborhood":null,"lat":34.0249043,"lng":-118.2873568,"zipcode":"90089"},{"location":"UCLA Royce Hall","address":"340 Royce Drive  ","formattedAddress":"340 Royce Dr, Los Angeles, CA 90095, USA","neighborhood":"Westwood","lat":34.0728242,"lng":-118.4421682,"zipcode":"90095"},{"location":"Record Surplus","address":"12436 Santa Monica Blvd. Los Angeles ","formattedAddress":"12436 Santa Monica Blvd, Los Angeles, CA 90025, USA","neighborhood":"Sawtelle","lat":34.0389219,"lng":-118.4670907,"zipcode":"90025"},{"location":"Tommy’s Place (TCC)","address":"3607 Trousdale Parkway Los Angeles ","formattedAddress":"3607 Trousdale Pkwy, Los Angeles, CA 90089, USA","neighborhood":"South Los Angeles","lat":34.0206012,"lng":-118.2860922,"zipcode":"90089"},{"location":"The Brig","address":"1515 Abbot Kinney Blvd Venice ","formattedAddress":"1515 Abbot Kinney Blvd, Venice, CA 90291, USA","neighborhood":"Venice","lat":33.9904014,"lng":-118.4641751,"zipcode":"90291"},{"location":"The Brig","address":"1515 Abbot Kinney Blvd Venice ","formattedAddress":"1515 Abbot Kinney Blvd, Venice, CA 90291, USA","neighborhood":"Venice","lat":33.9904014,"lng":-118.4641751,"zipcode":"90291"},{"location":"Thayer Hall, Colburn School of Music & Beverly ONeill Theater","address":"300 E Ocean Blvd 300 E Ocean Blvd CA Long Beach","formattedAddress":"300 E Ocean Blvd, Long Beach, CA 90802, USA","neighborhood":"Waterfront","lat":33.7664847,"lng":-118.1892698,"zipcode":"90802"},{"location":"Greek Theatre","address":"2700 N. Vermont Ave Los Angeles CA","formattedAddress":"2700 N Vermont Ave, Los Angeles, CA 90027, USA","neighborhood":null,"lat":34.1205588,"lng":-118.2963915,"zipcode":"90027"},{"location":"The Pasadena Civic","address":"300 E Green St. Pasadena CA","formattedAddress":"300 E Green St, Pasadena, CA 91101, USA","neighborhood":null,"lat":34.143817,"lng":-118.144302,"zipcode":"91101"},{"location":"Long Beach Arena- Long Beach Convention and Entertainment Center","address":"300 E. Ocean Blvd. Long Beach CA","formattedAddress":"300 E Ocean Blvd, Long Beach, CA 90802, USA","neighborhood":"Waterfront","lat":33.76520350000001,"lng":-118.1893341,"zipcode":"90802"},{"location":"Terrace Theater","address":"300 E Ocean BL Long Beach CA","formattedAddress":"300 E Ocean Blvd, Long Beach, CA 90802, USA","neighborhood":"Waterfront","lat":33.76520350000001,"lng":-118.1893341,"zipcode":"90802"},{"location":"Santa Monica Playhouse Main Stage","address":"1211 4th Street Santa Monica ","formattedAddress":"1211 4th St, Santa Monica, CA 90401, USA","neighborhood":"Downtown","lat":34.0189556,"lng":-118.4977074,"zipcode":"90401"},{"location":"Macgowan Hall, Freud Playhouse","address":"240 Charles E. Young Dr N ","formattedAddress":"240 Charles E Young Dr N, Los Angeles, CA 90095, USA","neighborhood":"Westwood","lat":34.075768,"lng":-118.4411064,"zipcode":"90095"},{"location":"Little Fish Theatre","address":"777 S. Centre St. San Pedro ","formattedAddress":"777 S Centre St, San Pedro, CA 90731, USA","neighborhood":"San Pedro","lat":33.7372675,"lng":-118.2837083,"zipcode":"90731"},{"location":"Santa Monica Playhouse Main Stage","address":"1211 4th Street Santa Monica ","formattedAddress":"1211 4th St, Santa Monica, CA 90401, USA","neighborhood":"Downtown","lat":34.0189556,"lng":-118.4977074,"zipcode":"90401"},{"location":"Beverly O'Neill Theater - Long Beach Conv and Entertainment Ctr","address":"300 E Ocean BL Long Beach CA","formattedAddress":"300 E Ocean Blvd, Long Beach, CA 90802, USA","neighborhood":"Waterfront","lat":33.76520350000001,"lng":-118.1893341,"zipcode":"90802"},{"location":"Little Fish Theatre","address":"777 S. Centre St. San Pedro ","formattedAddress":"777 S Centre St, San Pedro, CA 90731, USA","neighborhood":"San Pedro","lat":33.7372675,"lng":-118.2837083,"zipcode":"90731"},{"location":"Greek Theatre","address":"2700 N. Vermont Ave. Los Angeles ","formattedAddress":"2700 N Vermont Ave, Los Angeles, CA 90027, USA","neighborhood":null,"lat":34.1205588,"lng":-118.2963915,"zipcode":"90027"},{"location":"Kaufman Hall","address":"120 Westwood Plaza Los Angeles CA","formattedAddress":"120 Westwood Plaza, Los Angeles, CA 90095, USA","neighborhood":"Westwood","lat":34.0728461,"lng":-118.4447953,"zipcode":"90095"},{"location":"Highways Performance Space","address":"1651 18th St. Santa Monica ","formattedAddress":"1651 18th St, Santa Monica, CA 90404, USA","neighborhood":null,"lat":34.0236722,"lng":-118.4772538,"zipcode":"90404"},{"location":"USC","address":"3551 Trousdale Parkway Los Angeles ","formattedAddress":"3551 Trousdale Pkwy, Los Angeles, CA 90089, USA","neighborhood":"South Los Angeles","lat":34.0209141,"lng":-118.2855371,"zipcode":"90089"},{"location":"SugarMynt Gallery","address":"810 Meridian Ave. South Pasadena, CA South Pasadena ","formattedAddress":"810 Meridian Ave, South Pasadena, CA 91030, USA","neighborhood":null,"lat":34.1162721,"lng":-118.1571171,"zipcode":"91030"},{"location":"The Second Stage at Sacred Fools Theatre","address":"6320 Santa Monica Blvd., Hollywood, CA Hollywood ","formattedAddress":"6320 Santa Monica Blvd, Los Angeles, CA 90038, USA","neighborhood":"Hollywood","lat":34.0905418,"lng":-118.3276065,"zipcode":"90038"},{"location":"SKYLIGHT THEATRE","address":"1816 1/2 N Vermont Ave. Los Angeles ","formattedAddress":"1816 1/2 N Vermont Ave, Los Angeles, CA 90027, USA","neighborhood":"Central LA","lat":34.1040603,"lng":-118.2915836,"zipcode":"90027"},{"location":"we live in space","address":"2520 W Jefferson Blvd Jefferson ","formattedAddress":"2520 W Jefferson Blvd, Los Angeles, CA 90018, USA","neighborhood":"South Los Angeles","lat":34.0254836,"lng":-118.3232017,"zipcode":"90018"},{"location":"Frederick R. Weisman Museum of Art at Pepperdine University","address":"24255 Pacific Coast Highway Malibu ","formattedAddress":"24255 Pacific Coast Hwy, Malibu, CA 90265, USA","neighborhood":null,"lat":34.0347766,"lng":-118.7034357,"zipcode":"90265"},{"location":"William S. Hart Park","address":"24151 Newhall Avenue, Newhall, CA  Santa Clarita ","formattedAddress":"24151 Newhall Ave, Santa Clarita, CA 91321, USA","neighborhood":"Newhall","lat":34.3753971,"lng":-118.5257901,"zipcode":"91321"},{"location":"Rubicon Theatre Company","address":"1006 E. Main Street Ventura ","formattedAddress":"1006 E Main St, Ventura, CA 93001, USA","neighborhood":null,"lat":34.2805973,"lng":-119.2852082,"zipcode":"93001"},{"location":"UCLA's Royce Hall","address":"340 Royce Drive  ","formattedAddress":"340 Royce Dr, Los Angeles, CA 90095, USA","neighborhood":"Westwood","lat":34.0728242,"lng":-118.4421682,"zipcode":"90095"},{"location":"McClintock Theatre, University of Southern California","address":"1010 W. Jefferson Blvd 1010 W. Jefferson Blvd ","formattedAddress":"1010 W. Jefferson Blvd., Los Angeles, California 90089, 1010 W Jefferson Blvd, Los Angeles, CA 90089, United States","neighborhood":null,"lat":34.0249043,"lng":-118.2873568,"zipcode":"90089"},{"location":"McClintock Theatre, University of Southern California","address":"1010 W. Jefferson Blvd 1010 W. Jefferson Blvd ","formattedAddress":"1010 W. Jefferson Blvd., Los Angeles, California 90089, 1010 W Jefferson Blvd, Los Angeles, CA 90089, United States","neighborhood":null,"lat":34.0249043,"lng":-118.2873568,"zipcode":"90089"},{"location":"UCLA Royce Hall","address":"340 Royce Drive  ","formattedAddress":"340 Royce Dr, Los Angeles, CA 90095, USA","neighborhood":"Westwood","lat":34.0728242,"lng":-118.4421682,"zipcode":"90095"},{"location":"Record Surplus","address":"12436 Santa Monica Blvd. Los Angeles ","formattedAddress":"12436 Santa Monica Blvd, Los Angeles, CA 90025, USA","neighborhood":"Sawtelle","lat":34.0389219,"lng":-118.4670907,"zipcode":"90025"},{"location":"The Brig","address":"1515 Abbot Kinney Blvd Venice ","formattedAddress":"1515 Abbot Kinney Blvd, Venice, CA 90291, USA","neighborhood":"Venice","lat":33.9904014,"lng":-118.4641751,"zipcode":"90291"},{"location":"The Brig","address":"1515 Abbot Kinney Blvd Venice ","formattedAddress":"1515 Abbot Kinney Blvd, Venice, CA 90291, USA","neighborhood":"Venice","lat":33.9904014,"lng":-118.4641751,"zipcode":"90291"},{"location":"Little Fish Theatre","address":"777 S. Centre St. San Pedro ","formattedAddress":"777 S Centre St, San Pedro, CA 90731, USA","neighborhood":"San Pedro","lat":33.7372675,"lng":-118.2837083,"zipcode":"90731"},{"location":"Little Fish Theatre","address":"777 S. Centre St. San Pedro ","formattedAddress":"777 S Centre St, San Pedro, CA 90731, USA","neighborhood":"San Pedro","lat":33.7372675,"lng":-118.2837083,"zipcode":"90731"},{"location":"Macgowan Hall, Freud Playhouse","address":"240 Charles E. Young Dr N ","formattedAddress":"240 Charles E Young Dr N, Los Angeles, CA 90095, USA","neighborhood":"Westwood","lat":34.075768,"lng":-118.4411064,"zipcode":"90095"},{"location":"Arcadia County Park","address":"405 S. Santa Anita Ave. 405 S. Santa Anita Ave. CA 0","formattedAddress":"405 S Santa Anita Ave, Arcadia, CA 91006, USA","neighborhood":null,"lat":34.1366759,"lng":-118.0334259,"zipcode":"91006"},{"location":"Exposition Park","address":"Los Angeles ","formattedAddress":"Los Angeles, CA, USA","neighborhood":null,"lat":34.0522342,"lng":-118.2436849},{"location":"William S. Hart Park","address":"24151 Newhall Ave Santa Clarita ","formattedAddress":"24151 Newhall Ave, Santa Clarita, CA 91321, USA","neighborhood":"Newhall","lat":34.3753971,"lng":-118.5257901,"zipcode":"91321"},{"location":"AMC Orange","address":"20 City Blvd. W. Orange ","formattedAddress":"20 City Blvd W, Orange, CA 92868, USA","neighborhood":"Anaheim Resort","lat":33.7848294,"lng":-117.8935314,"zipcode":"92868"},{"location":"Pasadena Public Library","address":"285 E. Walnut Street, Pasadena  ","formattedAddress":"285 E Walnut St, Pasadena, CA 91101, USA","neighborhood":null,"lat":34.1500239,"lng":-118.1442694,"zipcode":"91101"},{"location":"Annenberg Space for Photography","address":"2000 Avenue of the Stars Century City ","formattedAddress":"2000 Avenue of the Stars, Los Angeles, CA 90067, USA","neighborhood":"Century City","lat":34.0583595,"lng":-118.4148332,"zipcode":"90067"},{"location":"Long Beach Arena- Long Beach Convention and Entertainment Center","address":"300 E. Ocean Blvd. Long Beach CA","formattedAddress":"300 E Ocean Blvd, Long Beach, CA 90802, USA","neighborhood":"Waterfront","lat":33.76520350000001,"lng":-118.1893341,"zipcode":"90802"},{"location":"The Greek Theatre","address":"2700 N. Vermont Ave. Los Angeles ","formattedAddress":"2700 N Vermont Ave, Los Angeles, CA 90027, USA","neighborhood":null,"lat":34.1205588,"lng":-118.2963915,"zipcode":"90027"},{"location":"Marsee Auditorium, Center for the Arts at El Camino College","address":"16007 Crenshaw Boulevard Torrance ","formattedAddress":"16007 Crenshaw Blvd, Torrance, CA 90506, USA","neighborhood":null,"lat":33.8852359,"lng":-118.3284419,"zipcode":"90506"},{"location":"Record Surplus","address":"12436 Santa Monica Blvd. Los Angeles ","formattedAddress":"12436 Santa Monica Blvd, Los Angeles, CA 90025, USA","neighborhood":"Sawtelle","lat":34.0389219,"lng":-118.4670907,"zipcode":"90025"},{"location":"Queen Mary Events Park","address":"1126 Queens Hwy Long Beach CA","formattedAddress":"1126 Queens Hwy, Long Beach, CA 90802, USA","neighborhood":"Queensway Bay","lat":33.7528705,"lng":-118.1897611,"zipcode":"90802"},{"location":"Terrace Theater","address":"300 E Ocean BL Long Beach CA","formattedAddress":"300 E Ocean Blvd, Long Beach, CA 90802, USA","neighborhood":"Waterfront","lat":33.76520350000001,"lng":-118.1893341,"zipcode":"90802"},{"location":"Apogee Studio","address":"1715 Berkeley Street Santa Monica CA","formattedAddress":"1715 Berkeley St, Santa Monica, CA 90404, USA","neighborhood":null,"lat":34.0330576,"lng":-118.464107,"zipcode":"90404"},{"location":"Long Beach Arena- Long Beach Convention and Entertainment Center","address":"300 E. Ocean Blvd. Long Beach CA","formattedAddress":"300 E Ocean Blvd, Long Beach, CA 90802, USA","neighborhood":"Waterfront","lat":33.76520350000001,"lng":-118.1893341,"zipcode":"90802"},{"location":"Art + Practice","address":"3401 W. 43rd Place Leimert Park ","formattedAddress":"3401 W 43rd Pl, Los Angeles, CA 90008, USA","neighborhood":"South Los Angeles","lat":34.004517,"lng":-118.331727,"zipcode":"90008"},{"location":"Venice Beach Bar","address":"323 Ocean Front Walk, Venice CA Venice ","formattedAddress":"323 Ocean Front Walk, Venice, CA 90291, USA","neighborhood":"Venice","lat":33.994197,"lng":-118.479933,"zipcode":"90291"},{"location":"Netflix Los Angeles","address":"1455 N. Van Ness Ave., Los Angeles, CA Hollywood ","formattedAddress":"1455 N Van Ness Ave, Los Angeles, CA 90028, USA","neighborhood":"Hollywood","lat":34.0973884,"lng":-118.3157853,"zipcode":"90028"},{"location":"Greek Theatre","address":"2700 N. Vermont Ave. Los Angeles ","formattedAddress":"2700 N Vermont Ave, Los Angeles, CA 90027, USA","neighborhood":null,"lat":34.1205588,"lng":-118.2963915,"zipcode":"90027"},{"location":"Long Beach Arena- Long Beach Convention and Entertainment Center","address":"300 E. Ocean Blvd. Long Beach CA","formattedAddress":"300 E Ocean Blvd, Long Beach, CA 90802, USA","neighborhood":"Waterfront","lat":33.76520350000001,"lng":-118.1893341,"zipcode":"90802"},{"location":"Terrace Theater","address":"300 E Ocean BL Long Beach CA","formattedAddress":"300 E Ocean Blvd, Long Beach, CA 90802, USA","neighborhood":"Waterfront","lat":33.76520350000001,"lng":-118.1893341,"zipcode":"90802"},{"location":"Miles Memorial Playhouse","address":"1130 Lincoln Blvd. Santa Monica ","formattedAddress":"1130 Lincoln Blvd, Santa Monica, CA 90403, USA","neighborhood":"Wilshire Montana","lat":34.0226618,"lng":-118.4956828,"zipcode":"90403"},{"location":"Beverly O'Neill Theater - Long Beach Conv and Entertainment Ctr","address":"300 E Ocean BL Long Beach CA","formattedAddress":"300 E Ocean Blvd, Long Beach, CA 90802, USA","neighborhood":"Waterfront","lat":33.76520350000001,"lng":-118.1893341,"zipcode":"90802"},{"location":"Revive Theatre","address":"12420 santa monica blvd West Los Angeles ","formattedAddress":"12420 Santa Monica Blvd, Los Angeles, CA 90025, USA","neighborhood":"Sawtelle","lat":34.038922,"lng":-118.4670904,"zipcode":"90025"},{"location":"Santa Monica Playhouse, The Other Space","address":"1211 4th Street Santa Monica "},{"location":"Highways Performance Space","address":"1651 18th St. Santa Monica "},{"location":"SugarMynt Gallery","address":"810 Meridian Ave. South Pasadena, CA South Pasadena "},{"location":"The Second Stage at Sacred Fools Theatre","address":"6320 Santa Monica Blvd., Hollywood, CA Hollywood "},{"location":"SKYLIGHT THEATRE","address":"1816 1/2 N Vermont Ave. Los Angeles "},{"location":"we live in space","address":"2520 W Jefferson Blvd Jefferson "},{"location":"Frederick R. Weisman Museum of Art at Pepperdine University","address":"24255 Pacific Coast Highway Malibu "},{"location":"William S. Hart Park","address":"24151 Newhall Avenue, Newhall, CA  Santa Clarita "},{"location":"Rubicon Theatre Company","address":"1006 E. Main Street Ventura "},{"location":"UCLA's Royce Hall","address":"340 Royce Drive  "},{"location":"McClintock Theatre, University of Southern California","address":"1010 W. Jefferson Blvd 1010 W. Jefferson Blvd "},{"location":"McClintock Theatre, University of Southern California","address":"1010 W. Jefferson Blvd 1010 W. Jefferson Blvd "},{"location":"UCLA Royce Hall","address":"340 Royce Drive  "},{"location":"Record Surplus","address":"12436 Santa Monica Blvd. Los Angeles "},{"location":"The Brig","address":"1515 Abbot Kinney Blvd Venice "},{"location":"The Brig","address":"1515 Abbot Kinney Blvd Venice "},{"location":"Little Fish Theatre","address":"777 S. Centre St. San Pedro "},{"location":"Little Fish Theatre","address":"777 S. Centre St. San Pedro "},{"location":"Macgowan Hall, Freud Playhouse","address":"240 Charles E. Young Dr N "},{"location":"AMC Orange","address":"20 City Blvd. W. Orange "},{"location":"William S. Hart Park","address":"24151 Newhall Ave Santa Clarita "},{"location":"Venice Beach Bar","address":"323 Ocean Front Walk, Venice CA Venice "},{"location":"Miles Memorial Playhouse","address":"1130 Lincoln Blvd. Santa Monica "},{"location":"Long Beach Arena- Long Beach Convention and Entertainment Center","address":"300 E. Ocean Blvd. Long Beach CA"},{"location":"Esprit Theater","address":"13900 Marquesas Way Marina del Rey "},{"location":"AC Stelle Middle School","address":"22450 Mulholland Hwy., Calabasas, CA  Calabasas "},{"location":"Terrace Theater","address":"300 E Ocean BL Long Beach CA"},{"location":"Beverly O'Neill Theater - Long Beach Conv and Entertainment Ctr","address":"300 E Ocean BL Long Beach CA"},{"location":"LAMAG at Barnsdall Park","address":"4800 Hollywood Blvd Los Angeles "},{"location":"Long Beach Arena- Long Beach Convention and Entertainment Center","address":"300 E. Ocean Blvd. Long Beach CA"},{"location":"Ramo Auditorium, Caltech","address":"1200 E. California Blvd. Pasadena "},{"location":"Access Culver City","address":"8770 W. Washington Blvd, Culver City Culver City "},{"location":"The Pasadena Civic","address":"300 E Green St. Pasadena CA"},{"location":"Santa Monica Playhouse - The Other Space","address":"1211 4th Street Santa Monica "},{"location":"Long Beach Arena- Long Beach Convention and Entertainment Center","address":"300 E. Ocean Blvd. Long Beach CA"},{"location":"Acme Comedy Theatre","address":"135 N La Brea Avenue, Los Angeles, CA La Brea "},{"location":"The Escondite","address":"410 Boyd St Little Tokyo "},{"location":"SugarMynt Gallery","address":"810 Meridian Ave. South Pasadena, CA South Pasadena "},{"location":"The Second Stage at Sacred Fools Theatre","address":"6320 Santa Monica Blvd., Hollywood, CA Hollywood "},{"location":"SKYLIGHT THEATRE","address":"1816 1/2 N Vermont Ave. Los Angeles "},{"location":"we live in space","address":"2520 W Jefferson Blvd Jefferson "},{"location":"Frederick R. Weisman Museum of Art at Pepperdine University","address":"24255 Pacific Coast Highway Malibu "},{"location":"Rubicon Theatre Company","address":"1006 E. Main Street Ventura "},{"location":"Little Fish Theatre","address":"777 S. Centre St. San Pedro "},{"location":"Little Fish Theatre","address":"777 S. Centre St. San Pedro "},{"location":"Miles Memorial Playhouse","address":"1130 Lincoln Blvd. Santa Monica "},{"location":"Director's Guild of America","address":"7920 Sunset Blvd. Los Angeles "},{"location":"Mountain Meadows Golf Course","address":"1875 Fairplex Drive, Pomona, CA Pomona "},{"location":"SugarMynt Gallery","address":"810 Meridian Ave. South Pasadena, CA South Pasadena "},{"location":"The Second Stage at Sacred Fools Theatre","address":"6320 Santa Monica Blvd., Hollywood, CA Hollywood "},{"location":"SKYLIGHT THEATRE","address":"1816 1/2 N Vermont Ave. Los Angeles "},{"location":"we live in space","address":"2520 W Jefferson Blvd Jefferson "},{"location":"Frederick R. Weisman Museum of Art at Pepperdine University","address":"24255 Pacific Coast Highway Malibu "},{"location":"Rubicon Theatre Company","address":"1006 E. Main Street Ventura "},{"location":"Little Fish Theatre","address":"777 S. Centre St. San Pedro "},{"location":"Little Fish Theatre","address":"777 S. Centre St. San Pedro "},{"location":"Miles Memorial Playhouse","address":"1130 Lincoln Blvd. Santa Monica "},{"location":"Director's Guild of America","address":"7920 Sunset Blvd. Los Angeles "},{"location":"Mountain Meadows Golf Course","address":"1875 Fairplex Drive, Pomona, CA Pomona "},{"location":"Bovard Auditorium (ADM)","address":"3551 Trousdale Parkway Los Angeles "},{"location":"GRAMMY Museum","address":"A245, 800 West Olympic Boulevard Los Angeles CA"},{"location":"SugarMynt Gallery","address":"810 Meridian Ave. South Pasadena, CA South Pasadena "},{"location":"The Second Stage at Sacred Fools Theatre","address":"6320 Santa Monica Blvd., Hollywood, CA Hollywood "},{"location":"SKYLIGHT THEATRE","address":"1816 1/2 N Vermont Ave. Los Angeles "},{"location":"we live in space","address":"2520 W Jefferson Blvd Jefferson "},{"location":"Frederick R. Weisman Museum of Art at Pepperdine University","address":"24255 Pacific Coast Highway Malibu "},{"location":"Rubicon Theatre Company","address":"1006 E. Main Street Ventura "},{"location":"Little Fish Theatre","address":"777 S. Centre St. San Pedro "},{"location":"Little Fish Theatre","address":"777 S. Centre St. San Pedro "},{"location":"Miles Memorial Playhouse","address":"1130 Lincoln Blvd. Santa Monica "},{"location":"Director's Guild of America","address":"7920 Sunset Blvd. Los Angeles "},{"location":"Mountain Meadows Golf Course","address":"1875 Fairplex Drive, Pomona, CA Pomona "},{"location":"Ray Stark Family Theatre (SCA), School of Cinematic Arts 108","address":"900 West 34th Street Los Angeles "},{"location":"Clifford M. Brakensiek Library","address":"9945 E. Flower St. Bellflower, CA  Bellflower "},{"location":"Ca'Del Sole","address":"4100 Cahuenga Blvd. Toluca Lake, CA North Hollywood "},{"location":"West Hollywood Library, City Council Chamber","address":"625 N San Vicente Blvd West Hollywood "},{"location":"Seven Bar & Lounge","address":"555 W. 7th St. Los Angeles "},{"location":"New Roads School","address":"3131 Olympic Blvd., Santa Monica  "},{"location":"Resident DTLA","address":"428 S. Hewitt St. Los Angeles CA"},{"location":"SugarMynt Gallery","address":"810 Meridian Ave. South Pasadena, CA South Pasadena "},{"location":"The Second Stage at Sacred Fools Theatre","address":"6320 Santa Monica Blvd., Hollywood, CA Hollywood "},{"location":"SKYLIGHT THEATRE","address":"1816 1/2 N Vermont Ave. Los Angeles "},{"location":"we live in space","address":"2520 W Jefferson Blvd Jefferson "},{"location":"Frederick R. Weisman Museum of Art at Pepperdine University","address":"24255 Pacific Coast Highway Malibu "},{"location":"Rubicon Theatre Company","address":"1006 E. Main Street Ventura "},{"location":"Little Fish Theatre","address":"777 S. Centre St. San Pedro "},{"location":"Little Fish Theatre","address":"777 S. Centre St. San Pedro "},{"location":"Miles Memorial Playhouse","address":"1130 Lincoln Blvd. Santa Monica "},{"location":"Director's Guild of America","address":"7920 Sunset Blvd. Los Angeles "},{"location":"Mountain Meadows Golf Course","address":"1875 Fairplex Drive, Pomona, CA Pomona "},{"location":"Seven Bar & Lounge","address":"555 W. 7th St. Los Angeles "},{"location":"Shrine Expo Hall","address":"665 W Jefferson Blvd. Los Angeles CA"},{"location":"JLM Flagship Salon","address":"352 N. Robertson Blvd.  "},{"location":"Greek Theatre","address":"2700 N. Vermont Ave Los Angeles CA"},{"location":"Bloomingdale's Santa Monica","address":"315 Colorado Avenue Santa Monica CA 0"},{"location":"Annenberg Space for Photography","address":"2000 Avenue of the Stars Century City "},{"location":"Aratani Japan America Theater","address":"244 S. San Pedro St. Los Angeles, CA "},{"location":"Egyptian Theatre","address":"6712 Hollywood Blvd., Hollywood, CA Hollywood "},{"location":"Alex Theatre in Glendale","address":"216 N. Brand Blvd Glendale CA "},{"location":"Boston Court Performing Arts Center","address":"70 N Mentor Ave Pasadena "},{"location":"Little Fish Theatre","address":"777 S. Centre St. San Pedro "},{"location":"Beverly O'Neill Theater - Long Beach Conv and Entertainment Ctr","address":"300 E Ocean BL Long Beach CA"},{"location":"American Contemporary Ballet","address":"700 S. Flower St., Suite 3200, Los Angeles, CA Downtown "},{"location":"Shrine Expo Hall","address":"665 W Jefferson Blvd. Los Angeles CA"},{"location":"Resident DTLA","address":"428 S Hewitt St Little Tokyo "},{"location":"SugarMynt Gallery","address":"810 Meridian Ave. South Pasadena, CA South Pasadena "},{"location":"The Second Stage at Sacred Fools Theatre","address":"6320 Santa Monica Blvd., Hollywood, CA Hollywood "},{"location":"SKYLIGHT THEATRE","address":"1816 1/2 N Vermont Ave. Los Angeles "},{"location":"we live in space","address":"2520 W Jefferson Blvd Jefferson "},{"location":"Frederick R. Weisman Museum of Art at Pepperdine University","address":"24255 Pacific Coast Highway Malibu "},{"location":"Rubicon Theatre Company","address":"1006 E. Main Street Ventura "},{"location":"Little Fish Theatre","address":"777 S. Centre St. San Pedro "},{"location":"Little Fish Theatre","address":"777 S. Centre St. San Pedro "},{"location":"Miles Memorial Playhouse","address":"1130 Lincoln Blvd. Santa Monica "},{"location":"Director's Guild of America","address":"7920 Sunset Blvd. Los Angeles "},{"location":"Mountain Meadows Golf Course","address":"1875 Fairplex Drive, Pomona, CA Pomona "},{"location":"Aratani Japan America Theater","address":"244 S. San Pedro St. Los Angeles, CA "},{"location":"Little Fish Theatre","address":"777 S. Centre St. San Pedro "},{"location":"Boston Court Performing Arts Center","address":"70 N Mentor Ave Pasadena "},{"location":"Resident DTLA","address":"428 S Hewitt St Little Tokyo "},{"location":"School of Cinematic Arts - SCA (SCA), Meldman Park","address":"900 West 34th Street Los Angeles "},{"location":"Shrine Expo Hall","address":"665 W Jefferson Blvd. Los Angeles CA"},{"location":"American Contemporary Ballet","address":"700 S. Flower St., Suite 3200, Los Angeles, CA Downtown "},{"location":"Beverly O'Neill Theater - Long Beach Conv and Entertainment Ctr","address":"300 E Ocean BL Long Beach CA"},{"location":"Highways Performance Space","address":"1651 18th St. Santa Monica "},{"location":"SugarMynt Gallery","address":"810 Meridian Ave. South Pasadena, CA South Pasadena "},{"location":"The Second Stage at Sacred Fools Theatre","address":"6320 Santa Monica Blvd., Hollywood, CA Hollywood "},{"location":"SKYLIGHT THEATRE","address":"1816 1/2 N Vermont Ave. Los Angeles "},{"location":"we live in space","address":"2520 W Jefferson Blvd Jefferson "},{"location":"Frederick R. Weisman Museum of Art at Pepperdine University","address":"24255 Pacific Coast Highway Malibu "},{"location":"Rubicon Theatre Company","address":"1006 E. Main Street Ventura "},{"location":"Little Fish Theatre","address":"777 S. Centre St. San Pedro "},{"location":"Little Fish Theatre","address":"777 S. Centre St. San Pedro "},{"location":"Miles Memorial Playhouse","address":"1130 Lincoln Blvd. Santa Monica "},{"location":"Director's Guild of America","address":"7920 Sunset Blvd. Los Angeles "},{"location":"Aratani Japan America Theater","address":"244 S. San Pedro St. Los Angeles, CA "},{"location":"Boston Court Performing Arts Center","address":"70 N Mentor Ave Pasadena "},{"location":"Little Fish Theatre","address":"777 S. Centre St. San Pedro "},{"location":"Santa Monica Pier","address":"200 Santa Monica Pier Santa Monica "},{"location":"Crescenta Valley Park","address":"3901 Dunsmore Ave. La Crescenta "},{"location":"Central Park Pasadena","address":"275 S Raymond Ave Pasadena "},{"location":"Annenberg Space for Photography","address":"2000 Avenue of the Stars Century City "},{"location":"Begins at intersection of Florence and Normandie, Los Angeles, CA","address":"W Florence Ave &amp; S Normandie Ave Westmont "},{"location":"Terrace Theater","address":"300 E Ocean BL Long Beach CA"},{"location":"Lloyd Taber - Marina del Rey Library","address":"4533 Admiralty Way Marina del Rey, CA  Marina del Rey "},{"location":"18th Street Arts Center","address":"1639 18th Street Santa Monica "},{"location":"Long Beach Performing Arts Center","address":"300 E. Ocean Blvd. Long Beach "},{"location":"Shrine Expo Hall","address":"665 W Jefferson Blvd. Los Angeles CA"},{"location":"The Ambassador Auditorium","address":"131 South Saint John Avenue Pasadena "},{"location":"Allendale Branch Library","address":"1130 S. Marengo Ave., Pasadena  "},{"location":"Irwindale Speedway","address":"500 Speedway Drive Irwindale "},{"location":"Lewis Family Playhouse at Victoria Gardens Cultural Center","address":"12505 Cultural Center Drive Rancho Cucamonga "},{"location":"Santa Monica Pier","address":"200 Santa Monica Pier Santa Monica "},{"location":"American Contemporary Ballet","address":"700 S. Flower St., Suite 3200, Los Angeles, CA Downtown "},{"location":"American Contemporary Ballet","address":"700 S. Flower St., Suite 3200, Los Angeles, CA Downtown "},{"location":"First United Methodist Church of Santa Monica","address":"1008 11th Street California CA"},{"location":"San Gabriel Mission Playhouse","address":"320 South Mission Drive San Gabriel CA"},{"location":"Beverly O'Neill Theater - Long Beach Conv and Entertainment Ctr","address":"300 E Ocean BL Long Beach CA"},{"location":"American Contemporary Ballet","address":"700 S. Flower St., Suite 3200, Los Angeles, CA Downtown "},{"location":"Terrace Theater","address":"300 E. Ocean Blvd. Long Beach "},{"location":"St. Augustine by-the-Sea","address":"1227 Fourth Street, Santa Monica  "},{"location":"Luckman Fine Arts Complex","address":"5151 State University Drive Los Angeles CA"},{"location":"Wilshire Ebell Theatre","address":"4401 W 8th St. Los Angeles "},{"location":"Highways Performance Space","address":"1651 18th St. Santa Monica "},{"location":"The Woman's Club of South Pasadena","address":"1424 Fremont Avenue South Pasadena "},{"location":"SugarMynt Gallery","address":"810 Meridian Ave. South Pasadena, CA South Pasadena "},{"location":"The Second Stage at Sacred Fools Theatre","address":"6320 Santa Monica Blvd., Hollywood, CA Hollywood "},{"location":"SKYLIGHT THEATRE","address":"1816 1/2 N Vermont Ave. Los Angeles "},{"location":"we live in space","address":"2520 W Jefferson Blvd Jefferson "},{"location":"Rubicon Theatre Company","address":"1006 E. Main Street Ventura "},{"location":"Little Fish Theatre","address":"777 S. Centre St. San Pedro "},{"location":"Little Fish Theatre","address":"777 S. Centre St. San Pedro "},{"location":"Miles Memorial Playhouse","address":"1130 Lincoln Blvd. Santa Monica "},{"location":"Director's Guild of America","address":"7920 Sunset Blvd. Los Angeles "},{"location":"Aratani Japan America Theater","address":"244 S. San Pedro St. Los Angeles, CA "},{"location":"Little Fish Theatre","address":"777 S. Centre St. San Pedro "},{"location":"Boston Court Performing Arts Center","address":"70 N Mentor Ave Pasadena "},{"location":"Central Park Pasadena","address":"275 S Raymond Ave Pasadena "},{"location":"Lewis Family Playhouse at Victoria Gardens Cultural Center","address":"12505 Cultural Center Drive Rancho Cucamonga "},{"location":"Santa Monica Pier","address":"200 Santa Monica Pier Santa Monica "},{"location":"The Woman's Club of South Pasadena","address":"1424 Fremont Avenue South Pasadena "},{"location":"Santa Monica Pier","address":"200 Santa Monica Pier Santa Monica "},{"location":"The Grove (The Park)","address":"189 The Grove Dr Los Angeles "},{"location":"MODERNICA FACTORY","address":"2901 Saco St. Los Angeles, CA "},{"location":"Tarzana Community & Cultural Center Park","address":"19130 Ventura Blvd. Tarzana Tarzana "},{"location":"Tongva Park","address":"1615 Ocean Ave. Santa Monica "},{"location":"Angels Gate Cultural Center","address":"3601 S. Gaffey Street San Pedro, CA San Pedro "},{"location":"Studio 11","address":"4621 W. Washington Blvd. Los Angeles "},{"location":"Redondo Union High School Auditorium","address":"631 Vincent Street Redondo Beach "},{"location":"Central Library, Los Angeles Public Library","address":"630 W. 5th Street Los Angeles "},{"location":"Beverly O'Neill Theater - Long Beach Conv and Entertainment Ctr","address":"300 E Ocean BL Long Beach CA"},{"location":"First United Methodist Church of Santa Monica","address":"1008 11th Street California CA"},{"location":"Shrine Expo Hall","address":"665 W Jefferson Blvd. Los Angeles CA"},{"location":"American Contemporary Ballet","address":"700 S. Flower St., Suite 3200, Los Angeles, CA Downtown "},{"location":"American Contemporary Ballet","address":"700 S. Flower St., Suite 3200, Los Angeles, CA Downtown "},{"location":"Hollywood Roosevelt","address":"7000 Hollywood Boulevard Hollywood "},{"location":"Santa Monica Playhouse - The Other Space","address":"1211 4th Street Santa Monica "},{"location":"Royce Hall on the UCLA Campus","address":"10745 Dickson Plaza Los Angeles CA 0"},{"location":"Royce Hall on the UCLA Campus","address":"10745 Dickson Plaza Los Angeles CA 0"},{"location":"Royce Hall on the UCLA Campus","address":"10745 Dickson Plaza Los Angeles CA 0"},{"location":"Shrine Expo Hall","address":"665 W Jefferson Blvd. Los Angeles CA"},{"location":"The Escondite","address":"410 Boyd St Little Tokyo "}]