[{"location":"The Moroccan Lounge","address":"901 E. First St. Los Angeles, ","formattedAddress":"901 E 1st St, Los Angeles, CA 90012, USA","lat":34.0487434,"lng":-118.2336734,"zipcode":"90012","city":"Los Angeles","neighborhood":"Downtown"},{"location":"The L.A. Hotel Downtown","address":"333 S figueroa St Los Angeles, ","formattedAddress":"333 S Figueroa St, Los Angeles, CA 90071, USA","lat":34.0550246,"lng":-118.2554539,"zipcode":"90071","city":"Los Angeles","neighborhood":"Downtown"},{"location":"The Pike Bar & Fish Grill","address":"1836 E. Fourth St. Long Beach, ","formattedAddress":"1836 E 4th St, Long Beach, CA 90802, USA","lat":33.7715292,"lng":-118.169132,"zipcode":"90802","city":"Long Beach","neighborhood":"Alamitos Beach"},{"location":"Nevada Museum of Art","address":"160 W. Liberty St. Reno, NV 89501","formattedAddress":"160 W Liberty St, Reno, NV 89501, USA","lat":39.5208179,"lng":-119.8132712,"zipcode":"89501","city":"Reno"},{"location":"Fine Arts Building","address":"811 W. Seventh St. Los Angeles, ","formattedAddress":"811 W 7th St, Los Angeles, CA 90017, USA","lat":34.0491816,"lng":-118.2589725,"zipcode":"90017","city":"Los Angeles","neighborhood":"Downtown"},{"location":"DAC Gallery","address":"431 S. Broadway, Los Angeles, California ","formattedAddress":"431 S Broadway, Los Angeles, CA 90013, USA","lat":34.0489509,"lng":-118.2504281,"zipcode":"90013","city":"Los Angeles","neighborhood":"Central LA"},{"location":"Laemmle's NoHo 7","address":"5240 Lankershim Blvd. Los Angeles, ","formattedAddress":"5240 Lankershim Blvd, North Hollywood, CA 91601, USA","lat":34.1661289,"lng":-118.3749957,"zipcode":"91601","city":"Los Angeles","neighborhood":"North Hollywood"},{"location":"Smothers Theatre, Pepperdine University","address":"24255 Pacific Coast Highway Malibu, ","formattedAddress":"24255 Pacific Coast Hwy, Malibu, CA 90263, USA","lat":34.0390661,"lng":-118.7056781,"zipcode":"90263","city":"Malibu"},{"location":"The Canyon Santa Clarita","address":"24201 Valencia Blvd., #1351 Santa Clarita, ","formattedAddress":"24201 Valencia Blvd #1351, Santa Clarita, CA 91355, USA","lat":34.4147514,"lng":-118.558256,"zipcode":"91355","city":"Santa Clarita"},{"location":"The Pico Union Project","address":"1153 Valencia St. Los Angeles, ","formattedAddress":"1153 Valencia St, Los Angeles, CA 90015, USA","lat":34.045717,"lng":-118.2743074,"zipcode":"90015","city":"Los Angeles","neighborhood":"Central LA"},{"location":"Raleigh Studios Chaplin Theater","address":"5300 Melrose Ave. Los Angeles, ","formattedAddress":"5300 Melrose Ave, Los Angeles, CA 90038, USA","lat":34.0832125,"lng":-118.3163816,"zipcode":"90038","city":"Los Angeles","neighborhood":"Central LA"},{"location":"Think Tank Gallery","address":"939 Maple Ave. Los Angeles, ","formattedAddress":"939 Maple Ave, Los Angeles, CA 90015, USA","lat":34.0387504,"lng":-118.25387,"zipcode":"90015","city":"Los Angeles","neighborhood":"Central LA"},{"location":"La Luz de Jesus Gallery","address":"4633 Hollywood Blvd. Los Angeles, ","formattedAddress":"4633 Hollywood Blvd, Los Angeles, CA 90027, USA","lat":34.1004237,"lng":-118.2899669,"zipcode":"90027","city":"Los Angeles","neighborhood":"Los Feliz"},{"location":"Cavern Club Theater","address":"1920 Hyperion Ave. Los Angeles, ","formattedAddress":"1920 Hyperion Ave, Los Angeles, CA 90027, USA","lat":34.097457,"lng":-118.274991,"zipcode":"90027","city":"Los Angeles","neighborhood":"Central LA"},{"location":"Bob Baker Marionette Theater","address":"1345 W. First St. Los Angeles, ","formattedAddress":"1345 W 1st St, Los Angeles, CA 90026, USA","lat":34.0619455,"lng":-118.259055,"zipcode":"90026","city":"Los Angeles","neighborhood":"Central LA"},{"location":"Museum of Contemporary Art (MOCA Grand Avenue)","address":"250 S. Grand Ave. Los Angeles, ","formattedAddress":"250 S Grand Ave, Los Angeles, CA 90012, USA","lat":34.0534223,"lng":-118.2504046,"zipcode":"90012","city":"Los Angeles","neighborhood":"Downtown"},{"location":"Santa Barbara Bowl","address":"1122 N. Milpas St. Santa Barbara, ","formattedAddress":"1122 N Milpas St, Santa Barbara, CA 93103, USA","lat":34.4326564,"lng":-119.6938129,"zipcode":"93103","city":"Santa Barbara","neighborhood":"Lower Riviera"},{"location":"Cerritos Center for the Performing Arts","address":"12700 Center Court Dr. Cerritos, ","formattedAddress":"12700 Center Ct Dr N, Cerritos, CA 90703, USA","lat":33.867418,"lng":-118.0615344,"zipcode":"90703","city":"Cerritos"},{"location":"Charles R. Drew University of Medicine and Science","address":"1731 E. 120th St. Los Angeles, ","formattedAddress":"1731 E 120th St, Los Angeles, CA 90059, USA","lat":33.9256333,"lng":-118.242526,"zipcode":"90059","city":"Los Angeles","neighborhood":"South Los Angeles"},{"location":"Paramount Studios","address":"5555 Melrose Ave. Los Angeles, ","formattedAddress":"5555 Melrose Ave, Los Angeles, CA 90038, USA","lat":34.0844373,"lng":-118.3191466,"zipcode":"90038","city":"Los Angeles","neighborhood":"Central LA"},{"location":"Larchmont Village","address":"No Address Los Angeles, CA","formattedAddress":"Los Angeles, CA, USA","lat":34.0522342,"lng":-118.2436849,"city":"Los Angeles"},{"location":"Santa Barbara Polo & Racquet Club","address":"3375 Foothill Rd #1200 Carpinteria, California 93013 805-684-6683","formattedAddress":"3375 Foothill Rd #1200, Carpinteria, CA 93013, USA","lat":34.419911,"lng":-119.56133,"zipcode":"93013","city":"Carpinteria"},{"location":"Barrett Hall, Pasadena Conservatory of Music","address":"100 N. Hill Ave. Pasadena, ","formattedAddress":"100 N Hill Ave, Pasadena, CA 91106, USA","lat":34.1478063,"lng":-118.1210275,"zipcode":"91106","city":"Pasadena","neighborhood":"Mid Central"},{"location":"Norris Theatre","address":"27570 Norris Center Dr. Rolling Hills Estates, California 90274 310-544-0403","formattedAddress":"27570 Norris Center Dr, Rolling Hills Estates, CA 90274, USA","lat":33.7721774,"lng":-118.3755411,"zipcode":"90274","city":"Rolling Hills Estates"},{"location":"Glen Helen Amphitheater","address":"2575 Glen Helen Parkway San Bernardino, ","formattedAddress":"2575 Glen Helen Pkwy, San Bernardino, CA 92407, USA","lat":34.2108779,"lng":-117.4069989,"zipcode":"92407","city":"San Bernardino"},{"location":"Hotel Maya","address":"700 Queensway Dr. Long Beach, ","formattedAddress":"700 Queensway Dr, Long Beach, CA 90802, USA","lat":33.7567328,"lng":-118.1987124,"zipcode":"90802","city":"Long Beach","neighborhood":"Queensway Bay"},{"location":"Modernica Props","address":"2805 Gilroy St. Los Angeles, ","formattedAddress":"2805 Gilroy St, Los Angeles, CA 90039, USA","lat":34.1056537,"lng":-118.2522413,"zipcode":"90039","city":"Los Angeles"},{"location":"Citizens Business Bank Arena","address":"4000 Ontario Center Ontario, ","formattedAddress":"4000 Ontario Center, Ontario, CA 91764, USA","lat":34.0729726,"lng":-117.5663751,"zipcode":"91764","city":"Ontario"},{"location":"The Ford Theatres","address":"2580 Cahuenga Blvd. East Hollywood, California 90068 323-461-3673","formattedAddress":"2580 Cahuenga Blvd E, Los Angeles, CA 90068, USA","lat":34.1140558,"lng":-118.3343777,"zipcode":"90068","city":"Los Angeles","neighborhood":"Central LA"},{"location":"Redondo Beach Pier","address":"100 Fisherman's Wharf Redondo Beach, ","formattedAddress":"100 Fishermans Wharf, Redondo Beach, CA 90277, USA","lat":33.8390803,"lng":-118.3909962,"zipcode":"90277","city":"Redondo Beach","neighborhood":"South Redondo"},{"location":"Steven's Steak & Seafood House","address":"5332 E. Stevens Place Los Angeles, ","formattedAddress":"5332 Stevens Pl, Commerce, CA 90040, USA","lat":34.007678,"lng":-118.159232,"zipcode":"90040","city":"Commerce","neighborhood":"South Montebello"},{"location":"Festival Amphitheatre","address":"12762 Main St. Garden Grove, ","formattedAddress":"12762 Main St, Garden Grove, CA 92840, USA","lat":33.7770111,"lng":-117.940602,"zipcode":"92840","city":"Garden Grove"},{"location":"Academy of Motion Picture Arts and Sciences, Samuel Goldwyn Theater","address":"8949 Wilshire Blvd. Beverly Hills, ","formattedAddress":"8949 Wilshire Blvd, Beverly Hills, CA 90211, USA","lat":34.0673948,"lng":-118.3873419,"zipcode":"90211","city":"Beverly Hills"},{"location":"Umeda Restaurant","address":"6623 Melrose Ave. Los Angeles, ","formattedAddress":"6623 Melrose Ave, Los Angeles, CA 90038, USA","lat":34.0835766,"lng":-118.3395223,"zipcode":"90038","city":"Los Angeles","neighborhood":"Central LA"},{"location":"The Stockroom","address":"2121 W. Sunset Blvd Los Angeles, ","formattedAddress":"2121 Sunset Blvd, Los Angeles, CA 90026, USA","lat":34.0776738,"lng":-118.2641905,"zipcode":"90026","city":"Los Angeles"},{"location":"Las Perlas","address":"107 E. Sixth St. Los Angeles, ","formattedAddress":"107 E 6th St, Los Angeles, CA 90014, USA","lat":34.0450811,"lng":-118.2495339,"zipcode":"90014","city":"Los Angeles","neighborhood":"Downtown"},{"location":"The Bruery","address":"715 Dunn Way Placentia, ","formattedAddress":"715 Dunn Way, Placentia, CA 92870, USA","lat":33.8619002,"lng":-117.8802111,"zipcode":"92870","city":"Placentia"},{"location":"Shape Up LA","address":"19564 Ventura Blvd Tarzana, ","formattedAddress":"19564 Ventura Blvd, Tarzana, CA 91356, USA","lat":34.1727814,"lng":-118.5593711,"zipcode":"91356","city":"Los Angeles","neighborhood":"Tarzana"},{"location":"Whitefire Theater","address":"13500 Ventura Blvd. Sherman Oaks, ","formattedAddress":"13500 Ventura Blvd, Sherman Oaks, CA 91423, USA","lat":34.1471717,"lng":-118.4273501,"zipcode":"91423","city":"Los Angeles","neighborhood":"Sherman Oaks"},{"location":"Joxer Daly's","address":"11168 Washington Blvd. Culver City, ","formattedAddress":"11168 Washington Blvd, Culver City, CA 90232, USA","lat":34.0077893,"lng":-118.4123399,"zipcode":"90232","city":"Culver City","neighborhood":"Clarkdale"},{"location":"Ramen Bangaichi","address":"4339 W. Sunset Blvd. Los Angeles, CA 323-522-6578","formattedAddress":"4339 Sunset Blvd, Los Angeles, CA 90029, USA","lat":34.0952644,"lng":-118.2829531,"zipcode":"90029","city":"Los Angeles","neighborhood":"Central LA"},{"location":"Knott's Berry Farm","address":"8039 Beach Blvd. Buena Park, ","formattedAddress":"8039 Beach Blvd, Buena Park, CA 90620, USA","lat":33.843854,"lng":-118.0001748,"zipcode":"90620","city":"Buena Park"},{"location":"Arlington Theatre","address":"1317 State St. Santa Barbara, ","formattedAddress":"1317 State St, Santa Barbara, CA 93101, USA","lat":34.42462769999999,"lng":-119.7065206,"zipcode":"93101","city":"Santa Barbara","neighborhood":"Santa Barbara Downtown"},{"location":"The Canby","address":"19312 Vanowen St. Reseda, ","formattedAddress":"19312 Vanowen St, Reseda, CA 91335, USA","lat":34.1935702,"lng":-118.5540744,"zipcode":"91335","city":"Los Angeles","neighborhood":"Reseda"},{"location":"John Anson Ford Amphitheatre","address":"2580 Cahuenga Blvd. East Hollywood, ","formattedAddress":"2580 Cahuenga Blvd E, Los Angeles, CA 90068, USA","lat":34.1140558,"lng":-118.3343777,"zipcode":"90068","city":"Los Angeles","neighborhood":"Central LA"},{"location":"Angel City Brewery","address":"216 S. Alameda St. Los Angeles, ","formattedAddress":"216 Alameda St, Los Angeles, CA 90012, USA","lat":34.0465361,"lng":-118.2378194,"zipcode":"90012","city":"Los Angeles","neighborhood":"Central LA"},{"location":"The Wayfarer","address":"843 W. 19th St. Costa Mesa, ","formattedAddress":"843 W 19th St, Costa Mesa, CA 92627, USA","lat":33.6428596,"lng":-117.9340291,"zipcode":"92627","city":"Costa Mesa","neighborhood":"Westside Costa Mesa"},{"location":"Bulgogi Hut","address":"3600 Wilshire Blvd. Ste. 1000C Los Angeles, CA","formattedAddress":"3600 Wilshire Blvd #1000c, Los Angeles, CA 90010, USA","lat":34.0607066,"lng":-118.3036388,"zipcode":"90010","city":"Los Angeles","neighborhood":"Koreatown"},{"location":"Joshua Tree Saloon","address":"61835 29 Palms Highway Joshua Tree, ","formattedAddress":"61835 Twentynine Palms Highway, Joshua Tree, CA 92252, USA","lat":34.1346393,"lng":-116.3144357,"zipcode":"92252","city":"Joshua Tree"},{"location":"City of Pasadena","address":"120 E Holly St Pasadena, california 91103 626-714-1424","formattedAddress":"120 E Holly St, Pasadena, CA 91103, USA","lat":34.147632,"lng":-118.1479701,"zipcode":"91103","city":"Pasadena","neighborhood":"Old Pasadena"},{"location":"St. Matthew's Episcopal Church","address":"1031 Bienveneda Ave. Pacific Palisades, ","formattedAddress":"1031 Bienveneda Ave, Pacific Palisades, CA 90272, USA","lat":34.0540215,"lng":-118.5421364,"zipcode":"90272","city":"Los Angeles","neighborhood":"Pacific Palisades"},{"location":"Institute of Mentalphysics","address":"59700 Twentynine Palms Highway Joshua Tree, ","formattedAddress":"59700 Twentynine Palms Highway, Joshua Tree, CA 92252, USA","lat":34.1366332,"lng":-116.3607551,"zipcode":"92252","city":"Joshua Tree"},{"location":"George Nakano Theatre, Torrance Cultural Arts Center","address":"3330 Civic Center Dr. Torrance, ","formattedAddress":"3330 Civic Center Dr, Torrance, CA 90503, USA","lat":33.8393642,"lng":-118.3434411,"zipcode":"90503","city":"Torrance"},{"location":"Jawbone Canyon","address":"SC-176, Jawbone Canyon Rd. Cantil, "},{"location":"Pacific Amphitheatre","address":"100 Fair Dr. Costa Mesa, ","formattedAddress":"100 Fair Dr, Costa Mesa, CA 92626, USA","lat":33.6658039,"lng":-117.9047929,"zipcode":"92626","city":"Costa Mesa"},{"location":"Hotel Normandie","address":"605 Normandie Ave. Los Angeles, ","formattedAddress":"605 Normandie Ave, Los Angeles, CA 90005, USA","lat":34.0633173,"lng":-118.3005522,"zipcode":"90005","city":"Los Angeles","neighborhood":"Koreatown"},{"location":"Viento y Agua Gallery","address":"4007 E. Fourth St. Long Beach, ","formattedAddress":"4007 E 4th St, Long Beach, CA 90814, USA","lat":33.7718555,"lng":-118.1455689,"zipcode":"90814","city":"Long Beach","neighborhood":"Belmont Heights"},{"location":"Cirivello's Restaurant & Sport Stop","address":"4115 N. Viking Way Long Beach, ","formattedAddress":"4115 N Viking Way, Long Beach, CA 90808, USA","lat":33.8330093,"lng":-118.1267156,"zipcode":"90808","city":"Long Beach","neighborhood":"Lakewood Village"},{"location":"Nate Holden Performing Arts Center","address":"4718 W. Washington Blvd. Los Angeles, ","formattedAddress":"4718 W Washington Blvd, Los Angeles, CA 90016, USA","lat":34.0395853,"lng":-118.3420041,"zipcode":"90016","city":"Los Angeles","neighborhood":"Mid City"},{"location":"Hauser & Wirth","address":"901 E. Third St. Los Angeles, ","formattedAddress":"901 E 3rd St, Los Angeles, CA 90013, USA","lat":34.0461287,"lng":-118.2348792,"zipcode":"90013","city":"Los Angeles","neighborhood":"Central LA"},{"location":"Jessica Siler","address":"Hyatt Regency Osaka 1-13-11 Nanko-Kita, Suminoe-Ku 559-0034, Osaka, Japan osaka, WA 559-0034 650-889-4686","formattedAddress":"1 Chome-13-11 Nankokita, Suminoe Ward, Osaka, Osaka Prefecture 559-0034, Japan","lat":34.63708080000001,"lng":135.4162967,"zipcode":"559-0034","city":"Osaka","neighborhood":"11"},{"location":"TOMGEORGE","address":"707 S. Grand Ave. Los Angeles, CA","formattedAddress":"707 S Grand Ave, Los Angeles, CA 90017, USA","lat":34.0471324,"lng":-118.2569573,"zipcode":"90017","city":"Los Angeles","neighborhood":"Downtown"},{"location":"The Evergreen State College","address":"2700 Evergreen Parkway NW Olympia, WA 98505 360-867-6000","formattedAddress":"2700 Evergreen Pkwy NW, Olympia, WA 98505, USA","lat":47.0733706,"lng":-122.9734736,"zipcode":"98505","city":"Olympia"},{"location":"Chelle's Seafood","address":"6325 Hollywood Blvd. Los Angeles, CA 323-468-0656","formattedAddress":"6325 Hollywood Blvd, Los Angeles, CA 90028, USA","lat":34.1017801,"lng":-118.3276247,"zipcode":"90028","city":"Los Angeles","neighborhood":"Hollywood"},{"location":"Pasadena Playhouse","address":"39 S. El Molino Ave. Pasadena, ","formattedAddress":"39 S El Molino Ave, Pasadena, CA 91101, USA","lat":34.1451149,"lng":-118.137375,"zipcode":"91101","city":"Pasadena"},{"location":"A Simple Bar","address":"3256 Cahuenga Boulevard W. Los Angeles, ","formattedAddress":"3256 Cahuenga Blvd W, Los Angeles, CA 90068, USA","lat":34.1299759,"lng":-118.3487902,"zipcode":"90068","city":"Los Angeles","neighborhood":"Central LA"},{"location":"The Culver Studios","address":"9336 W. Washington Blvd. Culver City, ","formattedAddress":"9336 Washington Blvd, Los Angeles, CA 90066, USA","lat":34.0240161,"lng":-118.392359,"zipcode":"90066","city":"Los Angeles","neighborhood":"Lucerne - Higuera"},{"location":"Figueroa at Wilshire","address":"601 S. Figueroa St. Los Angeles, ","formattedAddress":"Figueroa at Wilshire, 601 S Figueroa St, Los Angeles, CA 90017, USA","lat":34.0508105,"lng":-118.2592862,"zipcode":"90017","city":"Los Angeles","neighborhood":"Central LA"},{"location":"Square Mixx","address":"450 S Western Ave., 3rd floor Los Angeles, ","formattedAddress":"450 S Western Ave, Los Angeles, CA 90020, USA","lat":34.0657724,"lng":-118.3085041,"zipcode":"90020","city":"Los Angeles","neighborhood":"Central LA"},{"location":"Mark Hunt","address":"Hilda Cangelosi ~ Director of Sales, Hilton New York JFK Airport Hotel, 144-02 135th Avenue, Jamaica, New York 11436 144-02 135th Avenue, Jamaica, New York 11436, NY 11436 702-508-5200"},{"location":"Beach Coders Academy","address":"615 N. Nash St. El Segundo, ","formattedAddress":"615 N Nash St, El Segundo, CA 90245, USA","lat":33.92535040000001,"lng":-118.3881438,"zipcode":"90245","city":"El Segundo"},{"location":"TCL Chinese Theatres + IMAX","address":"6925 Hollywood Blvd Hollywood, California 90028 323-461-3331","formattedAddress":"6925 Hollywood Blvd, Los Angeles, CA 90028, USA","lat":34.102117,"lng":-118.3409381,"zipcode":"90028","city":"Los Angeles","neighborhood":"Hollywood"},{"location":"Rainbow Lagoon Park","address":"400 E. Shoreline Village Dr. Long Beach, ","formattedAddress":"400 Shoreline Village Dr, Long Beach, CA 90802, USA","lat":33.7636937,"lng":-118.1881779,"zipcode":"90802","city":"Long Beach","neighborhood":"Waterfront"},{"location":"Ricardo Montalban Theatre","address":"1615 N. Vine St. Hollywood, ","formattedAddress":"1615 Vine St, Los Angeles, CA 90028, USA","lat":34.1002972,"lng":-118.3271407,"zipcode":"90028","city":"Los Angeles","neighborhood":"Central LA"},{"location":"Centinela Valley Center for the Arts","address":"14901 Inglewood Ave. Lawndale, ","formattedAddress":"14901 S Inglewood Ave, Lawndale, CA 90260, USA","lat":33.8957334,"lng":-118.3621539,"zipcode":"90260","city":"Lawndale"},{"location":"94th Aero Squadron","address":"16320 Raymer Ave. Van Nuys, ","formattedAddress":"16320 Raymer St, Van Nuys, CA 91406, USA","lat":34.218635,"lng":-118.487894,"zipcode":"91406","city":"Los Angeles","neighborhood":"Van Nuys"},{"location":"Downtown Burbank","address":"San Fernando Blvd. & Olive Ave. Burbank, ","formattedAddress":"E Olive Ave & S San Fernando Blvd, Burbank, CA 91502, USA","lat":34.180839,"lng":-118.308744,"zipcode":"91502","city":"Burbank"},{"location":"STAR ECO Station","address":"10101 W. Jefferson Blvd. Culver City, ","formattedAddress":"10101 W Jefferson Blvd, Culver City, CA 90232, USA","lat":34.0181438,"lng":-118.3870352,"zipcode":"90232","city":"Culver City"},{"location":"MacLeod Ale Brewing","address":"14741 Calvert St. Van Nuys, ","formattedAddress":"14741 Calvert St, Van Nuys, CA 91411, USA","lat":34.1820136,"lng":-118.4545929,"zipcode":"91411","city":"Los Angeles","neighborhood":"Van Nuys"},{"location":"Program Coordinator","address":"Hyatt Regency Osaka Osaka, Japan 530-0000 070-250-8520","formattedAddress":"1 Chome-13-11 Nankokita, Suminoe Ward, Osaka, Osaka Prefecture 559-0034, Japan","lat":34.63708080000001,"lng":135.4162967,"zipcode":"559-0034","city":"Osaka","neighborhood":"11"},{"location":"Republic of Pie","address":"11118 Magnolia Blvd. Los Angeles, ","formattedAddress":"11118 W Magnolia Blvd, North Hollywood, CA 91601, USA","lat":34.1647859,"lng":-118.3731085,"zipcode":"91601","city":"Los Angeles","neighborhood":"North Hollywood"},{"location":"Coaxial Arts","address":"1815 S. Main St. Los Angeles, ","formattedAddress":"1815 S Main St, Los Angeles, CA 90015, USA","lat":34.031901,"lng":-118.2642629,"zipcode":"90015","city":"Los Angeles","neighborhood":"South Los Angeles"},{"location":"Black Rabbit Rose","address":"1719 N. Hudson Ave. Los Angeles, ","formattedAddress":"1719 N Hudson Ave, Los Angeles, CA 90028, USA","lat":34.101888,"lng":-118.3321008,"zipcode":"90028","city":"Los Angeles","neighborhood":"Central LA"},{"location":"Urban Press Winery","address":"316 N. San Fernando Blvd. Burbank, ","formattedAddress":"316 N San Fernando Blvd, Burbank, CA 91502, USA","lat":34.1826608,"lng":-118.3111691,"zipcode":"91502","city":"Burbank"},{"location":"The Wattles Mansion and Gardens","address":"1824 N. Curson Ave. Los Angeles, ","formattedAddress":"1824 N Curson Ave, Los Angeles, CA 90046, USA","lat":34.104295,"lng":-118.3546834,"zipcode":"90046","city":"Los Angeles","neighborhood":"Central LA"},{"location":"The Bloc LA","address":"700 S. Flower St. Los Angeles, ","formattedAddress":"700 S Flower St, Los Angeles, CA 90017, USA","lat":34.0482805,"lng":-118.2589431,"zipcode":"90017","city":"Los Angeles","neighborhood":"Downtown"},{"location":"Howl at the Moon","address":"1000 Universal Studios Blvd. Universal City, ","formattedAddress":"1000 Universal Studios Blvd, Universal City, CA 91608, USA","lat":34.1370223,"lng":-118.3522663,"zipcode":"91608","city":"Universal City","neighborhood":"Central LA"},{"location":"Highland Park Ebell Club","address":"131 S. Avenue 57 Highland Park, ","formattedAddress":"131 S Ave 57, Los Angeles, CA 90042, USA","lat":34.1088538,"lng":-118.1920629,"zipcode":"90042","city":"Los Angeles","neighborhood":"Northeast Los Angeles"},{"location":"Gold Diggers","address":"5632 Santa Monica Blvd. Los Angeles, ","formattedAddress":"5632 Santa Monica Blvd, Los Angeles, CA 90038, USA","lat":34.09058720000001,"lng":-118.31256,"zipcode":"90038","city":"Los Angeles","neighborhood":"Hollywood"},{"location":"The Skylight Theatre","address":"1816 1/2 N. Vermont Ave Hollywood, ","formattedAddress":"1816 1/2 N Vermont Ave, Los Angeles, CA 90027, USA","lat":34.1041461,"lng":-118.2914358,"zipcode":"90027","city":"Los Angeles","neighborhood":"Central LA"},{"location":"The Miracle Theater","address":"226 S. Market St. Inglewood, ","formattedAddress":"226 S Market St, Inglewood, CA 90301, USA","lat":33.9612269,"lng":-118.3515309,"zipcode":"90301","city":"Inglewood"},{"location":"Irvine Barclay Theatre","address":"4242 Campus Dr. Irvine, ","formattedAddress":"Irvine Barclay Theater, 4242 Campus Dr, Irvine, CA 92697, USA","lat":33.6491845,"lng":-117.8408089,"zipcode":"92697","city":"Irvine"},{"location":"Burton W. Chace Park","address":"13650 Mindanao Way Marina del Rey, ","formattedAddress":"13650 Mindanao Way, Marina Del Rey, CA 90292, USA","lat":33.9773354,"lng":-118.4449661,"zipcode":"90292","city":"Marina del Rey"},{"location":"UCLA Health Training Center","address":"2275 E. Mariposa Avenue El Segundo, ","formattedAddress":"2275 E Mariposa Ave, El Segundo, CA 90245, USA","lat":33.9245579,"lng":-118.3841203,"zipcode":"90245","city":"El Segundo"},{"location":"The ONE National Gay & Lesbian Archives","address":"909 W. Adams Blvd. Los Angeles, ","formattedAddress":"909 W Adams Blvd, Los Angeles, CA 90007, USA","lat":34.0310318,"lng":-118.2815656,"zipcode":"90007","city":"Los Angeles","neighborhood":"South Los Angeles"},{"location":"Holiday Lodge Motel","address":"1631 W 3rd St Los Angeles, California 90017 305-298-7881","formattedAddress":"1631 W 3rd St, Los Angeles, CA 90017, USA","lat":34.0607112,"lng":-118.2662776,"zipcode":"90017","city":"Los Angeles","neighborhood":"Central LA"},{"location":"Stoner Recreation Center","address":"1835 Stoner Ave. Los Angeles, ","formattedAddress":"1835 Stoner Ave, Los Angeles, CA 90025, USA","lat":34.0384978,"lng":-118.453568,"zipcode":"90025","city":"Los Angeles","neighborhood":"Sawtelle"},{"location":"Carthay Center Elementary School","address":"6351 W Olympic Blvd Los Angeles, ","formattedAddress":"6351 W Olympic Blvd, Los Angeles, CA 90048, USA","lat":34.0594235,"lng":-118.369125,"zipcode":"90048","city":"Los Angeles","neighborhood":"Carthay Circle"},{"location":"Hammer Museum - Annex","address":"10899 Wilshire Blvd Los Angeles ","formattedAddress":"10899 Wilshire Blvd, Los Angeles, CA 90024, USA","lat":34.0591217,"lng":-118.4436674,"zipcode":"90024","city":"Los Angeles","neighborhood":"Westwood"},{"location":"dublab","address":"4519 Santa Monica Boulevard 4519 Santa Monica Boulevard CA Los Angeles","formattedAddress":"4519 Santa Monica Blvd, Los Angeles, CA 90029, USA","lat":34.0909885,"lng":-118.2870572,"zipcode":"90029","city":"Los Angeles","neighborhood":"Central LA"},{"location":"344 , Dhula Garden","address":"344 , Dhula Garden Miami CA 33114"},{"location":"Hollywood and Vine St.","address":"Hollywood Blvd &amp; Vine St, Los Angeles, CA Hollywood ","formattedAddress":"Hollywood Blvd & Vine St, Los Angeles, CA 90028, USA","lat":34.1016345,"lng":-118.3267051,"zipcode":"90028","city":"Los Angeles","neighborhood":"Hollywood"},{"location":"Davey's Locker","address":"400 Main Street Newport Beach CA","formattedAddress":"400 Main St, Newport Beach, CA 92661, USA","lat":33.6027472,"lng":-117.8988851,"zipcode":"92661","city":"Newport Beach","neighborhood":"Balboa Peninsula"},{"location":"Ronald Reagan Presidential Library and Museum","address":"40 Presidential Drive Simi Valley ","formattedAddress":"40 Presidential Dr, Simi Valley, CA 93065, USA","lat":34.2598671,"lng":-118.8198082,"zipcode":"93065","city":"Simi Valley"},{"location":"The Pantages Theater","address":"6233 Hollywood Blvd. Los Angeles CA","formattedAddress":"6233 Hollywood Blvd, Los Angeles, CA 90028, USA","lat":34.102001,"lng":-118.325867,"zipcode":"90028","city":"Los Angeles","neighborhood":"Hollywood"},{"location":"Odyssey Theatre Ensemble","address":"2055 S. Sepulveda Blvd. Los Angeles ","formattedAddress":"2055 S Sepulveda Blvd, Los Angeles, CA 90025, USA","lat":34.0417077,"lng":-118.439644,"zipcode":"90025","city":"Los Angeles","neighborhood":"West Los Angeles"},{"location":"City Garage Theatre  Bergamot Station","address":"2525 Michigan Ave. Santa Monica ","formattedAddress":"2525 Michigan Ave, Santa Monica, CA 90405, USA","lat":34.02778929999999,"lng":-118.4684355,"zipcode":"90405","city":"Santa Monica","neighborhood":"Pico"},{"location":"Garis & Hahn","address":"1820 Industrial St, Los Angeles Downtown ","formattedAddress":"1820 Industrial St, Los Angeles, CA 90021, USA","lat":34.035803,"lng":-118.2337279,"zipcode":"90021","city":"Los Angeles","neighborhood":"Downtown"},{"location":"24th STreet Theatre","address":"1117 West 24th St. Los Angeles ","formattedAddress":"1117 W 24th St, Los Angeles, CA 90007, USA","lat":34.0346417,"lng":-118.284517,"zipcode":"90007","city":"Los Angeles","neighborhood":"South Los Angeles"},{"location":"California Art Club Gallery at The Old Mill","address":"1120 Old Mill Road San Marino ","formattedAddress":"1120 Old Mill Rd, San Marino, CA 91108, USA","lat":34.1194544,"lng":-118.1275079,"zipcode":"91108","city":"San Marino"},{"location":"Church of Scientology","address":"4810 W Sunset Blvd. Los Angeles ","formattedAddress":"4810 Sunset Blvd, Los Angeles, CA 90027, USA","lat":34.0973134,"lng":-118.2942859,"zipcode":"90027","city":"Los Angeles","neighborhood":"Central LA"},{"location":"Los Angeles-citywide","address":"Fifth Street and Grand Avenue Los Angeles CA","formattedAddress":"S Grand Ave & W 5th St, Los Angeles, CA 90071, USA","lat":34.0502052,"lng":-118.2539452,"zipcode":"90071","city":"Los Angeles","neighborhood":"Downtown"},{"location":"Pacific Resident Theatre","address":"705 1/2 N. Venice Blvd. Venice ","formattedAddress":"1 N Venice Blvd, Venice, CA 90291, USA","lat":33.9840307,"lng":-118.4709819,"zipcode":"90291","city":"Los Angeles","neighborhood":"Venice"},{"location":"The Huntington","address":"1151 Oxford Road 1151 Oxford Road CA","formattedAddress":"The Huntington Library, Art Collections, and Botanical Gardens, 1151 Oxford Rd, San Marino, CA 91108, USA","lat":34.1290452,"lng":-118.1145242,"zipcode":"91108","city":"San Marino"},{"location":"Jeanette's Edelweiss German Restaurant and Bar","address":"2160 Newbury Road Newbury Park ","formattedAddress":"2160 Newbury Rd, Newbury Park, CA 91320, USA","lat":34.1819001,"lng":-118.924811,"zipcode":"91320","city":"Thousand Oaks","neighborhood":"Newbury Park"},{"location":"Eastern Projects","address":"900 N Broadway Suite 1090 Downtown ","formattedAddress":"900 Broadway #1090, Tarrytown, NY 10591, USA","lat":41.0485651,"lng":-73.86110959999999,"zipcode":"10591","city":"Tarrytown"},{"location":"SIMARD​ ​BILODEAU​ ​CONTEMPORARY","address":"1923 S Santa Fe Ave SUITE 100 Downtown ","formattedAddress":"1923 S Santa Fe Ave #100, Los Angeles, CA 90021, USA","lat":34.0223484,"lng":-118.2304801,"zipcode":"90021","city":"Los Angeles","neighborhood":"Boyle Heights"},{"location":"University Art Museum, CSULB","address":"1250 Bellflower Boulevard Long Beach ","formattedAddress":"1250 N Bellflower Blvd, Long Beach, CA 90815, USA","lat":33.7826983,"lng":-118.1223044,"zipcode":"90815","city":"Long Beach"},{"location":"Atwater Village Theatre","address":"3269 Casitas Ave. Silver Lake ","formattedAddress":"3269 Casitas Ave, Los Angeles, CA 90039, USA","lat":34.1164165,"lng":-118.2518773,"zipcode":"90039","city":"Los Angeles","neighborhood":"Northeast Los Angeles"},{"location":"The Road Theatre on Magnolia","address":"10747 W Magnolia Blvd North Hollywood ","formattedAddress":"10747 W Magnolia Blvd, North Hollywood, CA 91601, USA","lat":34.1649276,"lng":-118.3652803,"zipcode":"91601","city":"Los Angeles","neighborhood":"North Hollywood"},{"location":"The Zephyr Theatre","address":"7456 Melrose Avenue West Hollywood ","formattedAddress":"7456 Melrose Ave, West Hollywood, CA 90046, USA","lat":34.0833229,"lng":-118.3525757,"zipcode":"90046","city":"West Hollywood","neighborhood":"Central LA"},{"location":"Long Beach Playhouse Mainstage","address":"5021 E Anaheim St Long Beach ","formattedAddress":"5021 E Anaheim St, Long Beach, CA 90804, USA","lat":33.783024,"lng":-118.1351223,"zipcode":"90804","city":"Long Beach","neighborhood":"Circle Area"},{"location":"The Help Group, Culver City","address":"4160 Grand View Blvd. Culver City ","formattedAddress":"4160 Grand View Blvd, Los Angeles, CA 90066, USA","lat":33.9979797,"lng":-118.4251659,"zipcode":"90066","city":"Los Angeles"},{"location":"El Monte Community Center","address":"3130 Tyler Ave El Monte ","formattedAddress":"3130 Tyler Ave, El Monte, CA 91731, USA","lat":34.06572,"lng":-118.035218,"zipcode":"91731","city":"El Monte"},{"location":"Sonoma Wine Garden","address":"395 Santa Monica Place, Suite 300 Santa Monica ","formattedAddress":"395 Santa Monica Pier #300, Santa Monica, CA 90401, USA","lat":34.0076844,"lng":-118.4997101,"zipcode":"90401","city":"Santa Monica"},{"location":"Los Angeles City College, Caminto Theatre","address":"855 N. Vermont Ave Mid-Wilshire ","formattedAddress":"855 N Vermont Ave, Los Angeles, CA 90029, USA","lat":34.0892329,"lng":-118.2927846,"zipcode":"90029","city":"Los Angeles","neighborhood":"Central LA"},{"location":"LA Union Station","address":"800 N Alameda St Los Angeles ","formattedAddress":"800 Alameda St, Los Angeles, CA 90012, USA","lat":34.0559806,"lng":-118.2364178,"zipcode":"90012","city":"Los Angeles","neighborhood":"Central LA"},{"location":"Barakat Gallery","address":"941 N La Cienega Blvd  ","formattedAddress":"941 N La Cienega Blvd, Los Angeles, CA 90069, USA","lat":34.0881283,"lng":-118.3767778,"zipcode":"90069","city":"Los Angeles","neighborhood":"Central LA"},{"location":"Four Seasons Hotel Los Angeles at Beverly Hills","address":"300 South Doheny Drive Los Angeles ","formattedAddress":"300 S Doheny Dr, Los Angeles, CA 90048, USA","lat":34.0729547,"lng":-118.3892059,"zipcode":"90048","city":"Los Angeles","neighborhood":"Central LA"},{"location":"Theatre West","address":"3333 Cahuenga Blvd. West Los Angeles ","formattedAddress":"3333 Cahuenga Blvd W, Los Angeles, CA 90068, USA","lat":34.1306428,"lng":-118.351188,"zipcode":"90068","city":"Los Angeles","neighborhood":"Studio City"},{"location":"Century City Westfield","address":"10250 Santa Monica Blvd Los Angeles ","formattedAddress":"10250 Santa Monica Blvd, Los Angeles, CA 90067, USA","lat":34.0596051,"lng":-118.4194354,"zipcode":"90067","city":"Los Angeles","neighborhood":"Century City"},{"location":"The GRAMMY Museum®","address":"A245, 800 West Olympic Boulevard Los Angeles ","formattedAddress":"Lucky Strike Bowling - Los Angeles, 800 W Olympic Blvd, Los Angeles, CA 90015, USA","lat":34.0447954,"lng":-118.2652703,"zipcode":"90015","city":"Los Angeles","neighborhood":"Central LA"},{"location":"Milken Institute","address":"1250 4th St  ","formattedAddress":"1250 4th St, Santa Monica, CA 90401, USA","lat":34.0178262,"lng":-118.4971913,"zipcode":"90401","city":"Santa Monica","neighborhood":"Downtown"},{"location":"Wood & Vine","address":"6280 Hollywood Boulevard Hollywood ","formattedAddress":"6280 Hollywood Blvd, Los Angeles, CA 90028, USA","lat":34.1014005,"lng":-118.3261774,"zipcode":"90028","city":"Los Angeles","neighborhood":"Hollywood"},{"location":"The Marke Nightclub","address":"3311 S. Main St Historic West Adams ","formattedAddress":"2263 S Harvard Blvd, Los Angeles, CA 90018, USA","lat":34.0343726,"lng":-118.3072306,"zipcode":"90018","city":"Los Angeles","neighborhood":"Jefferson"},{"location":"Universal CityWalk","address":"100 Universal City Plaza Los Angeles CA","formattedAddress":"100 Universal City Plaza, Universal City, CA 91608, USA","lat":34.1361217,"lng":-118.3548467,"zipcode":"91608","city":"Universal City"},{"location":"ArtCenter College of Design","address":"1700 Lida Street  ","formattedAddress":"1700 Lida St, Pasadena, CA 91103, USA","lat":34.1687381,"lng":-118.1850603,"zipcode":"91103","city":"Pasadena","neighborhood":"North Arroyo"},{"location":"Brand Park","address":"1601 W. Mountain St. Glendale ","formattedAddress":"1601 W Mountain St, Glendale, CA 91201, USA","lat":34.1826353,"lng":-118.2764402,"zipcode":"91201","city":"Glendale","neighborhood":"Verdugo Mountains"},{"location":"Brewster's at Four Points by Sheraton LAX","address":"9750 Airport Blvd Los Angeles ","formattedAddress":"9750 Airport Blvd, Los Angeles, CA 90045, USA","lat":33.9478959,"lng":-118.3849374,"zipcode":"90045","city":"Los Angeles"},{"location":"Culver Palms YMCA Dance Studio","address":"4500 Sepulveda Blvd Culver City ","formattedAddress":"4500 Sepulveda Blvd, Culver City, CA 90230, USA","lat":34.0025145,"lng":-118.4052464,"zipcode":"90230","city":"Culver City","neighborhood":"Park West"},{"location":"Regal LA Live Stadium 14","address":"1000 W Olympic Blvd Los Angeles ","formattedAddress":"1000 W Olympic Blvd, Los Angeles, CA 90015, USA","lat":34.0457356,"lng":-118.2680272,"zipcode":"90015","city":"Los Angeles","neighborhood":"Downtown"},{"location":"Unici Casa","address":"9461 Jefferson Blvd. Culver City ","formattedAddress":"9461 Jefferson Blvd, Culver City, CA 90232, USA","lat":34.018942,"lng":-118.3867923,"zipcode":"90232","city":"Culver City"},{"location":"Bing Theatre (BIT)","address":"3500 Watt Way Los Angeles ","formattedAddress":"3500 Watt Way, Los Angeles, CA 90089, USA","lat":34.0219706,"lng":-118.2867187,"zipcode":"90089","city":"Los Angeles","neighborhood":"South Los Angeles"},{"location":"The Walt Disney Concert Hall","address":"111 S. Grand Ave. Los Angeles ","formattedAddress":"111 S Grand Ave, Los Angeles, CA 90012, USA","lat":34.0553468,"lng":-118.2499213,"zipcode":"90012","city":"Los Angeles","neighborhood":"Downtown"},{"location":"Skirball Center","address":"2701 N Sepulveda Blvd Los Angeles, CA ","formattedAddress":"2701 N Sepulveda Blvd, Los Angeles, CA 90049, USA","lat":34.124832,"lng":-118.4791916,"zipcode":"90049","city":"Los Angeles"},{"location":"JANM - Japanese American National Museum","address":"100 N Central Ave Downtown ","formattedAddress":"100 N Central Ave, Phoenix, AZ 85013, USA","lat":33.5025734,"lng":-112.0731119,"zipcode":"85013","city":"Phoenix","neighborhood":"Encanto Village"},{"location":"Raleigh Studios Hollywood","address":"5300 Melrose Avenue Hollywood, CA ","formattedAddress":"5300 Melrose Ave, Los Angeles, CA 90038, USA","lat":34.0832125,"lng":-118.3163816,"zipcode":"90038","city":"Los Angeles","neighborhood":"Central LA"},{"location":"3LABS","address":"8461 Warner Dr Culver City ","formattedAddress":"8461 Warner Dr, Culver City, CA 90232, USA","lat":34.0236083,"lng":-118.3792257,"zipcode":"90232","city":"Culver City","neighborhood":"Lucerne - Higuera"},{"location":"Donnabella Cosmetics","address":"19840 Nordhoff Place Chatsworth ","formattedAddress":"19840 Nordhoff Pl, Chatsworth, CA 91311, USA","lat":34.2354618,"lng":-118.5659618,"zipcode":"91311","city":"Los Angeles","neighborhood":"Chatsworth"},{"location":"La Cienega Design Quarter","address":"926 N. La Cienega Blvd  ","formattedAddress":"926 N La Cienega Blvd, Los Angeles, CA 90069, USA","lat":34.0877636,"lng":-118.3760998,"zipcode":"90069","city":"Los Angeles","neighborhood":"Central LA"},{"location":"PANORAMIC TERRACE","address":"127 N LARCHMONT BLVD Mid-Wilshire ","formattedAddress":"127 N Larchmont Blvd, Los Angeles, CA 90004, USA","lat":34.0738736,"lng":-118.3239956,"zipcode":"90004","city":"Los Angeles","neighborhood":"Central LA"},{"location":"Margo Albert Theater (Plaza de La Raza)","address":"3540 N Mission Rd Los Angeles ","formattedAddress":"3540 N Mission Rd, Los Angeles, CA 90031, USA","lat":34.0672034,"lng":-118.2034603,"zipcode":"90031","city":"Los Angeles","neighborhood":"Northeast Los Angeles"},{"location":"The Eli & Edythe Broad Stage","address":"1310 11th Street  ","formattedAddress":"1310 11th St, Santa Monica, CA 90401, USA","lat":34.022176,"lng":-118.4898567,"zipcode":"90401","city":"Santa Monica","neighborhood":"Downtown"},{"location":"Think Tank Art Gallery","address":"939 Maple Ave Los Angeles ","formattedAddress":"939 Maple Ave, Los Angeles, CA 90015, USA","lat":34.0387504,"lng":-118.25387,"zipcode":"90015","city":"Los Angeles","neighborhood":"Central LA"},{"location":"ArtShare L.A.","address":"801 E. 4th Place Los Angeles CA","formattedAddress":"801 E 4th Pl, Los Angeles, CA 90013, USA","lat":34.0445952,"lng":-118.2364072,"zipcode":"90013","city":"Los Angeles","neighborhood":"Downtown"},{"location":"Loyola Marymount University, Strub Theatre","address":"1 LMU Drive Los Angeles ","formattedAddress":"1 Loyola Marymount University Dr, Los Angeles, CA 90045, USA","lat":33.9708101,"lng":-118.4193224,"zipcode":"90045","city":"Los Angeles","neighborhood":"Westchester"},{"location":"Kinetic Theory Circus Arts","address":"4723 Exposition Blvd. Downtown ","formattedAddress":"4723 W Exposition Blvd, Los Angeles, CA 90016, USA","lat":34.024536,"lng":-118.348003,"zipcode":"90016","city":"Los Angeles","neighborhood":"South Los Angeles"},{"location":"Pasadena Civic Plaza","address":"300 E Green St. Pasadena ","formattedAddress":"300 E Green St, Pasadena, CA 91101, USA","lat":34.143817,"lng":-118.144302,"zipcode":"91101","city":"Pasadena"},{"location":"Highways Performance Space & Gallery","address":"1651 18th St. Santa Monica ","formattedAddress":"1651 18th St, Santa Monica, CA 90404, USA","lat":34.0236722,"lng":-118.4772538,"zipcode":"90404","city":"Santa Monica"},{"location":"The Rapp Saloon","address":"1436 2nd Street  ","formattedAddress":"1436 2nd St, Santa Monica, CA 90401, USA","lat":34.0139652,"lng":-118.4963339,"zipcode":"90401","city":"Santa Monica"},{"location":"Grand Parks Event Lawn","address":"227 North Spring Street Los Angeles ","formattedAddress":"227 N Spring St, Los Angeles, CA 90012, USA","lat":34.0540918,"lng":-118.2435326,"zipcode":"90012","city":"Los Angeles","neighborhood":"Central LA"},{"location":"Sur La Table Farmers Market","address":"6333 W. Third Street, Suite P-10 Los Angeles CA","formattedAddress":"6333 W 3rd St #10, Los Angeles, CA 90036, USA","lat":34.0719955,"lng":-118.360253,"zipcode":"90036","city":"Los Angeles","neighborhood":"La Brea"},{"location":"The Grand Annex","address":"434 W 6th St San Pedro ","formattedAddress":"434 W 6th St, San Pedro, CA 90731, USA","lat":33.7390242,"lng":-118.2865293,"zipcode":"90731","city":"Los Angeles","neighborhood":"San Pedro"},{"location":"Bloomingdale's Fashion Sqaure","address":"315 Colorado Ave Sherman Oaks ","formattedAddress":"315 Sherman Ave, Ordway, CO 81063, USA","lat":38.2184078,"lng":-103.7551546,"zipcode":"81063","city":"Ordway"},{"location":"Bloomingdale's Glendale Galleria","address":"103 S. Brand Blvd Glendale ","formattedAddress":"103 S Brand Blvd, Glendale, CA 91210, USA","lat":34.145933,"lng":-118.2552091,"zipcode":"91210","city":"Glendale","neighborhood":"Downtown"},{"location":"Bloomingdale's Westfield Mall - Century City","address":"10250 Santa Monica Blvd Century City ","formattedAddress":"10250 Santa Monica Blvd, Los Angeles, CA 90067, USA","lat":34.0596051,"lng":-118.4194354,"zipcode":"90067","city":"Los Angeles","neighborhood":"Century City"},{"location":"Bloomingdale's Beverly Center","address":"8500 Beverly Boulevard  ","formattedAddress":"8500 Beverly Blvd, Los Angeles, CA 90048, USA","lat":34.0753309,"lng":-118.3774933,"zipcode":"90048","city":"Los Angeles","neighborhood":"Central LA"},{"location":"Bloomingdale's Santa Monica Place","address":"315 Colorado Ave  ","formattedAddress":"315 Colorado Ave, Santa Monica, CA 90401, USA","lat":34.0138217,"lng":-118.4928608,"zipcode":"90401","city":"Santa Monica","neighborhood":"Downtown"},{"location":"Rainbow Harbor","address":"200 Aquarium Way Long Beach ","formattedAddress":"The Lions Lighthouse for Sight, 200 Aquarium Way, Long Beach, CA 90802, USA","lat":33.7602049,"lng":-118.1941098,"zipcode":"90802","city":"Long Beach","neighborhood":"Downtown"},{"location":"Los Angeles Film School","address":"6363 Sunset Blvd. Hollywood ","formattedAddress":"6363 Sunset Blvd, Los Angeles, CA 90028, USA","lat":34.098836,"lng":-118.3281962,"zipcode":"90028","city":"Los Angeles","neighborhood":"Central LA"},{"location":"The Grove in Los Angeles","address":"189 The Grove Dr. La Brea ","formattedAddress":"189 The Grove Dr, Los Angeles, CA 90036, USA","lat":34.071881,"lng":-118.3565011,"zipcode":"90036","city":"Los Angeles","neighborhood":"Central LA"},{"location":"Italian Cultural Institute","address":"1023 Hilgard Ave Los Angeles ","formattedAddress":"1023 Hilgard Ave, Los Angeles, CA 90024, USA","lat":34.0610185,"lng":-118.4421258,"zipcode":"90024","city":"Los Angeles","neighborhood":"Westwood"},{"location":"Santa Anita Race Track","address":"285 W Huntington Drive Arcadia ","formattedAddress":"285 W Huntington Dr, Arcadia, CA 91007, USA","lat":34.1365782,"lng":-118.0408645,"zipcode":"91007","city":"Arcadia"},{"location":"The Container Yard","address":"800 E 4th St. Los Angeles ","formattedAddress":"800 E 4th St, Los Angeles, CA 90013, USA","lat":34.0431629,"lng":-118.2373236,"zipcode":"90013","city":"Los Angeles","neighborhood":"Central LA"},{"location":"Bloomingdale's Fashion Sqaure","address":"14060 Riverside Drive Sherman Oaks ","formattedAddress":"14060 Riverside Dr, Sherman Oaks, CA 91423, USA","lat":34.1571124,"lng":-118.4393248,"zipcode":"91423","city":"Los Angeles","neighborhood":"Sherman Oaks"},{"location":"The Woman's Club of Hollywood","address":"1749 N. La Brea Ave.  ","formattedAddress":"1749 N La Brea Ave, Los Angeles, CA 90046, USA","lat":34.102908,"lng":-118.3460406,"zipcode":"90046","city":"Los Angeles","neighborhood":"Central LA"},{"location":"Homestead Museum","address":"15415 East Don Julian Road Hacienda Heights ","formattedAddress":"15415 Don Julian Rd, City of Industry, CA 91745, USA","lat":34.0191305,"lng":-117.9654561,"zipcode":"91745","city":"City of Industry"},{"location":"KAOS Network","address":"4343 WEST LEIMERT PARK los angeles ","formattedAddress":"4343 S Western Ave, Los Angeles, CA 90062, USA","lat":34.0046965,"lng":-118.308937,"zipcode":"90062","city":"Los Angeles","neighborhood":"South Los Angeles"},{"location":"Tony's Darts Away","address":"1710 Magnolia Blvd Burbank ","formattedAddress":"1710 W Magnolia Blvd, Burbank, CA 91506, USA","lat":34.1745416,"lng":-118.3269684,"zipcode":"91506","city":"Burbank"},{"location":"The Eagle Rock Music Festival","address":"Colorado Blvd at Eagle Rock Music Festival Eagle Rock ","formattedAddress":"2225 Colorado Blvd, Los Angeles, CA 90041, USA","lat":34.139617,"lng":-118.214894,"zipcode":"90041","city":"Los Angeles","neighborhood":"Northeast Los Angeles"},{"location":"Jonathan Beach Club","address":"850 Palisades Beach Rd Santa Monica ","formattedAddress":"850 Palisades Beach Rd, Santa Monica, CA 90403, USA","lat":34.0201612,"lng":-118.5072902,"zipcode":"90403","city":"Santa Monica","neighborhood":"Wilshire Montana"},{"location":"City of West Hollywood City Council Chambers","address":"925 N. San Vicente Blvd. West Hollywood ","formattedAddress":"925 N San Vicente Blvd, West Hollywood, CA 90069, USA","lat":34.087967,"lng":-118.385966,"zipcode":"90069","city":"West Hollywood","neighborhood":"Central LA"},{"location":"ARTifact Forum & Gallery","address":"3827 W Rosecrans Ave Hawthorne ","formattedAddress":"3827 W Rosecrans Ave, Hawthorne, CA 90250, USA","lat":33.9021849,"lng":-118.3402676,"zipcode":"90250","city":"Hawthorne"},{"location":"Hotel Maya","address":"700 Queensway Drive Long Beach, CA ","formattedAddress":"700 Queensway Dr, Long Beach, CA 90802, USA","lat":33.7567328,"lng":-118.1987124,"zipcode":"90802","city":"Long Beach","neighborhood":"Queensway Bay"},{"location":"Open Mind Art Space","address":"11631 Santa Monica Blvd West Los Angeles ","formattedAddress":"11631 Santa Monica Blvd, Los Angeles, CA 90025, USA","lat":34.0444671,"lng":-118.4549896,"zipcode":"90025","city":"Los Angeles","neighborhood":"Sawtelle"},{"location":"Firehouse Museum Theater","address":"1572 Columbia Street San Diego ","formattedAddress":"1572 Columbia St, San Diego, CA 92101, USA","lat":32.7217058,"lng":-117.1676975,"zipcode":"92101","city":"San Diego","neighborhood":"Downtown"},{"location":"Harter Hall - Charles Stewart Howard Playhouse","address":"21338 Dumetz Road Woodland Hills ","formattedAddress":"21338 Dumetz Rd, Woodland Hills, CA 91364, USA","lat":34.1572963,"lng":-118.5958717,"zipcode":"91364","city":"Los Angeles","neighborhood":"Woodland Hills"},{"location":"Sunset Las Palmas Studios","address":"1040 N Las Palmas Hollywood ","formattedAddress":"1040 N Las Palmas Ave, Los Angeles, CA 90038, USA","lat":34.0895625,"lng":-118.3349459,"zipcode":"90038","city":"Los Angeles","neighborhood":"Central LA"},{"location":"SAVANT NoBo","address":"835 North Broadway Downtown ","formattedAddress":"835 N Broadway, St. Louis, MO 63101, USA","lat":38.6328058,"lng":-90.1877405,"zipcode":"63101","city":"St. Louis","neighborhood":"Downtown"},{"location":"Norris Theatre","address":"27570 Norris Center Drive Rolling Hills Estates ","formattedAddress":"27570 Norris Center Dr, Rolling Hills Estates, CA 90274, USA","lat":33.7722142,"lng":-118.3755603,"zipcode":"90274","city":"Rolling Hills Estates"},{"location":"LONG BEACH TERRACE THEATER","address":"300 E Ocean BL Long Beach ","formattedAddress":"300 E Ocean Blvd, Long Beach, CA 90802, USA","lat":33.76520350000001,"lng":-118.1893341,"zipcode":"90802","city":"Long Beach","neighborhood":"Waterfront"},{"location":"Gaslamp Long Beach","address":"6251 E. Pacific Coast Highway Long Beach ","formattedAddress":"6251 E Pacific Coast Hwy, Long Beach, CA 90803, USA","lat":33.7671249,"lng":-118.1163545,"zipcode":"90803","city":"Long Beach","neighborhood":"Marina"},{"location":"Galpin Motors","address":"15505 Roscoe Blvd. North Hills ","formattedAddress":"15505 Roscoe Blvd, North Hills, CA 91343, USA","lat":34.2217867,"lng":-118.4704664,"zipcode":"91343","city":"Los Angeles","neighborhood":"North Hills"},{"location":"The Regent Theater, DTLA","address":"448 S. Main Street Los Angeles ","formattedAddress":"448 S Main St, Los Angeles, CA 90013, USA","lat":34.046981,"lng":-118.2478,"zipcode":"90013","city":"Los Angeles","neighborhood":"Central LA"},{"location":"Ford Theaters","address":"2580 Cahuenga Blvd Hollywood ","formattedAddress":"2580 Cahuenga Blvd, Los Angeles, CA 90068, USA","lat":34.1167804,"lng":-118.3366578,"zipcode":"90068","city":"Los Angeles","neighborhood":"Central LA"},{"location":"LONG BEACH TERRACE THEATER","address":"300 E. OCEAN BLVD Long Beach ","formattedAddress":"300 E Ocean Blvd, Long Beach, CA 90802, USA","lat":33.76520350000001,"lng":-118.1893341,"zipcode":"90802","city":"Long Beach","neighborhood":"Waterfront"},{"location":"Melrose Trading Post - Flea Market","address":"7850 Melrose Avenue Los Angeles ","formattedAddress":"7850 Melrose Ave, Los Angeles, CA 90036, USA","lat":34.0821986,"lng":-118.3597921,"zipcode":"90036","city":"Los Angeles","neighborhood":"Central LA"},{"location":"Tony's Darts Away","address":"1710 Magnolia Blvd  Burbank ","formattedAddress":"1710 W Magnolia Blvd, Burbank, CA 91506, USA","lat":34.1745416,"lng":-118.3269684,"zipcode":"91506","city":"Burbank"},{"location":"Thirsty Crow","address":"2939 West Sunset Boulevard Los Angeles CA","formattedAddress":"2939 Sunset Blvd, Los Angeles, CA 90026, USA","lat":34.0836664,"lng":-118.2737375,"zipcode":"90026","city":"Los Angeles","neighborhood":"Silver Lake"},{"location":"University Art Museum at CSULB","address":"1250 Bellflower Blvd Long Beach ","formattedAddress":"1250 N Bellflower Blvd, Long Beach, CA 90815, USA","lat":33.7826983,"lng":-118.1223044,"zipcode":"90815","city":"Long Beach"},{"location":"The Wallis Annenberg Center for the Performing Arts","address":"9390 North Santa Monica Boulevard, Beverly Hills,  ","formattedAddress":"9390 N Santa Monica Blvd, Beverly Hills, CA 90210, USA","lat":34.0722901,"lng":-118.4012055,"zipcode":"90210","city":"Beverly Hills"},{"location":"Bob Baker Marionette Theater","address":"1345 W 1st St Los Angeles ","formattedAddress":"1345 W 1st St, Los Angeles, CA 90026, USA","lat":34.0619455,"lng":-118.259055,"zipcode":"90026","city":"Los Angeles","neighborhood":"Central LA"},{"location":"Fox Theater","address":"301 S Garey Ave Pomona ","formattedAddress":"301 Garey Ave, Pomona, CA 91766, USA","lat":34.056573,"lng":-117.7504533,"zipcode":"91766","city":"Pomona","neighborhood":"Westmont"},{"location":"TPC Valencia","address":"26550 Heritage View Dr Valenica ","formattedAddress":"26550, Heritage View Ln, Valencia, CA 91381, United States","lat":34.4027257,"lng":-118.583018,"zipcode":"91381","neighborhood":"Valencia"},{"location":"Electric Lodge Dance Studio","address":"1416 Electric Ave. Venice ","formattedAddress":"1416 Electric Ave, Venice, CA 90291, USA","lat":33.9911866,"lng":-118.4650125,"zipcode":"90291","city":"Los Angeles","neighborhood":"Venice"},{"location":"The Alex Theatre","address":"216 N. Brand Blvd Glendale ","formattedAddress":"216 N Brand Blvd, Glendale, CA 91203, USA","lat":34.1488644,"lng":-118.2548412,"zipcode":"91203","city":"Glendale","neighborhood":"Downtown"},{"location":"The Blue Whale","address":"123 Astronaut E S Onizuka St. #301 Los Angeles ","formattedAddress":"123 Astronaut E S Onizuka St #301, Los Angeles, CA 90012, USA","lat":34.0501009,"lng":-118.2421794,"zipcode":"90012","city":"Los Angeles","neighborhood":"Downtown"},{"location":"LA Star Dance Studio","address":"LA Star Dance Studio Tarzana ","formattedAddress":"19320 Ventura Blvd, Tarzana, CA 91356, USA","lat":34.1724618,"lng":-118.5542527,"zipcode":"91356","city":"Los Angeles","neighborhood":"Tarzana"},{"location":"Bovard Auditorium","address":"3551 Trousdale Parkway USC ","formattedAddress":"3551 Trousdale Pkwy, Los Angeles, CA 90089, USA","lat":34.0209141,"lng":-118.2855371,"zipcode":"90089","city":"Los Angeles","neighborhood":"South Los Angeles"},{"location":"Ford Theatres","address":"2580 Cahuenga Blvd. East Hollywood ","formattedAddress":"2580 Cahuenga Blvd E, Los Angeles, CA 90068, USA","lat":34.1140558,"lng":-118.3343777,"zipcode":"90068","city":"Los Angeles","neighborhood":"Central LA"},{"location":"Ahmanson Theater","address":"135 N. Grand Ave Los Angeles ","formattedAddress":"135 N Grand Ave, Los Angeles, CA 90012, USA","lat":34.0566067,"lng":-118.2489325,"zipcode":"90012","city":"Los Angeles","neighborhood":"Central LA"},{"location":"Santa Fe Springs Gelson’s Distribution Center","address":"13833 Freeway Dr. Los Angeles ","formattedAddress":"13833 Freeway Dr, Santa Fe Springs, CA 90670, USA","lat":33.8912012,"lng":-118.036925,"zipcode":"90670","city":"Santa Fe Springs"},{"location":"Los Angeles City Hall","address":"200 N. Spring St. Los Angeles ","formattedAddress":"200 N Spring St, Los Angeles, CA 90012, USA","lat":34.0535267,"lng":-118.2429316,"zipcode":"90012","city":"Los Angeles","neighborhood":"Central LA"},{"location":"City Market South","address":"1124 San Julian St Downtown ","formattedAddress":"1124 San Julian St, Los Angeles, CA 90015, USA","lat":34.0349928,"lng":-118.2537129,"zipcode":"90015","city":"Los Angeles","neighborhood":"Central LA"},{"location":"Aroma Sunset","address":"7373 Sunset Blvd  ","formattedAddress":"7373 Sunset Blvd, Los Angeles, CA 90046, USA","lat":34.0982625,"lng":-118.3508201,"zipcode":"90046","city":"Los Angeles","neighborhood":"Central LA"},{"location":"The Colony Theatre","address":"555 North Third Street Burbank ","formattedAddress":"555 N 3rd St, Burbank, CA 91502, USA","lat":34.185223,"lng":-118.312228,"zipcode":"91502","city":"Burbank"},{"location":"James Bridges Theatre","address":"235 Charles E Young Dr. Los Angeles ","formattedAddress":"East Melnitz Hall, 235 Charles E Young Dr E, Los Angeles, CA 90024, USA","lat":34.0764274,"lng":-118.439368,"zipcode":"90024","city":"Los Angeles","neighborhood":"Westwood"},{"location":"The Comedy Store-Hollywood","address":"8433 W Sunset Blvd Los Angeles ","formattedAddress":"8433 Sunset Blvd, West Hollywood, CA 90069, USA","lat":34.0952135,"lng":-118.3739728,"zipcode":"90069","city":"West Hollywood","neighborhood":"Central LA"},{"location":"OPEN BETA","address":"4560 Worth Street Los Angeles ","formattedAddress":"4560 Worth St, Los Angeles, CA 90063, USA","lat":34.0615938,"lng":-118.1857776,"zipcode":"90063","city":"Los Angeles"},{"location":"Catalina Jazz","address":"6725 West SUNSET Blvd., HOLLYWOOD, CA.  Hollywood ","formattedAddress":"6725 Sunset Blvd, Los Angeles, CA 90028, USA","lat":34.0979837,"lng":-118.3373331,"zipcode":"90028","city":"Los Angeles","neighborhood":"Central LA"},{"location":"Port of Los Angeles","address":"3011 Minor Street  San Pedro ","formattedAddress":"3011 Miner St, San Pedro, CA 90731, USA","lat":33.7154373,"lng":-118.2742548,"zipcode":"90731","city":"Los Angeles","neighborhood":"San Pedro"},{"location":"Chromolume Theatre","address":"5429 W. Washington Blvd.  Downtown ","formattedAddress":"5429 Washington Blvd, Los Angeles, CA 90016, USA","lat":34.0388087,"lng":-118.3613221,"zipcode":"90016","city":"Los Angeles","neighborhood":"Central LA"},{"location":"Chromolume Theatre","address":"5429 W. Washington Blvd. Los Angeles, CA Downtown ","formattedAddress":"5429 Washington Blvd, Los Angeles, CA 90016, USA","lat":34.0388087,"lng":-118.3613221,"zipcode":"90016","city":"Los Angeles","neighborhood":"Central LA"},{"location":"Stella Adler Theatre","address":"6773 Hollywood Blvd. Hollywood ","formattedAddress":"6773 Hollywood Blvd, Los Angeles, CA 90028, USA","lat":34.1016369,"lng":-118.3383044,"zipcode":"90028","city":"Los Angeles","neighborhood":"Hollywood"},{"location":"Allmost Studio & Gallery","address":"1288 South La Brea Ave Mid City ","formattedAddress":"1288 South La Brea Ave, Los Angeles, CA 90019, USA","lat":34.050674,"lng":-118.343833,"zipcode":"90019","city":"Los Angeles","neighborhood":"Central LA"},{"location":"The Aerial House","address":"5230 Alhambra Ave El Sereno ","formattedAddress":"5230 Alhambra Ave, Los Angeles, CA 90032, USA","lat":34.0740244,"lng":-118.1714245,"zipcode":"90032","city":"Los Angeles","neighborhood":"Northeast Los Angeles"},{"location":"Hamburger Mary's","address":"8288 Santa Monica Blvd West Hollywood ","formattedAddress":"8288 Santa Monica Blvd, West Hollywood, CA 90046, USA","lat":34.0905033,"lng":-118.3701124,"zipcode":"90046","city":"West Hollywood","neighborhood":"Central LA"},{"location":"Los Angeles Trade Tech College","address":"400 West Washington Blvd Downtown ","formattedAddress":"MH, 400 W Washington Blvd, Los Angeles, CA 90015, USA","lat":34.0325515,"lng":-118.2697468,"zipcode":"90015","city":"Los Angeles","neighborhood":"South Los Angeles"},{"location":"The Reyes Adobe Historical Site","address":"5464 Reyes Adobe Road Agoura Hills ","formattedAddress":"5464 Reyes Adobe Rd, Agoura Hills, CA 91301, USA","lat":34.1513428,"lng":-118.7817032,"zipcode":"91301","city":"Agoura Hills"},{"location":"The Platform","address":"8850 Washington Blvd Culver City ","formattedAddress":"8850 Washington Blvd, Culver City, CA 90232, USA","lat":34.0267767,"lng":-118.3881675,"zipcode":"90232","city":"Culver City","neighborhood":"Lucerne - Higuera"},{"location":"Will Rogers State Historic Park","address":"1510 Will Rogers State Park Rd Pacific Palisades ","formattedAddress":"1510 Will Rogers State Park Rd, Pacific Palisades, CA 90272, USA","lat":34.0542126,"lng":-118.5134589,"zipcode":"90272","city":"Los Angeles","neighborhood":"Pacific Palisades"},{"location":"Plummer Park, Fiesta Hall","address":"1200 Vista Ave  ","formattedAddress":"1200 Vista Ave, Page, AZ 86040, USA","lat":36.9247368,"lng":-111.458799,"zipcode":"86040","city":"Page"},{"location":"Macy's Downey","address":"400 Stonewood Street Downey ","formattedAddress":"400 Stonewood St, Downey, CA 90241, USA","lat":33.9346913,"lng":-118.1195283,"zipcode":"90241","city":"Downey"},{"location":"San Antonio Winery","address":"737 Lamar St. Lincoln Heights ","formattedAddress":"737 Lamar St, Los Angeles, CA 90031, USA","lat":34.0641945,"lng":-118.2241074,"zipcode":"90031","city":"Los Angeles","neighborhood":"Central LA"},{"location":"Taste of Italy","address":"424 N. Main St. Los Angeles ","formattedAddress":"424 N Main St, Los Angeles, CA 90012, USA","lat":34.0560543,"lng":-118.2394732,"zipcode":"90012","city":"Los Angeles","neighborhood":"Central LA"},{"location":"Pico House","address":"424 North Main Street Downtown ","formattedAddress":"424 N Main St, Greensburg, PA 15601, USA","lat":40.308775,"lng":-79.546813,"zipcode":"15601","city":"Greensburg"},{"location":"El Camino College Center for the Performing Arts, Marsee Auditorium","address":"16007 Crenshaw Blvd. T Torrance ","formattedAddress":"16007 Crenshaw Blvd, Torrance, CA 90506, USA","lat":33.8852359,"lng":-118.3284419,"zipcode":"90506","city":"Torrance"},{"location":"Montalban Theater","address":"1615 Vine Street Los Angeles ","formattedAddress":"1615 Vine St, Los Angeles, CA 90028, USA","lat":34.1002972,"lng":-118.3271407,"zipcode":"90028","city":"Los Angeles","neighborhood":"Central LA"},{"location":"St. Andrew's Lutheran Church Nolte Hall","address":"11555 National Blvd West Los Angeles ","formattedAddress":"11555 National Blvd, Los Angeles, CA 90064, USA","lat":34.0240548,"lng":-118.436584,"zipcode":"90064","city":"Los Angeles","neighborhood":"Mar Vista"},{"location":"The Cathedral Sanctuary at Immanuel Presbyterian","address":"3300 Wilshire Blvd Los Angeles ","formattedAddress":"3300 Wilshire Blvd, Los Angeles, CA 90010, USA","lat":34.0614542,"lng":-118.294485,"zipcode":"90010","city":"Los Angeles","neighborhood":"Koreatown"},{"location":"Santa Cecilia Arts & Learning Center","address":"2751 West Broadway Los Angeles ","formattedAddress":"2751 W Broadway, Los Angeles, CA 90041, USA","lat":34.1435559,"lng":-118.224918,"zipcode":"90041","city":"Los Angeles","neighborhood":"Northeast Los Angeles"},{"location":"The Regent Theater, DTLA","address":"448 South Main Street Los Angeles ","formattedAddress":"448 S Main St, Los Angeles, CA 90013, USA","lat":34.046981,"lng":-118.2478,"zipcode":"90013","city":"Los Angeles","neighborhood":"Central LA"},{"location":"Ventura Blvd- Van Nuys Blvd to Kester Ave","address":"Ventura Blvd Sherman Oaks ","formattedAddress":"Ventura Blvd, Sherman Oaks, CA, USA","lat":34.1525034,"lng":-118.4582333,"city":"Los Angeles","neighborhood":"Sherman Oaks"},{"location":"Huntington Library","address":"1151 Oxford Road San Marino ","formattedAddress":"1151 Oxford Rd, San Marino, CA 91108, USA","lat":34.1278618,"lng":-118.1094516,"zipcode":"91108","city":"San Marino"},{"location":"Rosa Mexicano","address":"800 W Olympic Blvd Downtown ","formattedAddress":"Lucky Strike Bowling - Los Angeles, 800 W Olympic Blvd, Los Angeles, CA 90015, USA","lat":34.0447954,"lng":-118.2652703,"zipcode":"90015","city":"Los Angeles","neighborhood":"Central LA"},{"location":"Downey Theatre","address":"8435 Firestone Blvd Downey ","formattedAddress":"8435 Firestone Blvd, Downey, CA 90241, USA","lat":33.9391497,"lng":-118.1296209,"zipcode":"90241","city":"Downey"},{"location":"LA Law Library","address":"301 W. 1st Street Los Angeles ","formattedAddress":"301 W 1st St, Los Angeles, CA 90012, USA","lat":34.0543829,"lng":-118.2456,"zipcode":"90012","city":"Los Angeles","neighborhood":"Central LA"},{"location":"LA Star Dance Studio","address":"19320 Ventura Blvd Tarzana ","formattedAddress":"19320 Ventura Blvd, Tarzana, CA 91356, USA","lat":34.1724618,"lng":-118.5542527,"zipcode":"91356","city":"Los Angeles","neighborhood":"Tarzana"},{"location":"Dockweiler State Beach","address":"Imperial Highway  Playa del Rey ","formattedAddress":"Imperial Hwy, California, USA","lat":33.930797,"lng":-118.3697707},{"location":"CLUB LOS GLOBOS","address":"3040 Sunset 3040 Sunset CA","formattedAddress":"3040 Sunset Ave, Bakersfield, CA 93304, USA","lat":35.3667183,"lng":-119.037502,"zipcode":"93304","city":"Bakersfield","neighborhood":"Oleander/Sunset"},{"location":"Figueroa at Wilshire","address":"601 S. Figueroa Street Los Angeles ","formattedAddress":"Figueroa at Wilshire, 601 S Figueroa St, Los Angeles, CA 90017, USA","lat":34.0508105,"lng":-118.2592862,"zipcode":"90017","city":"Los Angeles","neighborhood":"Central LA"},{"location":"italy","address":"77elashreen street el mohndseen CA 12111"},{"location":"Santa Monica Beach","address":"1600 Appian Way   ","formattedAddress":"1600 Appian Way, Santa Monica, CA 90401, USA","lat":34.0108739,"lng":-118.4958719,"zipcode":"90401","city":"Santa Monica"},{"location":"EgyptianTheatre","address":"6712 Hollywood Blvd., Hollywood, CA Hollywood ","formattedAddress":"6712 Hollywood Blvd, Los Angeles, CA 90028, USA","lat":34.1013684,"lng":-118.3366935,"zipcode":"90028","city":"Los Angeles","neighborhood":"Hollywood"},{"location":"Pico Playhouse","address":"10508 W. Pico Blvd. Los Angeles ","formattedAddress":"10508 W Pico Blvd, Los Angeles, CA 90064, USA","lat":34.0447662,"lng":-118.4191426,"zipcode":"90064","city":"Los Angeles","neighborhood":"Rancho Park"},{"location":"The Barker Hangar","address":"3021 Airport Ave #203 Santa Monica ","formattedAddress":"3021 Airport Ave #203, Santa Monica, CA 90405, USA","lat":34.0147548,"lng":-118.4495802,"zipcode":"90405","city":"Santa Monica","neighborhood":"Sunset Park"},{"location":"Loyola Marymount University's Mayer Theater","address":"1 LMU Drive, Los Angeles, CA Westchester ","formattedAddress":"1 Loyola Marymount University Dr, Los Angeles, CA 90045, USA","lat":33.9708101,"lng":-118.4193224,"zipcode":"90045","city":"Los Angeles","neighborhood":"Westchester"},{"location":"Company of Angels","address":"501 S. Spring Street Los Angeles ","formattedAddress":"501 S Spring St, Los Angeles, CA 90013, USA","lat":34.0472554,"lng":-118.2500328,"zipcode":"90013","city":"Los Angeles","neighborhood":"Downtown"},{"location":"Ricardo Montalban Theatre","address":"1615 N. Vine Street Hollywood ","formattedAddress":"1615 Vine St, Los Angeles, CA 90028, USA","lat":34.1002972,"lng":-118.3271407,"zipcode":"90028","city":"Los Angeles","neighborhood":"Central LA"},{"location":"Cafe Nela","address":"1906 Cypress Ave, Los Angeles, CA ","formattedAddress":"1906 Cypress Ave, Los Angeles, CA 90065, USA","lat":34.1008484,"lng":-118.2350751,"zipcode":"90065","city":"Los Angeles","neighborhood":"Northeast Los Angeles"},{"location":"Santa Monica Pier, North Parking Lot","address":"200 Santa Monica Pier  ","formattedAddress":"200 Santa Monica Pier, Santa Monica, CA 90401, USA","lat":34.0100878,"lng":-118.4961373,"zipcode":"90401","city":"Santa Monica"},{"location":"Topanga Beach","address":"18700 Pacific Coast Highway Malibu ","formattedAddress":"18700 Pacific Coast Hwy, Malibu, CA 90265, USA","lat":34.0391436,"lng":-118.5823778,"zipcode":"90265","city":"Malibu"},{"location":"Pershing Square Downtown LA","address":"Pershing Square 532 S. Olive Street Los Angeles, CA Little Tokyo ","formattedAddress":"Pershing Square, 532 S Olive Street, Los Angeles, CA 90013, USA","lat":34.048569,"lng":-118.2528917,"zipcode":"90013","city":"Los Angeles","neighborhood":"Central LA"},{"location":"Gladys Park","address":"808 E. 6th Street Downtown ","formattedAddress":"808 E 6th St, Los Angeles, CA 90021, USA","lat":34.0402804,"lng":-118.2424647,"zipcode":"90021","city":"Los Angeles","neighborhood":"Downtown"},{"location":"The Autry Museum of the American West","address":"4700 Western Heritage Way Los Angeles ","formattedAddress":"4700 Western Heritage Way, Los Angeles, CA 90027, USA","lat":34.1486203,"lng":-118.2812131,"zipcode":"90027","city":"Los Angeles"},{"location":"California State University Long Beach","address":"6200 E. Atherton Street Long Beach ","formattedAddress":"Richard and Karen Carpenter Performing Arts Center, 6200 E Atherton St, Long Beach, CA 90815, USA","lat":33.7883359,"lng":-118.1126195,"zipcode":"90815","city":"Long Beach"},{"location":"Cisco Brothers","address":"5955 South Western Ave Westmont ","formattedAddress":"5955 S Western Ave, Los Angeles, CA 90047, USA","lat":33.9863079,"lng":-118.3092049,"zipcode":"90047","city":"Los Angeles","neighborhood":"South Los Angeles"},{"location":"Hollywood and Highland","address":"6801 Hollywood Boulevard Los Angeles ","formattedAddress":"6801 Hollywood Blvd, Los Angeles, CA 90028, USA","lat":34.1025489,"lng":-118.3401051,"zipcode":"90028","city":"Los Angeles","neighborhood":"Hollywood"},{"location":"Evergreen Memorial Historic Cemetery","address":"4414 14th Street Riverside, CA Florence "},{"location":"The Liberty Gallery","address":"435 Alamitos Ave Long Beach ","formattedAddress":"435 Alamitos Ave, Long Beach, CA 90802, USA","lat":33.77246969999999,"lng":-118.1812657,"zipcode":"90802","city":"Long Beach","neighborhood":"East Village"},{"location":"The Marengo Gallery","address":"18 N. Marengo Ave.  ","formattedAddress":"18 Marengo Ave, Pasadena, CA 91101, USA","lat":34.147094,"lng":-118.1457918,"zipcode":"91101","city":"Pasadena"},{"location":"Sage Granada Park United Methodiat Church","address":"1840 West Hellman Avenue Alhambra CA ","formattedAddress":"1840 W Hellman Ave, Alhambra, CA 91803, USA","lat":34.069682,"lng":-118.1437401,"zipcode":"91803","city":"Alhambra"},{"location":"Son of Semele Theater","address":"3301 Beverly Blvd. Los Angeles ","formattedAddress":"3301 Beverly Blvd, Los Angeles, CA 90004, USA","lat":34.073261,"lng":-118.2847325,"zipcode":"90004","city":"Los Angeles","neighborhood":"Central LA"},{"location":"Garrison Theater","address":"241 E. 10th Street Claremont ","formattedAddress":"Performing Arts Center, 241 E 10th St, Claremont, CA 91711, USA","lat":34.1037264,"lng":-117.7126922,"zipcode":"91711","city":"Claremont"},{"location":"University of Southern California Mark Taper Hall of Humanities, Room 201","address":"3501 Trousdale Parkway Los Angeles ","formattedAddress":"3501 Trousdale Pkwy, Los Angeles, CA 90089, USA","lat":34.0217257,"lng":-118.2843815,"zipcode":"90089","city":"Los Angeles","neighborhood":"South Los Angeles"},{"location":"Pasadena Convention Center (ballroom)","address":"300 E. Green St.  ","formattedAddress":"300 E Green St, Tallulah, LA 71282, USA","lat":32.4094943,"lng":-91.18852629999999,"zipcode":"71282","city":"Tallulah"},{"location":"The USS Battleship Iowa","address":"250 S. Harbor Blvd 250 S. Harbor Blvd CA","formattedAddress":"250 S Harbor Blvd, Los Angeles, CA 90731, USA","lat":33.7422615,"lng":-118.2772823,"zipcode":"90731","city":"Los Angeles","neighborhood":"Central San Pedro"},{"location":"Victorio's Ristorante","address":"10901 Victory Blvd. North Hollywood ","formattedAddress":"10901 Victory Blvd, North Hollywood, CA 91606, USA","lat":34.1871793,"lng":-118.3685517,"zipcode":"91606","city":"Los Angeles","neighborhood":"North Hollywood"},{"location":"The Moss Theatre at New Roads School","address":"3131 Olympic Blvd.  ","formattedAddress":"3131 Olympic Blvd, Santa Monica, CA 90404, USA","lat":34.0312851,"lng":-118.4612321,"zipcode":"90404","city":"Santa Monica"},{"location":"THE ROSE ROOM","address":"6 Rose Ave Venice ","formattedAddress":"6 Rose Ave, Venice, CA 90291, USA","lat":33.994742,"lng":-118.4801168,"zipcode":"90291","city":"Los Angeles","neighborhood":"Venice"},{"location":"Consulate General of Mexico","address":"Available upon RSVP to event Los Angeles "},{"location":"David Henry Hwang Theatre at East West Players","address":"120 Judge John Aiso St. Los Angeles ","formattedAddress":"120 Judge John Aiso St, Los Angeles, CA 90012, USA","lat":34.0506747,"lng":-118.2400116,"zipcode":"90012","city":"Los Angeles","neighborhood":"Central LA"},{"location":"Pasadena Civic Plaza","address":"300 E Green St Pasadena ","formattedAddress":"300 E Green St, Pasadena, CA 91101, USA","lat":34.143817,"lng":-118.144302,"zipcode":"91101","city":"Pasadena"},{"location":"Howl at the Moon","address":"1000 Universal Studios Blvd. Universal City ","formattedAddress":"1000 Universal Studios Blvd, Universal City, CA 91608, USA","lat":34.1370223,"lng":-118.3522663,"zipcode":"91608","city":"Universal City","neighborhood":"Central LA"},{"location":"The Other Space  The Actors Company","address":"1111 S. Figueroa St. Los Angeles ","formattedAddress":"STAPLES Center, 1111 S Figueroa St, Los Angeles, CA 90015, USA","lat":34.0430058,"lng":-118.2673597,"zipcode":"90015","city":"Los Angeles","neighborhood":"Central LA"},{"location":"Belasco Theater","address":"1050 S Hill St Los Angeles ","formattedAddress":"1050 S Hill St, Los Angeles, CA 90015, USA","lat":34.0402556,"lng":-118.2592519,"zipcode":"90015","city":"Los Angeles","neighborhood":"Downtown"},{"location":"Hollywood Forever","address":"6000 Santa Monica Blvd. Los Angeles ","formattedAddress":"6000 Santa Monica Blvd, Los Angeles, CA 90038, USA","lat":34.0904912,"lng":-118.3198111,"zipcode":"90038","city":"Los Angeles","neighborhood":"Hollywood"},{"location":"Zona Rosa Caffe","address":"15 South El Molino Avenue Pasadena ","formattedAddress":"15 S El Molino Ave, Pasadena, CA 91101, USA","lat":34.1455568,"lng":-118.1370963,"zipcode":"91101","city":"Pasadena"},{"location":"Don chente DTLA","address":"1248 S Figueroa St Downtown ","formattedAddress":"1248 S Figueroa St, Los Angeles, CA 90015, USA","lat":34.0409227,"lng":-118.2672728,"zipcode":"90015","city":"Los Angeles","neighborhood":"Downtown"},{"location":"Shakespeare Center of Los Angeles","address":"1238 W. 1st Street Los Angeles ","formattedAddress":"1238 W 1st St, Los Angeles, CA 90026, USA","lat":34.0604376,"lng":-118.2571979,"zipcode":"90026","city":"Los Angeles","neighborhood":"Central LA"},{"location":"Century Park","address":"2000 Avenue of the Americas West Los Angeles ","formattedAddress":"2000 S Westgate Ave, Los Angeles, CA 90025, USA","lat":34.0353329,"lng":-118.4531327,"zipcode":"90025","city":"Los Angeles","neighborhood":"West Los Angeles"},{"location":"Sherwood Country Club","address":"320 W Stafford RD Thousand Oaks ","formattedAddress":"320 W Stafford Rd, Westlake Village, CA 91361, USA","lat":34.132501,"lng":-118.884467,"zipcode":"91361","city":"Westlake Village"},{"location":"Eagle Rock City Hall","address":"2035 Colorado Blvd Eagle Rock ","formattedAddress":"2035 Colorado Blvd, Los Angeles, CA 90041, USA","lat":34.1395715,"lng":-118.211242,"zipcode":"90041","city":"Los Angeles","neighborhood":"Northeast Los Angeles"},{"location":"The Wallis Annenberg Center for the Performing Arts","address":"9390 N. Santa Monica Blvd.  ","formattedAddress":"9390 N Santa Monica Blvd, Beverly Hills, CA 90210, USA","lat":34.0722901,"lng":-118.4012055,"zipcode":"90210","city":"Beverly Hills"},{"location":"Island Hotel Newport Beach","address":"690 Newport Center Drive Newport Beach ","formattedAddress":"690 Newport Center Dr, Newport Beach, CA 92660, USA","lat":33.6198331,"lng":-117.8753192,"zipcode":"92660","city":"Newport Beach","neighborhood":"Newport Center"},{"location":"Catalina Jazz","address":"6725 W Sunset Blvd Hollywood ","formattedAddress":"6725 Sunset Blvd, Los Angeles, CA 90028, USA","lat":34.09834420000001,"lng":-118.3373005,"zipcode":"90028","city":"Los Angeles","neighborhood":"Central LA"},{"location":"Brookside Golf Course","address":"1133 Rosemont Ave  "},"[{\"location\":\"Ann & Jerry Moss Theater, New Roads School\",\"address\":\"3131 Olympic Blvd. Santa Monica, \",\"formattedAddress\":\"3131 Olympic Blvd, Santa Monica, CA 90404, USA\",\"lat\":34.0312851,\"lng\":-118.4612321,\"zipcode\":\"90404\",\"city\":\"Santa Monica\"},{\"location\":\"The Orpheum Theatre\",\"address\":\"842 S. Broadway Los Angeles, \",\"formattedAddress\":\"842 S Broadway, Los Angeles, CA 90014, USA\",\"neighborhood\":\"Downtown\",\"lat\":34.0426926,\"lng\":-118.2552867,\"zipcode\":\"90014\"},{\"location\":\"The Theatre at Ace Hotel\",\"address\":\"929 S. Broadway Los Angeles, \",\"formattedAddress\":\"929 S Broadway, Los Angeles, CA 90015, USA\",\"neighborhood\":\"Downtown\",\"lat\":34.0418769,\"lng\":-118.2570341,\"zipcode\":\"90015\"},{\"location\":\"Pasadena Museum of California Art\",\"address\":\"490 East Union Street, Pasadena, \",\"formattedAddress\":\"490 E Union St, Pasadena, CA 91101, USA\",\"neighborhood\":null,\"lat\":34.1468743,\"lng\":-118.1401975,\"zipcode\":\"91101\"},{\"location\":\"Self Help Graphics & Art\",\"address\":\"1300 E. 1st St. Los Angeles, \",\"formattedAddress\":\"1300 E 1st St, Los Angeles, CA 90033, USA\",\"lat\":34.0473649,\"lng\":-118.226468,\"zipcode\":\"90033\",\"city\":\"Los Angeles\",\"neighborhood\":\"Central LA\"},{\"location\":\"Egyptian Theatre\",\"address\":\"6712 Hollywood Blvd., Hollywood, CA Hollywood \",\"formattedAddress\":\"6712 Hollywood Blvd, Los Angeles, CA 90028, USA\",\"neighborhood\":\"Hollywood\",\"lat\":34.1013684,\"lng\":-118.3366935,\"zipcode\":\"90028\"},{\"location\":\"SugarMynt Gallery\",\"address\":\"810 Meridian Ave. South Pasadena, CA South Pasadena \",\"formattedAddress\":\"810 Meridian Ave, South Pasadena, CA 91030, USA\",\"neighborhood\":null,\"lat\":34.1162721,\"lng\":-118.1571171,\"zipcode\":\"91030\"},{\"location\":\"Japanese American National Museum\",\"address\":\"100 N. Central Ave. Los Angeles, \",\"formattedAddress\":\"100 N Central Ave, Los Angeles, CA 90012, USA\",\"neighborhood\":\"Central LA\",\"lat\":34.0492148,\"lng\":-118.2391478,\"zipcode\":\"90012\"},{\"location\":\"Annenberg Space for Photography\",\"address\":\"2000 Avenue of the Stars Century City \",\"formattedAddress\":\"2000 Avenue of the Stars, Los Angeles, CA 90067, USA\",\"neighborhood\":\"Century City\",\"lat\":34.0583595,\"lng\":-118.4148332,\"zipcode\":\"90067\"},{\"location\":\"Natural History Museum of Los Angeles County\",\"address\":\"900 Exposition Blvd. Los Angeles, \",\"formattedAddress\":\"900 Exposition Blvd, Los Angeles, CA 90007, USA\",\"neighborhood\":\"South Los Angeles\",\"lat\":34.0170769,\"lng\":-118.2886818,\"zipcode\":\"90007\"},{\"location\":\"Los Angeles Museum of the Holocaust\",\"address\":\"100 S. The Grove Dr. Los Angeles, \",\"formattedAddress\":\"100 The Grove Dr, Los Angeles, CA 90036, USA\",\"neighborhood\":\"Fairfax\",\"lat\":34.074523,\"lng\":-118.355691,\"zipcode\":\"90036\"},{\"location\":\"Venus Over Los Angeles\",\"address\":\"601 S. Anderson St. Los Angeles, \",\"formattedAddress\":\"601 S Anderson St, Los Angeles, CA 90023, USA\",\"neighborhood\":\"Central LA\",\"lat\":34.038945,\"lng\":-118.2243706,\"zipcode\":\"90023\"},{\"location\":\"The Underground Museum\",\"address\":\"3508 W Washington Blvd Jefferson \",\"formattedAddress\":\"3508 W Washington Blvd, Los Angeles, CA 90018, USA\",\"lat\":34.0396861,\"lng\":-118.3229271,\"zipcode\":\"90018\",\"city\":\"Los Angeles\",\"neighborhood\":\"Central LA\"},{\"location\":\"Commonwealth & Council\",\"address\":\"3006 W. Seventh St., #220 Los Angeles, \",\"formattedAddress\":\"3006 W 7th St #220, Los Angeles, CA 90005, USA\",\"neighborhood\":\"Wilshire Center\",\"lat\":34.0595367,\"lng\":-118.289449,\"zipcode\":\"90005\"},{\"location\":\"The Line Hotel\",\"address\":\"3515 Wilshire Blvd. Los Angeles, \",\"formattedAddress\":\"3515 Wilshire Blvd, Los Angeles, CA 90010, USA\",\"neighborhood\":\"Koreatown\",\"lat\":34.0620711,\"lng\":-118.3010331,\"zipcode\":\"90010\"},{\"location\":\"Skirball Cultural Center\",\"address\":\"2701 N. Sepulveda Blvd. Los Angeles, \",\"formattedAddress\":\"2701 N Sepulveda Blvd, Los Angeles, CA 90049, USA\",\"neighborhood\":null,\"lat\":34.124832,\"lng\":-118.4791916,\"zipcode\":\"90049\"},{\"location\":\"Fowler Museum at UCLA\",\"address\":\"Sunset & Westwood blvds. Westwood, \",\"formattedAddress\":\"11461 Sunset Blvd, Los Angeles, CA 90049, USA\",\"neighborhood\":\"Brentwood\",\"lat\":34.072598,\"lng\":-118.468582,\"zipcode\":\"90049\"},{\"location\":\"Las Hadas\",\"address\":\"9048 Balboa Blvd. Northridge, \",\"formattedAddress\":\"9048 Balboa Blvd, Northridge, CA 91325, USA\",\"neighborhood\":\"Northridge\",\"lat\":34.235028,\"lng\":-118.5020911,\"zipcode\":\"91325\"},{\"location\":\"Page Museum\",\"address\":\"5801 Wilshire Blvd. Los Angeles, \",\"formattedAddress\":\"5801 Wilshire Blvd, Los Angeles, CA 90036, USA\",\"neighborhood\":\"Mid-Wilshire\",\"lat\":34.0638208,\"lng\":-118.3554627,\"zipcode\":\"90036\"},{\"location\":\"The Autry\",\"address\":\"4700 Western Heritage Way Los Angeles, \",\"formattedAddress\":\"4700 Western Heritage Way, Los Angeles, CA 90027, USA\",\"neighborhood\":null,\"lat\":34.1486202,\"lng\":-118.2812132,\"zipcode\":\"90027\"},{\"location\":\"Harvelle's Santa Monica\",\"address\":\"1432 Fourth St. Santa Monica, \",\"formattedAddress\":\"1432 4th St, Santa Monica, CA 90401, USA\",\"neighborhood\":\"Downtown\",\"lat\":34.0156047,\"lng\":-118.4944879,\"zipcode\":\"90401\"},{\"location\":\"The Dresden Restaurant\",\"address\":\"1760 N. Vermont Ave. Los Angeles, \",\"formattedAddress\":\"1760 N Vermont Ave, Los Angeles, CA 90027, USA\",\"neighborhood\":\"Los Feliz\",\"lat\":34.1030944,\"lng\":-118.2914886,\"zipcode\":\"90027\"},{\"location\":\"Backstage Bar & Grill\",\"address\":\"10400 Culver Blvd. Culver City, \",\"formattedAddress\":\"10400 Culver Blvd, Culver City, CA 90232, USA\",\"neighborhood\":\"Carlson Park\",\"lat\":34.0162779,\"lng\":-118.4001275,\"zipcode\":\"90232\"},{\"location\":\"Hollywood Improv (The Lab)\",\"address\":\"8162 Melrose Ave. Hollywood, \",\"formattedAddress\":\"8162 Melrose Ave, Los Angeles, CA 90048, USA\",\"neighborhood\":\"Beverly Grove\",\"lat\":34.0834368,\"lng\":-118.3672735,\"zipcode\":\"90048\"},{\"location\":\"El Rey Theatre\",\"address\":\"5515 Wilshire Blvd. Los Angeles, \",\"formattedAddress\":\"5515 Wilshire Blvd, Los Angeles, CA 90036, USA\",\"neighborhood\":\"Mid-Wilshire\",\"lat\":34.0626988,\"lng\":-118.3489004,\"zipcode\":\"90036\"},{\"location\":\"The Mint\",\"address\":\"6010 W. Pico Blvd. Los Angeles, \",\"formattedAddress\":\"6010 W Pico Blvd, Los Angeles, CA 90035, USA\",\"neighborhood\":\"Mid City\",\"lat\":34.0521634,\"lng\":-118.3716095,\"zipcode\":\"90035\"},{\"location\":\"The Echo\",\"address\":\"1822 W. Sunset Blvd. Los Angeles, \",\"formattedAddress\":\"1822 Sunset Blvd, Los Angeles, CA 90026, USA\",\"neighborhood\":\"Echo Park\",\"lat\":34.0777287,\"lng\":-118.260108,\"zipcode\":\"90026\"},{\"location\":\"The Satellite\",\"address\":\"1717 Silver Lake Blvd. Los Angeles, \",\"formattedAddress\":\"1717 Silver Lake Blvd, Los Angeles, CA 90026, USA\",\"neighborhood\":\"Silver Lake\",\"lat\":34.089872,\"lng\":-118.2682879,\"zipcode\":\"90026\"},{\"location\":\"The Blue Guitar, Arroyo Seco Golf Course\",\"address\":\"1055 Lohman Lane South Pasadena, \",\"formattedAddress\":\"1055 Lohman Ln, South Pasadena, CA 91030, USA\",\"lat\":34.117108,\"lng\":-118.167742,\"zipcode\":\"91030\",\"city\":\"South Pasadena\"},{\"location\":\"Los Globos\",\"address\":\"3040 W. Sunset Blvd. Los Angeles, \",\"formattedAddress\":\"3040 Sunset Blvd, Los Angeles, CA 90026, USA\",\"neighborhood\":\"Silver Lake\",\"lat\":34.0838215,\"lng\":-118.2743235,\"zipcode\":\"90026\"},{\"location\":\"Whisky A Go-Go\",\"address\":\"8901 Sunset Blvd. West Hollywood, \",\"formattedAddress\":\"8901 Sunset Blvd, West Hollywood, CA 90069, USA\",\"neighborhood\":\"Sunset Strip\",\"lat\":34.0908403,\"lng\":-118.3857013,\"zipcode\":\"90069\"},{\"location\":\"The Fonda Theatre\",\"address\":\"6126 Hollywood Blvd. Los Angeles, \",\"formattedAddress\":\"6126 Hollywood Blvd, Los Angeles, CA 90028, USA\",\"neighborhood\":\"Hollywood\",\"lat\":34.1012695,\"lng\":-118.3232478,\"zipcode\":\"90028\"},{\"location\":\"Pantages Theatre\",\"address\":\"6233 Hollywood Blvd. Los Angeles, \",\"formattedAddress\":\"6233 Hollywood Blvd, Los Angeles, CA 90028, USA\",\"neighborhood\":\"Hollywood\",\"lat\":34.102001,\"lng\":-118.325867,\"zipcode\":\"90028\"},{\"location\":\"Bootleg Theater\",\"address\":\"2200 Beverly Blvd. Los Angeles, \",\"formattedAddress\":\"2200 Beverly Blvd, Los Angeles, CA 90057, USA\",\"neighborhood\":\"Central LA\",\"lat\":34.0669309,\"lng\":-118.271662,\"zipcode\":\"90057\"},{\"location\":\"The Troubadour\",\"address\":\"9081 Santa Monica Blvd. West Hollywood, \",\"formattedAddress\":\"9081 Santa Monica Blvd, West Hollywood, CA 90069, USA\",\"neighborhood\":\"Norma Triangle\",\"lat\":34.0815696,\"lng\":-118.3892793,\"zipcode\":\"90069\"},{\"location\":\"The Teragram Ballroom\",\"address\":\"1234 W. Seventh St. Los Angeles, \",\"formattedAddress\":\"1234 W 7th St, Los Angeles, CA 90017, USA\",\"neighborhood\":\"Central LA\",\"lat\":34.0518639,\"lng\":-118.2670623,\"zipcode\":\"90017\"},{\"location\":\"Hollywood Bowl\",\"address\":\"2301 N. Highland Ave. Los Angeles, \",\"formattedAddress\":\"2301 Highland Ave, Los Angeles, CA 90068, USA\",\"lat\":34.1127392,\"lng\":-118.3388562,\"zipcode\":\"90068\",\"city\":\"Los Angeles\",\"neighborhood\":\"Central LA\"},{\"location\":\"Catalina Bar & Grill\",\"address\":\"6725 W. Sunset Blvd. Los Angeles, \",\"formattedAddress\":\"6725 Sunset Blvd, Los Angeles, CA 90028, USA\",\"neighborhood\":\"Hollywood\",\"lat\":34.09834420000001,\"lng\":-118.3373005,\"zipcode\":\"90028\"},{\"location\":\"The Echoplex\",\"address\":\"1154 Glendale Blvd. Los Angeles, \",\"formattedAddress\":\"1154 Glendale Blvd, Los Angeles, CA 90026, USA\",\"neighborhood\":\"Echo Park\",\"lat\":34.07759060000001,\"lng\":-118.2605046,\"zipcode\":\"90026\"},{\"location\":\"The Love Song\",\"address\":\"450 S. Main St. Los Angeles, \",\"formattedAddress\":\"450 S Main St, Los Angeles, CA 90013, USA\",\"lat\":34.0470379,\"lng\":-118.247999,\"zipcode\":\"90013\",\"city\":\"Los Angeles\",\"neighborhood\":\"Downtown\"},{\"location\":\"Blue Whale\",\"address\":\"123 Astronaut E.S. Onizuka St. Los Angeles, \",\"formattedAddress\":\"123 Astronaut E S Onizuka St, Los Angeles, CA 90012, USA\",\"neighborhood\":\"Downtown\",\"lat\":34.0501009,\"lng\":-118.2421794,\"zipcode\":\"90012\"},{\"location\":\"The Federal\",\"address\":\"5303 N. Lankershim Blvd. North Hollywood, \",\"formattedAddress\":\"5303 Lankershim Blvd, Los Angeles, CA 91601, USA\",\"lat\":34.1671534,\"lng\":-118.3762863,\"zipcode\":\"91601\",\"city\":\"Los Angeles\",\"neighborhood\":\"NoHo Arts District\"},{\"location\":\"Glendale City Seventh-Day Adventist Church\",\"address\":\"610 E. California Ave. Los Angeles, \",\"formattedAddress\":\"610 E California Ave, Glendale, CA 91206, USA\",\"neighborhood\":\"Downtown\",\"lat\":34.1497453,\"lng\":-118.2484602,\"zipcode\":\"91206\"},{\"location\":\"Brea Improv\",\"address\":\"120 S. Brea Blvd Brea, California 92821 714-482-0700\",\"formattedAddress\":\"120 S Brea Blvd, Brea, CA 92821, USA\",\"neighborhood\":null,\"lat\":33.9193832,\"lng\":-117.8984393,\"zipcode\":\"92821\"},{\"location\":\"Zebulon\",\"address\":\"2478 Fletcher Dr. Los Angeles, \",\"formattedAddress\":\"2478 Fletcher Dr, Los Angeles, CA 90039, USA\",\"lat\":34.1071933,\"lng\":-118.2547325,\"zipcode\":\"90039\",\"city\":\"Los Angeles\"},{\"location\":\"The Lighthouse Cafe\",\"address\":\"30 Pier Ave. Hermosa Beach, \",\"formattedAddress\":\"30 Pier Ave, Hermosa Beach, CA 90254, USA\",\"neighborhood\":null,\"lat\":33.8617548,\"lng\":-118.4010031,\"zipcode\":\"90254\"},{\"location\":\"The Hi Hat\",\"address\":\"5043 York Blvd. Highland Park, \",\"formattedAddress\":\"5043 York Blvd, Los Angeles, CA 90042, USA\",\"neighborhood\":\"Eagle Rock\",\"lat\":34.1214595,\"lng\":-118.2053922,\"zipcode\":\"90042\"},{\"location\":\"The Viper Room\",\"address\":\"8852 W. Sunset Blvd. West Hollywood, \",\"formattedAddress\":\"8852 Sunset Blvd, West Hollywood, CA 90069, USA\",\"neighborhood\":\"Norma Triangle\",\"lat\":34.0904329,\"lng\":-118.3850554,\"zipcode\":\"90069\"},{\"location\":\"Union Nightclub\",\"address\":\"4067 W. Pico Blvd. Los Angeles, \",\"formattedAddress\":\"4067 W Pico Blvd, Los Angeles, CA 90019, USA\",\"neighborhood\":\"Mid City\",\"lat\":34.047775,\"lng\":-118.3241134,\"zipcode\":\"90019\"},{\"location\":\"Silverlake Lounge\",\"address\":\"2906 Sunset Blvd. Los Angeles, \",\"formattedAddress\":\"2906 Sunset Blvd, Los Angeles, CA 90026, USA\",\"neighborhood\":\"Silver Lake\",\"lat\":34.0828261,\"lng\":-118.2736878,\"zipcode\":\"90026\"},{\"location\":\"Hornblower Cruises & Events\",\"address\":\"13755 Fiji Way Marina Del Rey \",\"formattedAddress\":\"13755 Fiji Way, Marina Del Rey, CA 90292, USA\",\"lat\":33.9725614,\"lng\":-118.4462468,\"zipcode\":\"90292\",\"city\":\"Marina del Rey\"},{\"location\":\"Chinese American Museum\",\"address\":\"425 N. Los Angeles St. Los Angeles, \",\"formattedAddress\":\"425 N Los Angeles St, Los Angeles, CA 90012, USA\",\"neighborhood\":\"Central LA\",\"lat\":34.0558393,\"lng\":-118.23909,\"zipcode\":\"90012\"},{\"location\":\"Olvera Street\",\"address\":\"845 N. Alameda St. Los Angeles, \",\"formattedAddress\":\"845 North Alameda Street, Los Angeles, CA 90012, USA\",\"lat\":34.0574412,\"lng\":-118.2376558,\"zipcode\":\"90012\",\"city\":\"Los Angeles\",\"neighborhood\":\"Central LA\"},{\"location\":\"Macgowan Little Theater, UCLA\",\"address\":\"245 Charles E. Young Drive East Los Angeles, \",\"formattedAddress\":\"Macgowan Hall, 245 Charles E Young Dr E, Los Angeles, CA 90095, USA\",\"lat\":34.0758815,\"lng\":-118.4396813,\"zipcode\":\"90095\",\"city\":\"Los Angeles\",\"neighborhood\":\"Westwood\"},{\"location\":\"The Community Center of La Canada Flintridge\",\"address\":\"4469 Chevy Chase Dr. La Canada Flintridge, \",\"formattedAddress\":\"4469 Chevy Chase Dr, La Cañada Flintridge, CA 91011, USA\",\"neighborhood\":null,\"lat\":34.2041598,\"lng\":-118.2014764,\"zipcode\":\"91011\"},{\"location\":\"Pantages Theatre\",\"address\":\"6233 Hollywood Blvd. Los Angeles, \",\"formattedAddress\":\"6233 Hollywood Blvd, Los Angeles, CA 90028, USA\",\"neighborhood\":\"Hollywood\",\"lat\":34.102001,\"lng\":-118.325867,\"zipcode\":\"90028\"},{\"location\":\"The Point\",\"address\":\"850 S. Sepulveda Blvd. El Segundo, \",\"formattedAddress\":\"850 S Sepulveda Blvd, El Segundo, CA 90245, USA\",\"lat\":33.9031445,\"lng\":-118.3954149,\"zipcode\":\"90245\",\"city\":\"El Segundo\"},{\"location\":\"Discovery Cube in Los Angeles\",\"address\":\"11800 Foothill Blvd. Los Angeles, California 91342 818-686-2823\",\"formattedAddress\":\"11800 Foothill Blvd, Sylmar, CA 91342, USA\",\"neighborhood\":\"Sylmar\",\"lat\":34.2729595,\"lng\":-118.3932212,\"zipcode\":\"91342\"},{\"location\":\"Bee Canyon Park\",\"address\":\"17307 Sesnon Blvd. Los Angeles, \",\"formattedAddress\":\"17307 Sesnon Blvd, Granada Hills, CA 91344, USA\",\"neighborhood\":\"Granada Hills\",\"lat\":34.3084174,\"lng\":-118.510448,\"zipcode\":\"91344\"},{\"location\":\"Museum of Broken Relationships\",\"address\":\"6751 Hollywood Blvd Los Angeles, California 90028 323-892-8103\",\"formattedAddress\":\"6751 Hollywood Blvd, Hollywood, CA 90028, USA\",\"neighborhood\":\"Hollywood\",\"lat\":34.1017702,\"lng\":-118.3376512,\"zipcode\":\"90028\"},{\"location\":\"Starboard Attitude\",\"address\":\"202 The Pier Redondo Beach, \",\"formattedAddress\":\"202 Pier Ave, Hermosa Beach, CA 90254, USA\",\"lat\":33.86309320000001,\"lng\":-118.3990998,\"zipcode\":\"90254\",\"city\":\"Hermosa Beach\"},{\"location\":\"Klat Cafe\",\"address\":\"621 S. Western Ave. #101 Los Angeles, \",\"formattedAddress\":\"621 S Western Ave #101, Los Angeles, CA 90005, USA\",\"neighborhood\":\"Wilshire Center\",\"lat\":34.0626976,\"lng\":-118.3096133,\"zipcode\":\"90005\"},{\"location\":\"New Wight Gallery\",\"address\":\"1100 Broad Art Center Los Angeles, \",\"formattedAddress\":\"Broad Art Center, 240 Charles E Young Dr N, Los Angeles, CA 90095, USA\",\"neighborhood\":\"Westwood\",\"lat\":34.075885,\"lng\":-118.4409969,\"zipcode\":\"90095\"},{\"location\":\"Huntington Library, Art Collections and Botanical Gardens\",\"address\":\"1151 Oxford Rd. San Marino, \",\"formattedAddress\":\"1151 Oxford Rd, San Marino, CA 91108, USA\",\"neighborhood\":null,\"lat\":34.1278618,\"lng\":-118.1094516,\"zipcode\":\"91108\"},{\"location\":\"Tuning Fork\",\"address\":\"12051 Ventura Place Studio City, \",\"formattedAddress\":\"12051 Ventura Pl, Studio City, CA 91604, USA\",\"neighborhood\":\"Studio City\",\"lat\":34.1446269,\"lng\":-118.3943098,\"zipcode\":\"91604\"},{\"location\":\"Revolver Gallery\",\"address\":\"2525 Michigan Avenue, D4 Santa Monica, \",\"formattedAddress\":\"2525 Michigan Ave, Santa Monica, CA 90405, USA\",\"neighborhood\":\"Pico\",\"lat\":34.02778929999999,\"lng\":-118.4684355,\"zipcode\":\"90405\"},{\"location\":\"San Luis Obispo Museum of Art\",\"address\":\"1010 Broad St. San Luis Obispo, \",\"formattedAddress\":\"1010 Broad St, San Luis Obispo, CA 93401, USA\",\"lat\":35.2795805,\"lng\":-120.6649827,\"zipcode\":\"93401\",\"city\":\"San Luis Obispo\",\"neighborhood\":\"Downtown\"},{\"location\":\"Pomona College Art Department Chan Gallery\",\"address\":\"370 Columbia Ave. Claremont, California 91711 909-621-8079\",\"formattedAddress\":\"370 Columbia Ave, Claremont, CA 91711, USA\",\"lat\":34.0966139,\"lng\":-117.711123,\"zipcode\":\"91711\",\"city\":\"Claremont\"},{\"location\":\"UCLA Meteorite Gallery\",\"address\":\"595 Charles Young Drive East, Geology 3697 Los Angeles, \"},{\"location\":\"Online Contest\",\"address\":\"1215 Cushman Ave. San Diego, California 92110 619-234-0345\",\"formattedAddress\":\"1215 Cushman Ave, San Diego, CA 92110, USA\",\"lat\":32.7683292,\"lng\":-117.1986237,\"zipcode\":\"92110\",\"city\":\"San Diego\",\"neighborhood\":\"Morena\"},{\"location\":\"Various Locations\",\"address\":\"Various Locations Los Angeles, \",\"formattedAddress\":\"812 Highland Ave, Los Angeles, CA 90038, USA\",\"neighborhood\":\"Hollywood\",\"lat\":34.0856992,\"lng\":-118.3384181,\"zipcode\":\"90038\"},{\"location\":\"M.i.'s Westside Comedy Theater\",\"address\":\"1323-A 3rd St Promenade (A stands for Alley) Santa Monica, \",\"formattedAddress\":\"Third Street Promenade, 1323-A 3rd St, Santa Monica, CA 90401, USA\",\"lat\":34.0169538,\"lng\":-118.4968376,\"zipcode\":\"90401\",\"city\":\"Santa Monica\",\"neighborhood\":\"Downtown\"},{\"location\":\"Perch\",\"address\":\"448 S. Hill St. Los Angeles, \",\"formattedAddress\":\"448 Hill St, Los Angeles, CA 90013, USA\",\"neighborhood\":\"Downtown\",\"lat\":34.0488342,\"lng\":-118.2513587,\"zipcode\":\"90013\"},{\"location\":\"Artists and Fleas\",\"address\":\"647 Mateo St. Los Angeles, \",\"formattedAddress\":\"647 Mateo St, Los Angeles, CA 90021, USA\",\"lat\":34.0364202,\"lng\":-118.2328638,\"zipcode\":\"90021\",\"city\":\"Los Angeles\",\"neighborhood\":\"Downtown\"},{\"location\":\"Hotel Angeleno\",\"address\":\"170 N. Church Lane Los Angeles, \",\"formattedAddress\":\"170 N Church Ln, Los Angeles, CA 90049, USA\",\"neighborhood\":\"Brentwood\",\"lat\":34.0737485,\"lng\":-118.4682112,\"zipcode\":\"90049\"},{\"location\":\"Hollywood Playhouse at the Zephyr Theatre\",\"address\":\"7456 Melrose Ave Los Angeles, \",\"formattedAddress\":\"7456 Melrose Ave, West Hollywood, CA 90046, USA\",\"neighborhood\":\"Central LA\",\"lat\":34.0833229,\"lng\":-118.3525757,\"zipcode\":\"90046\"},{\"location\":\"Walt Disney Concert Hall\",\"address\":\"111 S. Grand Ave. Los Angeles, \",\"formattedAddress\":\"111 S Grand Ave, Los Angeles, CA 90012, USA\",\"neighborhood\":\"Downtown\",\"lat\":34.0553871,\"lng\":-118.2498281,\"zipcode\":\"90012\"},{\"location\":\"Grammy Museum\",\"address\":\"800 W. Olympic Blvd. Los Angeles, \",\"formattedAddress\":\"800 W Olympic Blvd, Los Angeles, CA 90015, USA\",\"neighborhood\":\"Downtown\",\"lat\":34.0449376,\"lng\":-118.2654979,\"zipcode\":\"90015\"},{\"location\":\"LACMA\",\"address\":\"5905 Wilshire Blvd. Los Angeles, \",\"formattedAddress\":\"5905 Wilshire Blvd, Los Angeles, CA 90036, USA\",\"neighborhood\":\"Mid-Wilshire\",\"lat\":34.0637913,\"lng\":-118.3588851,\"zipcode\":\"90036\"},{\"location\":\"UCB Franklin\",\"address\":\"5919 Franklin Ave. Los Angeles, \",\"formattedAddress\":\"5919 Franklin Ave, Los Angeles, CA 90028, USA\",\"neighborhood\":\"Hollywood Hills\",\"lat\":34.1054499,\"lng\":-118.3187772,\"zipcode\":\"90028\"},{\"location\":\"Cody's Viva Cantina\",\"address\":\"900 Riverside Dr. Burbank, \",\"formattedAddress\":\"900 W Riverside Dr, Burbank, CA 91506, USA\",\"neighborhood\":null,\"lat\":34.1606464,\"lng\":-118.3105679,\"zipcode\":\"91506\"},{\"location\":\"The Virgil\",\"address\":\"4519 Santa Monica Blvd. Los Angeles, \",\"formattedAddress\":\"4519 Santa Monica Blvd, Los Angeles, CA 90029, USA\",\"neighborhood\":\"Hollywood\",\"lat\":34.0910076,\"lng\":-118.2870107,\"zipcode\":\"90029\"},{\"location\":\"The World Stage\",\"address\":\"4321 Degnan Blvd. Los Angeles, \",\"formattedAddress\":\"4321 Degnan Blvd, Los Angeles, CA 90008, USA\",\"neighborhood\":\"South Los Angeles\",\"lat\":34.0052812,\"lng\":-118.3317413,\"zipcode\":\"90008\"},{\"location\":\"Canyon Club\",\"address\":\"28912 Roadside Dr. Agoura Hills, \",\"formattedAddress\":\"28912 Roadside Dr, Agoura Hills, CA 91301, USA\",\"neighborhood\":null,\"lat\":34.144004,\"lng\":-118.7551541,\"zipcode\":\"91301\"},{\"location\":\"Alex's Bar\",\"address\":\"2913 E. Anaheim St. Long Beach, \",\"formattedAddress\":\"2913 E Anaheim St, Long Beach, CA 90804, USA\",\"neighborhood\":\"Zaferia\",\"lat\":33.7828017,\"lng\":-118.1573649,\"zipcode\":\"90804\"},{\"location\":\"Cal State Northridge, CSUN\",\"address\":\"18111 Nordhoff St. Northridge, \",\"formattedAddress\":\"18111 Nordhoff St, Northridge, CA 91325, USA\",\"neighborhood\":\"Northridge\",\"lat\":34.2359329,\"lng\":-118.5280253,\"zipcode\":\"91325\"},{\"location\":\"The Glass House\",\"address\":\"200 W. Second St. Pomona, \",\"formattedAddress\":\"200 W 2nd St, Pomona, CA 91766, USA\",\"neighborhood\":\"Westmont\",\"lat\":34.05755550000001,\"lng\":-117.7514339,\"zipcode\":\"91766\"},{\"location\":\"The Greek Theatre\",\"address\":\"2700 N. Vermont Ave. Los Angeles, \",\"formattedAddress\":\"2700 N Vermont Ave, Los Angeles, CA 90027, USA\",\"neighborhood\":null,\"lat\":34.1205588,\"lng\":-118.2963915,\"zipcode\":\"90027\"},{\"location\":\"Maui Sugar Mill Saloon\",\"address\":\"18389 Ventura Blvd. Tarzana, \",\"formattedAddress\":\"18389 Ventura Blvd, Tarzana, CA 91356, USA\",\"neighborhood\":\"Tarzana\",\"lat\":34.168675,\"lng\":-118.5327741,\"zipcode\":\"91356\"},{\"location\":\"Boston Court\",\"address\":\"70 N. Mentor Ave. Pasadena, \",\"formattedAddress\":\"70 N Mentor Ave, Pasadena, CA 91106, USA\",\"lat\":34.1470269,\"lng\":-118.1305675,\"zipcode\":\"91106\",\"city\":\"Pasadena\"},{\"location\":\"The Forum\",\"address\":\"3900 W. Manchester Blvd. Inglewood, \",\"formattedAddress\":\"3900 W Manchester Blvd, Inglewood, CA 90305, USA\",\"neighborhood\":\"South Los Angeles\",\"lat\":33.9581667,\"lng\":-118.3418158,\"zipcode\":\"90305\"},{\"location\":\"The Wiltern\",\"address\":\"3790 Wilshire Blvd. Los Angeles, \",\"formattedAddress\":\"3790 Wilshire Blvd, Los Angeles, CA 90010, USA\",\"neighborhood\":\"Koreatown\",\"lat\":34.0614896,\"lng\":-118.3087587,\"zipcode\":\"90010\"},{\"location\":\"The Broad Stage, Santa Monica College Performing Arts Center\",\"address\":\"1310 11th St. Santa Monica, \",\"formattedAddress\":\"1310 11th St, Santa Monica, CA 90401, USA\",\"neighborhood\":\"Downtown\",\"lat\":34.022176,\"lng\":-118.4898567,\"zipcode\":\"90401\"},{\"location\":\"OHM Nightclub\",\"address\":\"6801 Hollywood Blvd. Los Angeles, \",\"formattedAddress\":\"6801 Hollywood Blvd, Los Angeles, CA 90028, USA\",\"neighborhood\":\"Hollywood\",\"lat\":34.1025903,\"lng\":-118.3400444,\"zipcode\":\"90028\"},{\"location\":\"Honda Center\",\"address\":\"2695 E. Katella Ave. Anaheim, \",\"formattedAddress\":\"2695 E Katella Ave, Anaheim, CA 92806, USA\",\"neighborhood\":\"Anaheim Resort\",\"lat\":33.8078356,\"lng\":-117.8765438,\"zipcode\":\"92806\"},{\"location\":\"The Roxy\",\"address\":\"9009 W. Sunset Blvd. West Hollywood, \",\"formattedAddress\":\"9009 Sunset Blvd, West Hollywood, CA 90069, USA\",\"neighborhood\":\"Sunset Strip\",\"lat\":34.0909001,\"lng\":-118.3879395,\"zipcode\":\"90069\"},{\"location\":\"Trip\",\"address\":\"2101 Lincoln Blvd. Santa Monica, \",\"formattedAddress\":\"2101 Lincoln Blvd, Santa Monica, CA 90405, USA\",\"neighborhood\":\"Ocean Park\",\"lat\":34.0109254,\"lng\":-118.4809526,\"zipcode\":\"90405\"},{\"location\":\"Cafe NELA\",\"address\":\"1906 Cypress Ave. Los Angeles, \",\"formattedAddress\":\"1906 Cypress Ave, Los Angeles, CA 90065, USA\",\"neighborhood\":\"Northeast Los Angeles\",\"lat\":34.1008484,\"lng\":-118.2350751,\"zipcode\":\"90065\"},{\"location\":\"Amoeba Music\",\"address\":\"6400 Sunset Blvd. Los Angeles, \",\"formattedAddress\":\"6400 Sunset Blvd, Los Angeles, CA 90028, USA\",\"neighborhood\":\"Hollywood\",\"lat\":34.0975274,\"lng\":-118.329153,\"zipcode\":\"90028\"},{\"location\":\"Joe's Great American Bar & Grill\",\"address\":\"4311 W. Magnolia Blvd. Burbank, \",\"formattedAddress\":\"4311 W Magnolia Blvd, Burbank, CA 91505, USA\",\"neighborhood\":null,\"lat\":34.165776,\"lng\":-118.3536248,\"zipcode\":\"91505\"},{\"location\":\"Samueli Theater\",\"address\":\"600 Town Center Dr. Costa Mesa, \",\"formattedAddress\":\"600 Town Center Dr, Costa Mesa, CA 92626, USA\",\"neighborhood\":\"South Coast Metro\",\"lat\":33.6925689,\"lng\":-117.8822898,\"zipcode\":\"92626\"},{\"location\":\"Colombo's Italian Steakhouse & Jazz Club\",\"address\":\"1833 Colorado Blvd. Eagle Rock, \",\"formattedAddress\":\"1833 Colorado Blvd, Los Angeles, CA 90041, USA\",\"neighborhood\":\"Northeast Los Angeles\",\"lat\":34.1395978,\"lng\":-118.2072713,\"zipcode\":\"90041\"},{\"location\":\"Billy Wilder Theater\",\"address\":\"10899 Wilshire Blvd. Westwood, \",\"formattedAddress\":\"10899 Wilshire Blvd, Los Angeles, CA 90024, USA\",\"neighborhood\":\"Westwood\",\"lat\":34.0591217,\"lng\":-118.4436674,\"zipcode\":\"90024\"},{\"location\":\"The Smell\",\"address\":\"247 S. Main St. Los Angeles, \",\"formattedAddress\":\"247 S Main St, Los Angeles, CA 90012, USA\",\"neighborhood\":\"Downtown\",\"lat\":34.0503352,\"lng\":-118.2456679,\"zipcode\":\"90012\"},{\"location\":\"Center for Land Use Interpretation\",\"address\":\"9331 Venice Blvd. Culver City, \",\"formattedAddress\":\"9331 Venice Blvd, Culver City, CA 90232, USA\",\"neighborhood\":\"Palms\",\"lat\":34.0259925,\"lng\":-118.3948444,\"zipcode\":\"90232\"},{\"location\":\"The Mackey Apartments\",\"address\":\"1137 S. Cochran Ave. Los Angeles, \",\"formattedAddress\":\"1137 S Cochran Ave, Los Angeles, CA 90019, USA\",\"neighborhood\":\"Central LA\",\"lat\":34.0547067,\"lng\":-118.3504201,\"zipcode\":\"90019\"},{\"location\":\"M.i. Westside Comedy Theater\",\"address\":\"1323-A Third St. Promenade (in the alley betw. Third & Fourth Sts. at Arizona Ave.) Santa Monica, \"},{\"location\":\"El Floridita Restaurant\",\"address\":\"1253 N. Vine St. Los Angeles, \",\"formattedAddress\":\"1253 Vine St, Los Angeles, CA 90038, USA\",\"neighborhood\":\"Central LA\",\"lat\":34.0940071,\"lng\":-118.3275855,\"zipcode\":\"90038\"},{\"location\":\"The Groundlings Theater\",\"address\":\"7307 Melrose Ave. Los Angeles, \",\"formattedAddress\":\"7307 Melrose Ave, Los Angeles, CA 90046, USA\",\"neighborhood\":\"Fairfax\",\"lat\":34.0838002,\"lng\":-118.3490097,\"zipcode\":\"90046\"},{\"location\":\"iO West (Improv Olympic)\",\"address\":\"6366 Hollywood Blvd. Los Angeles, \",\"formattedAddress\":\"6366 Hollywood Blvd, Los Angeles, CA 90028, USA\",\"neighborhood\":\"Hollywood\",\"lat\":34.1013952,\"lng\":-118.3287424,\"zipcode\":\"90028\"},{\"location\":\"Grand Star Jazz Club\",\"address\":\"943 N. Broadway Los Angeles, \",\"formattedAddress\":\"943 N Broadway, Los Angeles, CA 90012, USA\",\"neighborhood\":\"Old Chinatown\",\"lat\":34.0652074,\"lng\":-118.237149,\"zipcode\":\"90012\"},{\"location\":\"McCabe's Guitar Shop\",\"address\":\"3101 Pico Blvd. Santa Monica, \",\"formattedAddress\":\"3101 Pico Blvd, Santa Monica, CA 90405, USA\",\"neighborhood\":\"Pico\",\"lat\":34.026043,\"lng\":-118.457612,\"zipcode\":\"90405\"},{\"location\":\"House of Blues Anaheim\",\"address\":\"1530 S. Disneyland Dr. Anaheim, \",\"formattedAddress\":\"1530 Disneyland Dr, Anaheim, CA 92802, USA\",\"neighborhood\":\"Anaheim Resort\",\"lat\":33.8095602,\"lng\":-117.9229746,\"zipcode\":\"92802\"},{\"location\":\"Avalon Hollywood\",\"address\":\"1735 Vine St. Los Angeles, \",\"formattedAddress\":\"1735 Vine St, Los Angeles, CA 90028, USA\",\"neighborhood\":\"Hollywood\",\"lat\":34.1027185,\"lng\":-118.3271695,\"zipcode\":\"90028\"},{\"location\":\"The Coffee Gallery Backstage\",\"address\":\"2029 N. Lake Ave. Altadena, \",\"formattedAddress\":\"2029 Lake Ave, Altadena, CA 91001, USA\",\"neighborhood\":null,\"lat\":34.1807073,\"lng\":-118.132044,\"zipcode\":\"91001\"},{\"location\":\"The Regent Theater\",\"address\":\"448 S. Main St. Los Angeles, \",\"formattedAddress\":\"448 S Main St, Los Angeles, CA 90013, USA\",\"neighborhood\":\"Downtown\",\"lat\":34.046981,\"lng\":-118.2478,\"zipcode\":\"90013\"},{\"location\":\"Saban Theatre\",\"address\":\"8440 W. Wilshire Blvd. Beverly Hills, \",\"formattedAddress\":\"8440 Wilshire Blvd, Beverly Hills, CA 90211, USA\",\"neighborhood\":null,\"lat\":34.0645718,\"lng\":-118.3748496,\"zipcode\":\"90211\"},{\"location\":\"Libbey Bowl\",\"address\":\"210 S. Signal St. Ojai, \",\"formattedAddress\":\"210 S Signal St, Ojai, CA 93023, USA\",\"neighborhood\":null,\"lat\":34.4458781,\"lng\":-119.2458306,\"zipcode\":\"93023\"},{\"location\":\"Exchange L.A.\",\"address\":\"618 S. Spring St. Los Angeles, \",\"formattedAddress\":\"618 S Spring St, Los Angeles, CA 90014, USA\",\"neighborhood\":\"Downtown\",\"lat\":34.0452545,\"lng\":-118.2511393,\"zipcode\":\"90014\"},{\"location\":\"Amplyfi\",\"address\":\"5617 Melrose Ave. Los Angeles, \",\"formattedAddress\":\"5617 Melrose Ave, Los Angeles, CA 90038, USA\",\"lat\":34.0837318,\"lng\":-118.322817,\"zipcode\":\"90038\",\"city\":\"Los Angeles\",\"neighborhood\":\"Central LA\"},{\"location\":\"Resident\",\"address\":\"428 S. Hewitt St. Los Angeles, \",\"formattedAddress\":\"428 S Hewitt St, Los Angeles, CA 90013, USA\",\"neighborhood\":\"Downtown\",\"lat\":34.042668,\"lng\":-118.234922,\"zipcode\":\"90013\"},{\"location\":\"Chi Temple\",\"address\":\"Downtown Los Angeles Downtown Los Angles, California 90017 650-455-6137\",\"formattedAddress\":\"14032 S Vermont Ave, Los Angeles, CA 90247, USA\",\"lat\":33.903996,\"lng\":-118.29109,\"zipcode\":\"90247\",\"city\":\"Los Angeles\",\"neighborhood\":\"Harbor Gateway North\"},{\"location\":\"Create Nightclub\",\"address\":\"6021 Hollywood Blvd. Los Angeles, \",\"formattedAddress\":\"6021 Hollywood Blvd, Los Angeles, CA 90028, USA\",\"neighborhood\":\"Hollywood\",\"lat\":34.1020426,\"lng\":-118.3209169,\"zipcode\":\"90028\"},{\"location\":\"Boulevard Music\",\"address\":\"4316 Sepulveda Blvd. Culver City, \",\"formattedAddress\":\"4316 Sepulveda Blvd, Culver City, CA 90230, USA\",\"lat\":34.0045754,\"lng\":-118.4092156,\"zipcode\":\"90230\",\"city\":\"Culver City\",\"neighborhood\":\"Park West\"},{\"location\":\"The Cat & Fiddle Restaurant & Pub\",\"address\":\"742 N. Highland Ave. Los Angeles, \",\"formattedAddress\":\"742 Highland Ave, Los Angeles, CA 90038, USA\",\"lat\":34.08473,\"lng\":-118.3382807,\"zipcode\":\"90038\",\"city\":\"Los Angeles\",\"neighborhood\":\"Hollywood\"},{\"location\":\"Grand Annex\",\"address\":\"434 W 6th St, San Pedro, \",\"formattedAddress\":\"434 W 6th St, San Pedro, CA 90731, USA\",\"neighborhood\":\"San Pedro\",\"lat\":33.7390242,\"lng\":-118.2865292,\"zipcode\":\"90731\"},{\"location\":\"Paladino's\",\"address\":\"6101 Reseda Blvd. Reseda, \",\"formattedAddress\":\"6101 Reseda Blvd, Reseda, CA 91335, USA\",\"neighborhood\":\"Reseda\",\"lat\":34.1810015,\"lng\":-118.5360363,\"zipcode\":\"91335\"},{\"location\":\"Acerogami\",\"address\":\"228 W. Second St. Pomona, \",\"formattedAddress\":\"228 W 2nd St, Pomona, CA 91766, USA\",\"neighborhood\":\"Westmont\",\"lat\":34.0575391,\"lng\":-117.751646,\"zipcode\":\"91766\"},{\"location\":\"The Colburn School of Music, Zipper Concert Hall\",\"address\":\"200 S. Grand Ave. Los Angeles, \",\"formattedAddress\":\"200 S Grand Ave, Los Angeles, CA 90012, USA\",\"lat\":34.0540038,\"lng\":-118.2498686,\"zipcode\":\"90012\",\"city\":\"Los Angeles\",\"neighborhood\":\"Downtown\"},{\"location\":\"Saint Rocke\",\"address\":\"142 Pacific Coast Highway Hermosa Beach, \",\"formattedAddress\":\"142 Pacific Coast Hwy, Hermosa Beach, CA 90254, USA\",\"neighborhood\":null,\"lat\":33.8562163,\"lng\":-118.3902128,\"zipcode\":\"90254\"},{\"location\":\"Rose Bowl\",\"address\":\"1001 Rose Bowl Dr. Pasadena, \",\"formattedAddress\":\"1001 Rose Bowl Dr, Pasadena, CA 91103, USA\",\"lat\":34.1606364,\"lng\":-118.1674865,\"zipcode\":\"91103\",\"city\":\"Pasadena\",\"neighborhood\":\"North Arroyo\"},{\"location\":\"The Baked Potato\",\"address\":\"3787 Cahuenga Blvd. W. Studio City, \",\"formattedAddress\":\"3787 Cahuenga Blvd, Studio City, CA 91604, USA\",\"neighborhood\":\"Studio City\",\"lat\":34.1366405,\"lng\":-118.3631491,\"zipcode\":\"91604\"},{\"location\":\"The Observatory\",\"address\":\"3503 S. Harbor Blvd. Santa Ana, \",\"formattedAddress\":\"3503 S Harbor Blvd, Santa Ana, CA 92704, USA\",\"neighborhood\":null,\"lat\":33.6997648,\"lng\":-117.9175717,\"zipcode\":\"92704\"},{\"location\":\"Sound Nightclub\",\"address\":\"1642 N. Las Palmas Ave. Los Angeles, \",\"formattedAddress\":\"1642 N Las Palmas Ave, Los Angeles, CA 90028, USA\",\"neighborhood\":\"Central LA\",\"lat\":34.1010027,\"lng\":-118.3357833,\"zipcode\":\"90028\"},{\"location\":\"Aero Theatre\",\"address\":\"1328 Montana Ave., Santa Monica, \",\"formattedAddress\":\"1328 Montana Ave, Santa Monica, CA 90403, USA\",\"neighborhood\":\"Wilshire Montana\",\"lat\":34.0318921,\"lng\":-118.4952572,\"zipcode\":\"90403\"},{\"location\":\"Dorothy Chandler Pavilion\",\"address\":\"135 Grand Ave, Los Angeles, \",\"formattedAddress\":\"135 S Grand Ave, Los Angeles, CA 90012, USA\",\"neighborhood\":\"Downtown\",\"lat\":34.0552671,\"lng\":-118.2490979,\"zipcode\":\"90012\"},{\"location\":\"International Printing Museum\",\"address\":\"315 W. Torrance Blvd. Carson, \",\"formattedAddress\":\"315 W Torrance Blvd, Carson, CA 90745, USA\",\"neighborhood\":null,\"lat\":33.8423643,\"lng\":-118.2822856,\"zipcode\":\"90745\"},{\"location\":\"Southwest Museum, Mount Washington Campus\",\"address\":\"234 Museum Dr. Los Angeles, \",\"formattedAddress\":\"234 Museum Dr, Los Angeles, CA 90065, USA\",\"neighborhood\":\"Northeast Los Angeles\",\"lat\":34.1004316,\"lng\":-118.2061763,\"zipcode\":\"90065\"},{\"location\":\"Short Stop\",\"address\":\"1455 Sunset Blvd. Los Angeles, \",\"formattedAddress\":\"1455 Sunset Blvd, Los Angeles, CA 90026, USA\",\"neighborhood\":\"Echo Park\",\"lat\":34.0753537,\"lng\":-118.2535265,\"zipcode\":\"90026\"},{\"location\":\"Long Beach Terrace Theater\",\"address\":\"300 E. Ocean Blvd. Long Beach, \",\"formattedAddress\":\"300 E Ocean Blvd, Long Beach, CA 90802, USA\",\"neighborhood\":\"Waterfront\",\"lat\":33.76520350000001,\"lng\":-118.1893341,\"zipcode\":\"90802\"},{\"location\":\"Vibrato Grill & Jazz\",\"address\":\"2930 Beverly Glen Circle Bel-Air, \",\"formattedAddress\":\"2930 Beverly Glen Cir, Los Angeles, CA 90077, USA\",\"neighborhood\":null,\"lat\":34.1272598,\"lng\":-118.4445141,\"zipcode\":\"90077\"},{\"location\":\"REDCAT: Roy & Edna Disney/CalArts Theater\",\"address\":\"631 W. Second St. Los Angeles, \",\"formattedAddress\":\"631 W 2nd St, Los Angeles, CA 90012, USA\",\"neighborhood\":\"Downtown\",\"lat\":34.0550997,\"lng\":-118.2505889,\"zipcode\":\"90012\"},{\"location\":\"Alex Theatre\",\"address\":\"216 N. Brand Blvd. Glendale, \",\"formattedAddress\":\"216 N Brand Blvd, Glendale, CA 91203, USA\",\"neighborhood\":\"Downtown\",\"lat\":34.1488644,\"lng\":-118.2548412,\"zipcode\":\"91203\"},{\"location\":\"The Hotel Cafe\",\"address\":\"1623 1/2 N. Cahuenga Blvd. Los Angeles, \",\"formattedAddress\":\"1623 N Cahuenga Blvd, Los Angeles, CA 90028, USA\",\"neighborhood\":\"Hollywood\",\"lat\":34.1004371,\"lng\":-118.329829,\"zipcode\":\"90028\"},{\"location\":\"The Rose\",\"address\":\"245 E. Green St. Pasadena, \",\"formattedAddress\":\"245 E Green St, Pasadena, CA 91101, USA\",\"neighborhood\":null,\"lat\":34.1445579,\"lng\":-118.1450515,\"zipcode\":\"91101\"},{\"location\":\"Ernie Howlett Park\",\"address\":\"25851 Hawthorne Blvd. Rolling Hills Estates, \",\"formattedAddress\":\"25851 Hawthorne Blvd, Rolling Hills Estates, CA 90274, USA\",\"lat\":33.7908241,\"lng\":-118.3541776,\"zipcode\":\"90274\",\"city\":\"Rolling Hills Estates\"},{\"location\":\"Aratani Japan America Theatre\",\"address\":\"244 S. San Pedro St. Los Angeles, \",\"formattedAddress\":\"244 S San Pedro St, Los Angeles, CA 90012, USA\",\"neighborhood\":\"Downtown\",\"lat\":34.04778,\"lng\":-118.2418045,\"zipcode\":\"90012\"},{\"location\":\"Janet & Ray Scherr Forum Theatre\",\"address\":\"2100 E. Thousand Oaks Blvd. Thousand Oaks, \",\"formattedAddress\":\"2100 Thousand Oaks Blvd, Thousand Oaks, CA 91362, USA\",\"neighborhood\":null,\"lat\":34.1746462,\"lng\":-118.848904,\"zipcode\":\"91362\"},{\"location\":\"UCLA, Royce Hall\",\"address\":\"340 Royce Dr. Westwood, \",\"formattedAddress\":\"340 Royce Dr, Los Angeles, CA 90095, USA\",\"neighborhood\":\"Westwood\",\"lat\":34.0728242,\"lng\":-118.4421682,\"zipcode\":\"90095\"},{\"location\":\"Shrine Auditorium & Expo Hall\",\"address\":\"665 W. Jefferson Blvd. Los Angeles, \",\"formattedAddress\":\"665 W Jefferson Blvd, Los Angeles, CA 90007, USA\",\"neighborhood\":\"South Los Angeles\",\"lat\":34.0236612,\"lng\":-118.2812202,\"zipcode\":\"90007\"},{\"location\":\"Au Lac\",\"address\":\"710 W. First St. Los Angeles, \",\"formattedAddress\":\"710 W 1st St, Los Angeles, CA 90012, USA\",\"neighborhood\":\"Downtown\",\"lat\":34.05623300000001,\"lng\":-118.250806,\"zipcode\":\"90012\"},{\"location\":\"HM157\",\"address\":\"3110 N. Broadway Los Angeles, \",\"formattedAddress\":\"3110 N Broadway, Los Angeles, CA 90031, USA\",\"neighborhood\":\"Montecito Heights\",\"lat\":34.0734152,\"lng\":-118.2086977,\"zipcode\":\"90031\"},{\"location\":\"Pappy & Harriet's Pioneertown Palace\",\"address\":\"53688 Pioneertown Rd. Pioneertown, \",\"formattedAddress\":\"53688 Pioneertown Rd, Pioneertown, CA 92268, USA\",\"neighborhood\":null,\"lat\":34.156559,\"lng\":-116.4930662,\"zipcode\":\"92268\"},{\"location\":\"Gaslamp Restaurant & Bar\",\"address\":\"6251 E. Pacific Coast Highway Long Beach, \",\"formattedAddress\":\"6251 E Pacific Coast Hwy, Long Beach, CA 90803, USA\",\"neighborhood\":\"Marina\",\"lat\":33.7671249,\"lng\":-118.1163545,\"zipcode\":\"90803\"},{\"location\":\"Center for the Arts Eagle Rock\",\"address\":\"2225 Colorado Blvd., Los Angeles, \",\"formattedAddress\":\"2225 Colorado Blvd, Los Angeles, CA 90041, USA\",\"neighborhood\":\"Northeast Los Angeles\",\"lat\":34.1396227,\"lng\":-118.2149175,\"zipcode\":\"90041\"},{\"location\":\"Molly Malone's\",\"address\":\"575 S. Fairfax Ave. Los Angeles, \",\"formattedAddress\":\"575 S Fairfax Ave, Los Angeles, CA 90036, USA\",\"neighborhood\":\"Carthay Circle\",\"lat\":34.065287,\"lng\":-118.361697,\"zipcode\":\"90036\"},{\"location\":\"Pershing Square\",\"address\":\"532 S. Olive St. Los Angeles, \",\"formattedAddress\":\"532 S Olive St, Los Angeles, CA 90013, USA\",\"lat\":34.0485099,\"lng\":-118.2532776,\"zipcode\":\"90013\",\"city\":\"Los Angeles\",\"neighborhood\":\"Downtown\"},{\"location\":\"Will Geer Theatricum Botanicum\",\"address\":\"1419 N. Topanga Canyon Blvd. Topanga, \",\"formattedAddress\":\"1419 N Topanga Canyon Blvd, Topanga, CA 90290, USA\",\"lat\":34.1108513,\"lng\":-118.5928551,\"zipcode\":\"90290\",\"city\":\"Topanga\"},{\"location\":\"ROW DTLA\",\"address\":\"777 S. Alameda St. Los Angeles, CA\",\"formattedAddress\":\"777 S Alameda St, Los Angeles, CA 90021, USA\",\"neighborhood\":\"Downtown\",\"lat\":34.0314345,\"lng\":-118.2388605,\"zipcode\":\"90021\"},{\"location\":\"Trepany House at the Steve Allen Theater\",\"address\":\"4773 Hollywood Blvd. Los Angeles, \",\"formattedAddress\":\"4773 Hollywood Blvd, Los Angeles, CA 90027, USA\",\"neighborhood\":\"Los Feliz\",\"lat\":34.102083,\"lng\":-118.2940281,\"zipcode\":\"90027\"},{\"location\":\"UCB Sunset\",\"address\":\"5419 W. Sunset Blvd. Los Angeles, \",\"formattedAddress\":\"5419 Sunset Blvd, Los Angeles, CA 90027, USA\",\"neighborhood\":\"Hollywood\",\"lat\":34.0984638,\"lng\":-118.3079614,\"zipcode\":\"90027\"},{\"location\":\"Tribal Cafe\",\"address\":\"1651 W. Temple St. Los Angeles, \",\"formattedAddress\":\"1651 W Temple St, Los Angeles, CA 90026, USA\",\"neighborhood\":\"Central LA\",\"lat\":34.06870980000001,\"lng\":-118.2626639,\"zipcode\":\"90026\"},{\"location\":\"La Cita\",\"address\":\"336 S. Hill St. Los Angeles, \",\"formattedAddress\":\"336 Hill St, Los Angeles, CA 90013, USA\",\"neighborhood\":\"Downtown\",\"lat\":34.0507003,\"lng\":-118.2496529,\"zipcode\":\"90013\"},{\"location\":\"Miles Memorial Playhouse\",\"address\":\"1130 Lincoln Blvd. Santa Monica, \",\"formattedAddress\":\"1130 Lincoln Blvd, Santa Monica, CA 90403, USA\",\"neighborhood\":\"Wilshire Montana\",\"lat\":34.0226618,\"lng\":-118.4956828,\"zipcode\":\"90403\"},{\"location\":\"Wallis Annenberg Center for the Performing Arts\",\"address\":\"9390 N. Santa Monica Blvd. Beverly Hills, \",\"formattedAddress\":\"9390 N Santa Monica Blvd, Beverly Hills, CA 90210, USA\",\"neighborhood\":null,\"lat\":34.07229,\"lng\":-118.4012055,\"zipcode\":\"90210\"},{\"location\":\"Los Angeles Memorial Coliseum\",\"address\":\"3911 S. Figueroa St., Los Angeles 90037, us\",\"formattedAddress\":\"3911 S Figueroa St, Los Angeles, CA 90037, USA\",\"neighborhood\":\"South Los Angeles\",\"lat\":34.0128805,\"lng\":-118.2827671,\"zipcode\":\"90037\"},{\"location\":\"Pauley Pavilion\",\"address\":\"301 Westwood Plaza, Los Angeles, \",\"formattedAddress\":\"301 Westwood Plaza, Los Angeles, CA 90095, USA\",\"neighborhood\":\"Westwood\",\"lat\":34.0702949,\"lng\":-118.4467667,\"zipcode\":\"90095\"},{\"location\":\"Rolling Hills United Methodist Church\",\"address\":\"26438 Crenshaw Blvd. Palos Verdes Peninsula, \",\"formattedAddress\":\"26438 Crenshaw Blvd, Rolling Hills, CA 90274, USA\",\"lat\":33.783095,\"lng\":-118.350654,\"zipcode\":\"90274\",\"city\":\"Rolling Hills\"},{\"location\":\"Pasadena Civic Auditorium\",\"address\":\"300 E. Green St. Pasadena, \",\"formattedAddress\":\"300 E Green St, Pasadena, CA 91101, USA\",\"neighborhood\":null,\"lat\":34.143817,\"lng\":-118.144302,\"zipcode\":\"91101\"},{\"location\":\"Vroman's Bookstore\",\"address\":\"695 E Colorado Blvd Pasadena \",\"formattedAddress\":\"695 E Colorado Blvd, Pasadena, CA 91101, USA\",\"lat\":34.14628150000001,\"lng\":-118.1361812,\"zipcode\":\"91101\",\"city\":\"Pasadena\"},{\"location\":\"1739 Public House\",\"address\":\"1739 N. Vermont Ave. Los Angeles, \",\"formattedAddress\":\"1739 N Vermont Ave, Los Angeles, CA 90027, USA\",\"neighborhood\":\"Los Feliz\",\"lat\":34.1027271,\"lng\":-118.2920773,\"zipcode\":\"90027\"},{\"location\":\"Burbank Moose Lodge\",\"address\":\"1901 W. Burbank Blvd. Burbank, \",\"formattedAddress\":\"1901 W Burbank Blvd, Burbank, CA 91506, USA\",\"neighborhood\":null,\"lat\":34.1811226,\"lng\":-118.3317986,\"zipcode\":\"91506\"},{\"location\":\"Harvard & Stone\",\"address\":\"5221 Hollywood Blvd. Los Angeles, \",\"formattedAddress\":\"5221 Hollywood Blvd, Los Angeles, CA 90027, USA\",\"lat\":34.1019041,\"lng\":-118.3042997,\"zipcode\":\"90027\",\"city\":\"Los Angeles\",\"neighborhood\":\"Los Feliz\"},{\"location\":\"Bardot Hollywood\",\"address\":\"1737 N. Vine St. Los Angeles, \",\"formattedAddress\":\"1737 Vine St, Los Angeles, CA 90028, USA\",\"neighborhood\":\"Hollywood\",\"lat\":34.1027999,\"lng\":-118.3267113,\"zipcode\":\"90028\"},{\"location\":\"Genghis Cohen\",\"address\":\"740 N. Fairfax Ave. Los Angeles, \",\"formattedAddress\":\"740 N Fairfax Ave, Los Angeles, CA 90046, USA\",\"neighborhood\":\"Fairfax\",\"lat\":34.0850767,\"lng\":-118.3611139,\"zipcode\":\"90046\"},{\"location\":\"OMGC Parish\",\"address\":\"2060 N Vermont Ave. Los Angeles, \",\"formattedAddress\":\"2060 N Vermont Ave, Los Angeles, CA 90027, USA\",\"neighborhood\":\"Los Feliz\",\"lat\":34.1096399,\"lng\":-118.2917124,\"zipcode\":\"90027\"},{\"location\":\"The Warehouse Restaurant\",\"address\":\"4499 Admiralty Way Marina del Rey, \",\"formattedAddress\":\"4499 Admiralty Way, Marina Del Rey, CA 90292, USA\",\"neighborhood\":null,\"lat\":33.9829529,\"lng\":-118.4444626,\"zipcode\":\"90292\"},{\"location\":\"Grand Park\",\"address\":\"200 N. Grand Ave. Los Angeles, \",\"formattedAddress\":\"200 N Grand Ave, Los Angeles, CA 90012, USA\",\"lat\":34.0562797,\"lng\":-118.2467434,\"zipcode\":\"90012\",\"city\":\"Los Angeles\",\"neighborhood\":\"Central LA\"},{\"location\":\"Shomrei Torah Synagogue\",\"address\":\"7353 Valley Circle Blvd. West Hills, \",\"formattedAddress\":\"7353 Valley Cir Blvd, West Hills, CA 91304, USA\",\"lat\":34.2061873,\"lng\":-118.6544053,\"zipcode\":\"91304\",\"city\":\"Los Angeles\",\"neighborhood\":\"West Hills\"},{\"location\":\"Villain's Tavern\",\"address\":\"1356 Palmetto St. Los Angeles, \",\"formattedAddress\":\"1356 Palmetto St, Los Angeles, CA 90013, USA\",\"neighborhood\":\"Central LA\",\"lat\":34.0401415,\"lng\":-118.2309452,\"zipcode\":\"90013\"},{\"location\":\"Milkmade\",\"address\":\"1413 Abbot Kinney Blvd. Venice, \",\"formattedAddress\":\"1413 Abbot Kinney Blvd, Venice, CA 90291, USA\",\"neighborhood\":\"Venice\",\"lat\":33.99070450000001,\"lng\":-118.4655091,\"zipcode\":\"90291\"},{\"location\":\"Caliber Collision\",\"address\":\"3020 Riverside Dr. Los Angeles, \",\"formattedAddress\":\"3020 Riverside Dr, Los Angeles, CA 90039, USA\",\"lat\":34.111901,\"lng\":-118.2673221,\"zipcode\":\"90039\",\"city\":\"Los Angeles\",\"neighborhood\":\"Silver Lake\"},{\"location\":\"Sur Restaurant & Grill\",\"address\":\"606 N. Robertson Blvd. West Hollywood, \",\"formattedAddress\":\"606 N Robertson Blvd, West Hollywood, CA 90069, USA\",\"neighborhood\":\"Central LA\",\"lat\":34.0812107,\"lng\":-118.3852167,\"zipcode\":\"90069\"},{\"location\":\"Edgemar Center for the Arts\",\"address\":\"2437 Main St. Santa Monica, \",\"formattedAddress\":\"2437 Main St, Santa Monica, CA 90405, USA\",\"neighborhood\":\"Ocean Park\",\"lat\":34.0035616,\"lng\":-118.4847408,\"zipcode\":\"90405\"},{\"location\":\"West Hollywood Library\",\"address\":\"625 N. San Vicente Blvd. Community Room West Hollywood, \",\"formattedAddress\":\"625 N San Vicente Blvd, West Hollywood, CA 90069, USA\",\"lat\":34.0818442,\"lng\":-118.384113,\"zipcode\":\"90069\",\"city\":\"West Hollywood\",\"neighborhood\":\"Central LA\"},{\"location\":\"LA Plaza de Cultura y Artes\",\"address\":\"501 N. Main St. Los Angeles, \",\"formattedAddress\":\"501 N Main St, Los Angeles, CA 90012, USA\",\"lat\":34.0564554,\"lng\":-118.2398448,\"zipcode\":\"90012\",\"city\":\"Los Angeles\",\"neighborhood\":\"Central LA\"},{\"location\":\"El Cid\",\"address\":\"4212 W. Sunset Blvd. Los Angeles, \",\"formattedAddress\":\"4212 Sunset Blvd, Los Angeles, CA 90029, USA\",\"neighborhood\":\"Silver Lake\",\"lat\":34.0938296,\"lng\":-118.2824137,\"zipcode\":\"90029\"},{\"location\":\"PIPS Pizza Pasta Salads\",\"address\":\"1356 S. La Brea Ave. Los Angeles, \",\"formattedAddress\":\"1356 S La Brea Ave, Los Angeles, CA 90019, USA\",\"neighborhood\":\"Mid-Wilshire\",\"lat\":34.0484744,\"lng\":-118.3441902,\"zipcode\":\"90019\"},{\"location\":\"Staples Center\",\"address\":\"1111 S. Figueroa St. Los Angeles, \",\"formattedAddress\":\"1111 S Figueroa St, Los Angeles, CA 90015, USA\",\"neighborhood\":\"Downtown\",\"lat\":34.043125,\"lng\":-118.267118,\"zipcode\":\"90015\"},{\"location\":\"Club Fais Do-Do\",\"address\":\"5257 W. Adams Blvd. Los Angeles, \",\"formattedAddress\":\"5257 W Adams Blvd, Los Angeles, CA 90016, USA\",\"neighborhood\":null,\"lat\":34.0327355,\"lng\":-118.3571064,\"zipcode\":\"90016\"},{\"location\":\"Busby's East\",\"address\":\"5364 Wilshire Blvd. Los Angeles, \",\"formattedAddress\":\"5364 Wilshire Blvd, Los Angeles, CA 90036, USA\",\"lat\":34.0619906,\"lng\":-118.3458395,\"zipcode\":\"90036\",\"city\":\"Los Angeles\",\"neighborhood\":\"Central LA\"},{\"location\":\"L.A. Weekly\",\"address\":\"3861 Sepulveda Blvd. Culver City, \",\"formattedAddress\":\"3861 Sepulveda Blvd, Culver City, CA 90230, USA\",\"neighborhood\":\"Clarkdale\",\"lat\":34.0111894,\"lng\":-118.4162464,\"zipcode\":\"90230\"},{\"location\":\"Multiple Locations\",\"address\":\"Multiple Locations Greater Los Angeles, California 90001 415-512-0151\"},{\"location\":\"Multiple Locations\",\"address\":\"Multiple Locations Greater Los Angeles, California 90001 415-512-0151\"},{\"location\":\"Homibing\",\"address\":\"3300 W. Sixth St. Los Angeles, \",\"formattedAddress\":\"3300 W 6th St, Los Angeles, CA 90020, USA\",\"lat\":34.06341099999999,\"lng\":-118.2943457,\"zipcode\":\"90020\",\"city\":\"Los Angeles\",\"neighborhood\":\"Central LA\"},{\"location\":\"Gender Free Arts\",\"address\":\"1732 Aviation Blvd. Redondo Beach, \",\"formattedAddress\":\"1732 Aviation Blvd, Redondo Beach, CA 90278, USA\",\"lat\":33.8716714,\"lng\":-118.3812209,\"zipcode\":\"90278\",\"city\":\"Redondo Beach\",\"neighborhood\":\"North Redondo\"},{\"location\":\"Escape Room L.A.\",\"address\":\"120 E. 8th St Los Angeles, \",\"formattedAddress\":\"120 E 8th St, Los Angeles, CA 90014, USA\",\"neighborhood\":\"Downtown\",\"lat\":34.0420721,\"lng\":-118.2528292,\"zipcode\":\"90014\"},{\"location\":\"Eric Buterbaugh Gallery\",\"address\":\"8271 Beverly Blvd Los Angeles, California 90048 323-651-9844\",\"formattedAddress\":\"8271 Beverly Blvd, Los Angeles, CA 90048, USA\",\"neighborhood\":\"Beverly Grove\",\"lat\":34.0763457,\"lng\":-118.3697214,\"zipcode\":\"90048\"},{\"location\":\"The Comedy Store\",\"address\":\"8433 W. Sunset Blvd. Los Angeles, \",\"formattedAddress\":\"8433 Sunset Blvd, West Hollywood, CA 90069, USA\",\"neighborhood\":\"Sunset Strip\",\"lat\":34.095169,\"lng\":-118.3740423,\"zipcode\":\"90069\"},{\"location\":\"The Pack Theater\",\"address\":\"6470 Santa Monica Blvd. Hollywood, California 90038\",\"formattedAddress\":\"6470 Santa Monica Blvd, Los Angeles, CA 90038, USA\",\"neighborhood\":\"Hollywood\",\"lat\":34.0905344,\"lng\":-118.3306225,\"zipcode\":\"90038\"},{\"location\":\"Blitzstein Museum of Art\",\"address\":\"428 N. Fairfax Ave. Los Angeles, \",\"formattedAddress\":\"428 N Fairfax Ave, Los Angeles, CA 90036, USA\",\"lat\":34.0790993,\"lng\":-118.3611352,\"zipcode\":\"90036\",\"city\":\"Los Angeles\",\"neighborhood\":\"Central LA\"},{\"location\":\"The Kibitz Room\",\"address\":\"419 N. Fairfax Ave. Los Angeles, \",\"formattedAddress\":\"419 N Fairfax Ave, Los Angeles, CA 90036, USA\",\"neighborhood\":\"Central LA\",\"lat\":34.0789742,\"lng\":-118.361875,\"zipcode\":\"90036\"},{\"location\":\"The Redwood Bar & Grill\",\"address\":\"316 W. Second St. Los Angeles, \",\"formattedAddress\":\"316 W 2nd St, Los Angeles, CA 90012, USA\",\"neighborhood\":\"Downtown\",\"lat\":34.0526005,\"lng\":-118.2474909,\"zipcode\":\"90012\"},{\"location\":\"The Help Group Autism Center Theater\",\"address\":\"13164 Burbank Blvd. Van Nuys, \",\"formattedAddress\":\"13164 Burbank Blvd, Van Nuys, CA 91401, USA\",\"neighborhood\":\"Van Nuys\",\"lat\":34.1716122,\"lng\":-118.4203441,\"zipcode\":\"91401\"},{\"location\":\"Don Chente Bar, Grill & Lounge\",\"address\":\"248 S. Figueroa St. Los Angeles, \",\"formattedAddress\":\"248 S Figueroa St, Los Angeles, CA 90012, USA\",\"neighborhood\":\"Central LA\",\"lat\":34.0558862,\"lng\":-118.2537877,\"zipcode\":\"90012\"},{\"location\":\"Edemar center\",\"address\":\"2437 main st Santa Monica, \",\"formattedAddress\":\"2437 Main St, Santa Monica, CA 90405, USA\",\"lat\":34.0035616,\"lng\":-118.4847408,\"zipcode\":\"90405\",\"city\":\"Santa Monica\",\"neighborhood\":\"Ocean Park\"},{\"location\":\"First Independent Gallery (FIG)\",\"address\":\"2525 Michigan Ave., G6 Santa Monica, \",\"formattedAddress\":\"2525 Michigan Ave, Santa Monica, CA 90405, USA\",\"neighborhood\":\"Pico\",\"lat\":34.02778929999999,\"lng\":-118.4684355,\"zipcode\":\"90405\"},{\"location\":\"Cinespace\",\"address\":\"6356 Hollywood Blvd. Los Angeles, \",\"formattedAddress\":\"6356 Hollywood Blvd, Los Angeles, CA 90028, USA\",\"neighborhood\":\"Hollywood\",\"lat\":34.101267,\"lng\":-118.328501,\"zipcode\":\"90028\"},{\"location\":\"Westwood Village\",\"address\":\"1031 Broxton Ave Los Angeles, CA California 90024 310-470-1812\",\"formattedAddress\":\"1031 Broxton Ave, Los Angeles, CA 90024, USA\",\"neighborhood\":\"Westwood\",\"lat\":34.0618175,\"lng\":-118.4465493,\"zipcode\":\"90024\"},{\"location\":\"Largo at the Coronet\",\"address\":\"366 N. La Cienega Blvd. Los Angeles, \",\"formattedAddress\":\"366 N La Cienega Blvd, Los Angeles, CA 90048, USA\",\"neighborhood\":\"Central LA\",\"lat\":34.0778713,\"lng\":-118.3763218,\"zipcode\":\"90048\"},{\"location\":\"Descanso Beach Club\",\"address\":\"1 St. Catherine Way Avalon, \",\"formattedAddress\":\"1 St Catherine Way, Avalon, CA 90704, USA\",\"lat\":33.350429,\"lng\":-118.328838,\"zipcode\":\"90704\",\"city\":\"Avalon\"},{\"location\":\"Drake Stadium\",\"address\":\"340 Charles E. Young Drive North Los Angeles, \",\"formattedAddress\":\"340 Charles E Young Dr N, Los Angeles, CA 90024, USA\",\"lat\":34.0754045,\"lng\":-118.4444107,\"zipcode\":\"90024\",\"city\":\"Los Angeles\",\"neighborhood\":\"Westwood\"},{\"location\":\"The Belasco Theater\",\"address\":\"1050 S. Hill St. Los Angeles, \",\"formattedAddress\":\"1050 Hill St, Los Angeles, CA 90015, USA\",\"neighborhood\":\"Downtown\",\"lat\":34.0402556,\"lng\":-118.2592519,\"zipcode\":\"90015\"},{\"location\":\"Avalon Casino Ballroom\",\"address\":\"1 Casino Way Avalon \",\"formattedAddress\":\"1 Casino Way, Avalon, CA 90704, USA\",\"lat\":33.3490013,\"lng\":-118.3256507,\"zipcode\":\"90704\",\"city\":\"Avalon\"},{\"location\":\"Boardner's\",\"address\":\"1652 N. Cherokee Ave. Los Angeles, \",\"formattedAddress\":\"1652 N Cherokee Ave, Los Angeles, CA 90028, USA\",\"neighborhood\":\"Central LA\",\"lat\":34.1011525,\"lng\":-118.3349334,\"zipcode\":\"90028\"},{\"location\":\"University of Philosophical Research\",\"address\":\"3910 Los Feliz Blvd. Los Angeles, \",\"formattedAddress\":\"3910 Los Feliz Blvd, Los Angeles, CA 90027, USA\",\"lat\":34.1131146,\"lng\":-118.2775278,\"zipcode\":\"90027\",\"city\":\"Los Angeles\",\"neighborhood\":\"Los Feliz\"},{\"location\":\"Immanuel Presbyterian Church\",\"address\":\"3300 Wilshire Blvd. Los Angeles, \",\"formattedAddress\":\"3300 Wilshire Blvd, Los Angeles, CA 90010, USA\",\"lat\":34.0614542,\"lng\":-118.294485,\"zipcode\":\"90010\",\"city\":\"Los Angeles\",\"neighborhood\":\"Koreatown\"},{\"location\":\"Ambassador Auditorium\",\"address\":\"131 S. St. John Ave. Pasadena, \",\"formattedAddress\":\"131 S St John Ave, Pasadena, CA 91123, USA\",\"neighborhood\":\"Northeast Los Angeles\",\"lat\":34.1433765,\"lng\":-118.1565116,\"zipcode\":\"91123\"},{\"location\":\"Brand Library & Art Center\",\"address\":\"1601 W. Mountain St. Glendale, \",\"formattedAddress\":\"1601 W Mountain St, Glendale, CA 91201, USA\",\"neighborhood\":\"Verdugo Mountains\",\"lat\":34.1826353,\"lng\":-118.2764402,\"zipcode\":\"91201\"},{\"location\":\"El Portal Theatre\",\"address\":\"5269 Lankershim Blvd. North Hollywood, \",\"formattedAddress\":\"5269 Lankershim Blvd, North Hollywood, CA 91601, USA\",\"neighborhood\":\"North Hollywood\",\"lat\":34.1667182,\"lng\":-118.3762649,\"zipcode\":\"91601\"},{\"location\":\"Oyster House Saloon\",\"address\":\"12446 Moorpark St. Studio City, \",\"formattedAddress\":\"12446 Moorpark St, Studio City, CA 91604, USA\",\"neighborhood\":\"Studio City\",\"lat\":34.1501758,\"lng\":-118.4047244,\"zipcode\":\"91604\"},{\"location\":\"The Federal Bar\",\"address\":\"102 Pine Ave. Long Beach, \",\"formattedAddress\":\"102 Pine Ave, Long Beach, CA 90802, USA\",\"neighborhood\":\"Downtown\",\"lat\":33.7682406,\"lng\":-118.1920563,\"zipcode\":\"90802\"},{\"location\":\"Woodley Park\",\"address\":\"6350 Woodley Ave. Van Nuys, \",\"formattedAddress\":\"6350 Woodley Ave, Van Nuys, CA 91436, USA\",\"neighborhood\":\"Van Nuys\",\"lat\":34.1786563,\"lng\":-118.4764638,\"zipcode\":\"91436\"},{\"location\":\"Santa Anita Park\",\"address\":\"285 W. Huntington Dr. Arcadia, \",\"formattedAddress\":\"285 W Huntington Dr, Arcadia, CA 91007, USA\",\"lat\":34.1365782,\"lng\":-118.0408645,\"zipcode\":\"91007\",\"city\":\"Arcadia\"},{\"location\":\"Rogue Machine Theatre\",\"address\":\"1089 N. Oxford Ave. Los Angeles, \",\"formattedAddress\":\"1089 N Oxford Ave, Los Angeles, CA 90029, USA\",\"neighborhood\":\"Hollywood\",\"lat\":34.0905481,\"lng\":-118.3079128,\"zipcode\":\"90029\"},{\"location\":\"Wanderlust Hollywood\",\"address\":\"1357 Highland Avenue Los Angeles \",\"formattedAddress\":\"1357 Highland Ave, Los Angeles, CA 90028, USA\",\"lat\":34.0960277,\"lng\":-118.3390188,\"zipcode\":\"90028\",\"city\":\"Los Angeles\",\"neighborhood\":\"Hollywood\"},{\"location\":\"The Road on Magnolia\",\"address\":\"10747 Magnolia Blvd. Los Angeles, \",\"formattedAddress\":\"10747 W Magnolia Blvd, Los Angeles, CA 91601, USA\",\"lat\":34.1656166,\"lng\":-118.3650552,\"zipcode\":\"91601\",\"city\":\"Los Angeles\",\"neighborhood\":\"NoHo Arts District\"},{\"location\":\"Zombie Joe's Underground Theatre\",\"address\":\"4850 Lankershim Blvd. North Hollywood, \",\"formattedAddress\":\"4850 Lankershim Blvd, North Hollywood, CA 91601, USA\",\"neighborhood\":\"North Hollywood\",\"lat\":34.1591794,\"lng\":-118.3708756,\"zipcode\":\"91601\"},{\"location\":\"Celebration Theatre\",\"address\":\"6760 Lexington Ave. Los Angeles, \",\"formattedAddress\":\"6760 Lexington Ave, Los Angeles, CA 90038, USA\",\"neighborhood\":\"Central LA\",\"lat\":34.092476,\"lng\":-118.3377019,\"zipcode\":\"90038\"},{\"location\":\"Edgemar center\",\"address\":\"2437 main st Santa Monica, CALIFORNIA 90405 310-399-3666\",\"formattedAddress\":\"2437 Main St, Santa Monica, CA 90405, USA\",\"neighborhood\":\"Ocean Park\",\"lat\":34.0035616,\"lng\":-118.4847408,\"zipcode\":\"90405\"},{\"location\":\"Westfield Valencia Town Center\",\"address\":\"24201 Valencia Blvd. Valencia, \",\"formattedAddress\":\"24201 Valencia Blvd, Valencia, CA 91355, USA\",\"neighborhood\":\"Valencia\",\"lat\":34.4176299,\"lng\":-118.5608039,\"zipcode\":\"91355\"},{\"location\":\"Riviera 31\",\"address\":\"Hotel Sofitel, 8555 Beverly Blvd. Los Angeles, California 90048 310-278-5444\",\"formattedAddress\":\"8555 Beverly Blvd, Los Angeles, CA 90048, USA\",\"neighborhood\":\"Central LA\",\"lat\":34.0763642,\"lng\":-118.3774949,\"zipcode\":\"90048\"},{\"location\":\"Oeno Vino Wine Shop & Bar\",\"address\":\"3111 Glendale Blvd. #2 Los Angeles (Atwater Village), \",\"formattedAddress\":\"3111 Glendale Blvd #2, Los Angeles, CA 90039, USA\",\"lat\":34.1162782,\"lng\":-118.2628216,\"zipcode\":\"90039\",\"city\":\"Los Angeles\",\"neighborhood\":\"Northeast Los Angeles\"},{\"location\":\"California Science Center\",\"address\":\"700 Exposition Park Dr. Los Angeles, \",\"formattedAddress\":\"700 Exposition Park Dr, Los Angeles, CA 90037, USA\",\"neighborhood\":\"South Los Angeles\",\"lat\":34.0157877,\"lng\":-118.2862095,\"zipcode\":\"90037\"},{\"location\":\"Aquarium of the Pacific\",\"address\":\"100 Aquarium Way Long Beach, \",\"formattedAddress\":\"100 Aquarium Way, Long Beach, CA 90802, USA\",\"neighborhood\":\"Waterfront\",\"lat\":33.7621452,\"lng\":-118.1969144,\"zipcode\":\"90802\"},{\"location\":\"Escape Hotel Hollywood\",\"address\":\"6633 Hollywood Blvd. Los Angeles, \",\"formattedAddress\":\"6633 Hollywood Blvd, Los Angeles, CA 90028, USA\",\"lat\":34.1017827,\"lng\":-118.3345105,\"zipcode\":\"90028\",\"city\":\"Los Angeles\",\"neighborhood\":\"Hollywood\"},{\"location\":\"The Down & Out\",\"address\":\"501 S. Spring St. Los Angeles, \",\"formattedAddress\":\"501 S Spring St, Los Angeles, CA 90013, USA\",\"neighborhood\":\"Downtown\",\"lat\":34.0472554,\"lng\":-118.2500328,\"zipcode\":\"90013\"},{\"location\":\"The Paley Center for Media\",\"address\":\"465 N. Beverly Dr. Beverly Hills, \",\"formattedAddress\":\"465 N Beverly Dr, Beverly Hills, CA 90210, USA\",\"neighborhood\":null,\"lat\":34.0708996,\"lng\":-118.4033802,\"zipcode\":\"90210\"},{\"location\":\"Sassafras Saloon\",\"address\":\"1233 Vine St. Los Angeles, \",\"formattedAddress\":\"1233 Vine St, Los Angeles, CA 90038, USA\",\"neighborhood\":\"Hollywood\",\"lat\":34.0935264,\"lng\":-118.3272668,\"zipcode\":\"90038\"},{\"location\":\"Flight Theatre at The Complex\",\"address\":\"6472 Santa Monica Blvd. Los Angeles, \",\"formattedAddress\":\"6472 Santa Monica Blvd, Los Angeles, CA 90038, USA\",\"neighborhood\":\"Hollywood\",\"lat\":34.0905339,\"lng\":-118.3306436,\"zipcode\":\"90038\"},{\"location\":\"Metro Green Meds\",\"address\":\"1616 S Los Angeles St. Los Angeles, \",\"formattedAddress\":\"1616 S Los Angeles St, Los Angeles, CA 90015, USA\",\"neighborhood\":\"Downtown\",\"lat\":34.032437,\"lng\":-118.2617022,\"zipcode\":\"90015\"},{\"location\":\"Gardenia Restaurant & Lounge\",\"address\":\"7066 Santa Monica Blvd. Los Angeles, \",\"formattedAddress\":\"7066 Santa Monica Blvd, West Hollywood, CA 90038, USA\",\"neighborhood\":\"Hollywood\",\"lat\":34.0907143,\"lng\":-118.3433321,\"zipcode\":\"90038\"},{\"location\":\"Rafa's Lounge\",\"address\":\"1836 W. Sunset Blvd. Los Angeles, \",\"formattedAddress\":\"1836 Sunset Blvd, Los Angeles, CA 90026, USA\",\"neighborhood\":\"Echo Park\",\"lat\":34.0778325,\"lng\":-118.2603935,\"zipcode\":\"90026\"},{\"location\":\"The Mayan\",\"address\":\"1038 S. Hill St. Los Angeles, \",\"formattedAddress\":\"1038 Hill St, Los Angeles, CA 90015, USA\",\"lat\":34.0405255,\"lng\":-118.2591274,\"zipcode\":\"90015\",\"city\":\"Los Angeles\",\"neighborhood\":\"Downtown\"},{\"location\":\"The Beverly O'Neill Theater\",\"address\":\"300 E. Ocean Blvd., Long Beach Convention & Entertainment Center Long Beach, \",\"formattedAddress\":\"300 E Ocean Blvd, Long Beach, CA 90802, USA\",\"neighborhood\":\"Waterfront\",\"lat\":33.7652636,\"lng\":-118.1893385,\"zipcode\":\"90802\"},{\"location\":\"Falcon Theatre\",\"address\":\"4252 Riverside Dr. Burbank, \",\"formattedAddress\":\"4252 Riverside Dr, Burbank, CA 91505, USA\",\"neighborhood\":\"Central LA\",\"lat\":34.1522672,\"lng\":-118.3459305,\"zipcode\":\"91505\"},{\"location\":\"Vespaio\",\"address\":\"225 S Grand Ave Los Angeles, \",\"formattedAddress\":\"225 S Grand Ave, Los Angeles, CA 90012, USA\",\"neighborhood\":\"Downtown\",\"lat\":34.054058,\"lng\":-118.251161,\"zipcode\":\"90012\"},{\"location\":\"AMC Orange 30 (AMC Block 30)\",\"address\":\"20 City Blvd. W. Orange, \",\"formattedAddress\":\"20 City Blvd W, Orange, CA 92868, USA\",\"neighborhood\":\"Anaheim Resort\",\"lat\":33.7848294,\"lng\":-117.8935314,\"zipcode\":\"92868\"},{\"location\":\"KM Fine Arts\",\"address\":\"814 N. La Cienega Blvd. Los Angeles, \",\"formattedAddress\":\"814 N La Cienega Blvd, Los Angeles, CA 90069, USA\",\"neighborhood\":\"Central LA\",\"lat\":34.0858048,\"lng\":-118.3761705,\"zipcode\":\"90069\"},{\"location\":\"California Institute of Abnormal Arts (C.I.A.)\",\"address\":\"11334 Burbank Blvd. North Hollywood, \",\"formattedAddress\":\"11334 Burbank Blvd, North Hollywood, CA 91601, USA\",\"neighborhood\":\"North Hollywood\",\"lat\":34.1719873,\"lng\":-118.3774298,\"zipcode\":\"91601\"},{\"location\":\"The Peppermint Club\",\"address\":\"8713 Beverly Blvd. West Hollywood, \",\"formattedAddress\":\"8713 Beverly Blvd, West Hollywood, CA 90048, USA\",\"lat\":34.0771589,\"lng\":-118.3809607,\"zipcode\":\"90048\",\"city\":\"West Hollywood\",\"neighborhood\":\"Central LA\"},{\"location\":\"L.A. Workers Center\",\"address\":\"1251 S. St. Andrews Place, Los Angeles, \",\"formattedAddress\":\"1251 S St Andrews Pl, Los Angeles, CA 90019, USA\",\"neighborhood\":\"Central LA\",\"lat\":34.0475834,\"lng\":-118.3120182,\"zipcode\":\"90019\"},{\"location\":\"The Escondite\",\"address\":\"410 Boyd St. Los Angeles, \",\"formattedAddress\":\"410 Boyd St, Los Angeles, CA 90013, USA\",\"neighborhood\":\"Central LA\",\"lat\":34.04609440000001,\"lng\":-118.2421687,\"zipcode\":\"90013\"},{\"location\":\"Wilshire Ebell Theatre\",\"address\":\"4401 W 8th St. Los Angeles \",\"formattedAddress\":\"4401 W 8th St, Los Angeles, CA 90005, USA\",\"neighborhood\":\"Central LA\",\"lat\":34.0609082,\"lng\":-118.3250733,\"zipcode\":\"90005\"},{\"location\":\"Beverly Gardens Park\",\"address\":\"Rodeo & N. Santa Monica Blvd. Beverly Hills, \",\"formattedAddress\":\"Historic Rte 66 & Rodeo Dr & N Rodeo Dr, Beverly Hills, CA 90210, USA\",\"lat\":34.07096480000001,\"lng\":-118.4047076,\"zipcode\":\"90210\",\"city\":\"Beverly Hills\"},{\"location\":\"San Gabriel Mission Playhouse\",\"address\":\"320 Mission Dr. San Gabriel, \",\"formattedAddress\":\"320 N Mission Dr, San Gabriel, CA 91775, USA\",\"neighborhood\":null,\"lat\":34.1068399,\"lng\":-118.1112117,\"zipcode\":\"91775\"},{\"location\":\"Grand Central Market\",\"address\":\"317 S. Broadway Los Angeles, \",\"formattedAddress\":\"317 S Broadway, Los Angeles, CA 90013, USA\",\"neighborhood\":\"Downtown\",\"lat\":34.050655,\"lng\":-118.2487951,\"zipcode\":\"90013\"},{\"location\":\"StubHub Center\",\"address\":\"18400 S. Avalon Blvd., Carson, CA, us\",\"formattedAddress\":\"18400 S Avalon Blvd, Carson, CA 90746, USA\",\"neighborhood\":null,\"lat\":33.8639438,\"lng\":-118.2660058,\"zipcode\":\"90746\"},{\"location\":\"Pierce College, Parking Lot 7\",\"address\":\"Victory Boulevard at Mason Ave. Woodland Hills, California 91306 310-422-1844\",\"formattedAddress\":\"Victory Blvd & Mason Ave, Winnetka, CA 91306, USA\",\"neighborhood\":\"Winnetka\",\"lat\":34.1884094,\"lng\":-118.5797186,\"zipcode\":\"91306\"},{\"location\":\"The Gardens Casino\",\"address\":\"11871 Carson St Hawaiian Gardens, \",\"formattedAddress\":\"11871 E Carson St, Hawaiian Gardens, CA 90716, USA\",\"lat\":33.8325706,\"lng\":-118.0789166,\"zipcode\":\"90716\",\"city\":\"Hawaiian Gardens\"},{\"location\":\"Veterans Memorial Building\",\"address\":\"4117 Overland Ave. Culver City, \",\"formattedAddress\":\"4117 Overland Ave, Culver City, CA 90230, USA\",\"neighborhood\":\"Park West\",\"lat\":34.012953,\"lng\":-118.4026083,\"zipcode\":\"90230\"},{\"location\":\"Salt's Cure\",\"address\":\"1155 N. Highland Ave. Los Angeles, \",\"formattedAddress\":\"1155 Highland Ave, Los Angeles, CA 90038, USA\",\"lat\":34.0923795,\"lng\":-118.3389548,\"zipcode\":\"90038\",\"city\":\"Los Angeles\",\"neighborhood\":\"Central LA\"},{\"location\":\"Los Angeles Marriott Burbank Airport\",\"address\":\"2500 Hollywood Way Burbank, \",\"formattedAddress\":\"2500 N Hollywood Way, Burbank, CA 91505, USA\",\"neighborhood\":\"North Hollywood\",\"lat\":34.1939677,\"lng\":-118.3482738,\"zipcode\":\"91505\"},{\"location\":\"The Copper Still\",\"address\":\"4493 Beverly Blvd. Los Angeles, \",\"formattedAddress\":\"4493 Beverly Blvd, Los Angeles, CA 90004, USA\",\"neighborhood\":\"Hollywood\",\"lat\":34.0764323,\"lng\":-118.3066935,\"zipcode\":\"90004\"},{\"location\":\"Kulak's Woodshed\",\"address\":\"5230 1/2 Laurel Canyon Blvd. Studio City, \",\"formattedAddress\":\"4249 1/2 Laurel Canyon Blvd, Studio City, CA 91604, USA\",\"neighborhood\":\"Studio City\",\"lat\":34.1482267,\"lng\":-118.3965899,\"zipcode\":\"91604\"},{\"location\":\"The Arena at the Anaheim Convention Center\",\"address\":\"800 W. Katella Ave. Anaheim, \",\"formattedAddress\":\"800 W Katella Ave, Anaheim, CA 92802, USA\",\"neighborhood\":\"Convention Center\",\"lat\":33.8003652,\"lng\":-117.9208568,\"zipcode\":\"92802\"},{\"location\":\"Los Angeles Convention Center\",\"address\":\"1201 S. Figueroa St. Los Angeles, \",\"formattedAddress\":\"1201 S Figueroa St, Los Angeles, CA 90015, USA\",\"neighborhood\":\"Central LA\",\"lat\":34.0413606,\"lng\":-118.2697771,\"zipcode\":\"90015\"},{\"location\":\"Broke L.A.\",\"address\":\"4560 Worth St. Los Angeles, \",\"formattedAddress\":\"4560 Worth St, Los Angeles, CA 90063, USA\",\"neighborhood\":null,\"lat\":34.0615938,\"lng\":-118.1857776,\"zipcode\":\"90063\"},{\"location\":\"Downtown Independent Theater\",\"address\":\"251 S. Main St. Los Angeles, \",\"formattedAddress\":\"251 S Main St, Los Angeles, CA 90012, USA\",\"neighborhood\":\"Central LA\",\"lat\":34.050286,\"lng\":-118.245687,\"zipcode\":\"90012\"},{\"location\":\"The Granada LA\",\"address\":\"17 S. First St. Alhambra, \",\"formattedAddress\":\"17 S 1st St, Alhambra, CA 91801, USA\",\"neighborhood\":null,\"lat\":34.0940231,\"lng\":-118.1276389,\"zipcode\":\"91801\"},{\"location\":\"Piccolo's Thrift Store\",\"address\":\"1859 W. Gage Ave. Los Angeles, \",\"formattedAddress\":\"1859 W Gage Ave, Los Angeles, CA 90047, USA\",\"neighborhood\":\"South Los Angeles\",\"lat\":33.9820911,\"lng\":-118.3110949,\"zipcode\":\"90047\"},{\"location\":\"The Attic\",\"address\":\"14633 Ventura Blvd. Sherman Oaks, California 91403 818-485-2200\",\"formattedAddress\":\"14633 Ventura Blvd, Sherman Oaks, CA 91403, USA\",\"neighborhood\":\"Sherman Oaks\",\"lat\":34.1514925,\"lng\":-118.4521178,\"zipcode\":\"91403\"},{\"location\":\"The Barkley Restaurant & Bar\",\"address\":\"1400 Huntington Dr. South Pasadena, \",\"formattedAddress\":\"1400 Huntington Dr, South Pasadena, CA 91030, USA\",\"lat\":34.1044402,\"lng\":-118.152313,\"zipcode\":\"91030\",\"city\":\"South Pasadena\"},{\"location\":\"The Pink Elephant\",\"address\":\"2810 Main St. Santa Monica, \",\"formattedAddress\":\"2810 Main St, Santa Monica, CA 90405, USA\",\"neighborhood\":\"Ocean Park\",\"lat\":33.999782,\"lng\":-118.4817373,\"zipcode\":\"90405\"},{\"location\":\"Los Angeles Athletic Club\",\"address\":\"431 W. Seventh St. Los Angeles, \",\"formattedAddress\":\"431 W 7th St, Los Angeles, CA 90014, USA\",\"neighborhood\":\"Central LA\",\"lat\":34.0465967,\"lng\":-118.2550311,\"zipcode\":\"90014\"},{\"location\":\"The Gem Theatre\",\"address\":\"12852 Main St. Garden Grove, California 92840 714-741-9550\",\"formattedAddress\":\"12852 Main St, Garden Grove, CA 92840, USA\",\"neighborhood\":null,\"lat\":33.77639449999999,\"lng\":-117.9407127,\"zipcode\":\"92840\"},{\"location\":\"California Plaza\",\"address\":\"350 S. Grand Ave. Los Angeles, \",\"formattedAddress\":\"350 S Grand Ave, Los Angeles, CA 90003, USA\",\"neighborhood\":\"South Los Angeles\",\"lat\":33.9705046,\"lng\":-118.2801398,\"zipcode\":\"90003\"},{\"location\":\"Hollywood Palladium\",\"address\":\"6215 W. Sunset Blvd. Los Angeles, \",\"formattedAddress\":\"6215 Sunset Blvd, Los Angeles, CA 90028, USA\",\"neighborhood\":\"Hollywood\",\"lat\":34.0984783,\"lng\":-118.3243046,\"zipcode\":\"90028\"},{\"location\":\"Kadampa Meditation Center California\",\"address\":\"1492 Blake Ave Los Angeles, \",\"formattedAddress\":\"1492 Blake Ave, Los Angeles, CA 90031, USA\",\"neighborhood\":\"Echo Park\",\"lat\":34.0920261,\"lng\":-118.2377808,\"zipcode\":\"90031\"},{\"location\":\"The TAPPAN Atelier\",\"address\":\"1008 Maple Ave. Los Angeles, \",\"formattedAddress\":\"1008 Maple Ave, Los Angeles, CA 90015, USA\",\"lat\":34.037774,\"lng\":-118.254117,\"zipcode\":\"90015\",\"city\":\"Los Angeles\",\"neighborhood\":\"Central LA\"},{\"location\":\"Alvas Showroom\",\"address\":\"1417 West 8th Street San Pedro \",\"formattedAddress\":\"1417 W 8th St, San Pedro, CA 90732, USA\",\"lat\":33.7368203,\"lng\":-118.308436,\"zipcode\":\"90732\",\"city\":\"Los Angeles\",\"neighborhood\":\"San Pedro\"},{\"location\":\"Medusa Lounge\",\"address\":\"3211 Beverly Blvd. Los Angeles, \",\"formattedAddress\":\"3211 Beverly Blvd, Los Angeles, CA 90057, USA\",\"neighborhood\":\"Central LA\",\"lat\":34.072617,\"lng\":-118.283315,\"zipcode\":\"90057\"},{\"location\":\"Lewis Family Playhouse\",\"address\":\"12505 Cultural Center Dr. Rancho Cucamonga, \",\"formattedAddress\":\"12505 Cultural Center Dr, Rancho Cucamonga, CA 91739, USA\",\"neighborhood\":null,\"lat\":34.112922,\"lng\":-117.532576,\"zipcode\":\"91739\"},{\"location\":\"Lineage Performing Arts Center\",\"address\":\"89 S. Fair Oaks Avenue Pasadena \",\"formattedAddress\":\"89 S Fair Oaks Ave, Pasadena, CA 91105, USA\",\"neighborhood\":\"Northeast Los Angeles\",\"lat\":34.1441498,\"lng\":-118.15071,\"zipcode\":\"91105\"},{\"location\":\"Little Joy Cocktail Lounge\",\"address\":\"1477 Sunset Blvd. Los Angeles, \",\"formattedAddress\":\"1477 Sunset Blvd, Los Angeles, CA 90026, USA\",\"neighborhood\":\"Echo Park\",\"lat\":34.0758033,\"lng\":-118.254352,\"zipcode\":\"90026\"},{\"location\":\"The Cinema Bar\",\"address\":\"3967 Sepulveda Blvd. Culver City, \",\"formattedAddress\":\"3967 Sepulveda Blvd, Culver City, CA 90230, USA\",\"neighborhood\":\"Clarkdale\",\"lat\":34.0094096,\"lng\":-118.4146843,\"zipcode\":\"90230\"},{\"location\":\"Craft & Folk Art Museum\",\"address\":\"5814 Wilshire Blvd. Los Angeles, \",\"formattedAddress\":\"5814 Wilshire Blvd, Los Angeles, CA 90036, USA\",\"neighborhood\":\"Mid-Wilshire\",\"lat\":34.0621895,\"lng\":-118.355588,\"zipcode\":\"90036\"},{\"location\":\"Lot 613\",\"address\":\"613 Imperial St. Los Angeles, \",\"formattedAddress\":\"613 Imperial St, Los Angeles, CA 90021, USA\",\"neighborhood\":\"Downtown\",\"lat\":34.0375811,\"lng\":-118.2318331,\"zipcode\":\"90021\"},{\"location\":\"New Roads School\",\"address\":\"3131 Olympic Blvd., Santa Monica  \",\"formattedAddress\":\"3131 Olympic Blvd, Santa Monica, CA 90404, USA\",\"neighborhood\":null,\"lat\":34.0312851,\"lng\":-118.4612321,\"zipcode\":\"90404\"},{\"location\":\"Lot 613\",\"address\":\"613 Imperial St. Los Angeles, \",\"formattedAddress\":\"613 Imperial St, Los Angeles, CA 90021, USA\",\"neighborhood\":\"Downtown\",\"lat\":34.0375811,\"lng\":-118.2318331,\"zipcode\":\"90021\"},{\"location\":\"The Theatre at Ace Hotel\",\"address\":\"929 S. Broadway Los Angeles, \",\"formattedAddress\":\"929 S Broadway, Los Angeles, CA 90015, USA\",\"neighborhood\":\"Downtown\",\"lat\":34.0418769,\"lng\":-118.2570341,\"zipcode\":\"90015\"},{\"location\":\"Skylight Books\",\"address\":\"1818 N. Vermont Ave. Los Angeles, \",\"formattedAddress\":\"1818 N Vermont Ave, Los Angeles, CA 90027, USA\",\"lat\":34.104216,\"lng\":-118.291488,\"zipcode\":\"90027\",\"city\":\"Los Angeles\",\"neighborhood\":\"Central LA\"},{\"location\":\"Orpheum Theatre\",\"address\":\"842 S Broadway, Los Angeles, \",\"formattedAddress\":\"842 S Broadway, Los Angeles, CA 90014, USA\",\"neighborhood\":\"Downtown\",\"lat\":34.0426926,\"lng\":-118.2552867,\"zipcode\":\"90014\"},{\"location\":\"El Rey Theatre\",\"address\":\"5515 Wilshire Blvd. Los Angeles, \",\"formattedAddress\":\"5515 Wilshire Blvd, Los Angeles, CA 90036, USA\",\"neighborhood\":\"Mid-Wilshire\",\"lat\":34.0626988,\"lng\":-118.3489004,\"zipcode\":\"90036\"},{\"location\":\"Escape Room LA\",\"address\":\"120 E. 8th St Los Angeles, \",\"formattedAddress\":\"120 E 8th St, Los Angeles, CA 90014, USA\",\"neighborhood\":\"Downtown\",\"lat\":34.0420721,\"lng\":-118.2528292,\"zipcode\":\"90014\"},{\"location\":\"Melrose Trading Post\",\"address\":\"7850 Melrose Ave. Los Angeles, \",\"formattedAddress\":\"7850 Melrose Ave, Los Angeles, CA 90036, USA\",\"neighborhood\":\"Central LA\",\"lat\":34.0834007,\"lng\":-118.3597341,\"zipcode\":\"90036\"},{\"location\":\"LA Plaza de Cultura y Artes\",\"address\":\"501 N. Main St. Los Angeles, \",\"formattedAddress\":\"501 N Main St, Los Angeles, CA 90012, USA\",\"lat\":34.0564554,\"lng\":-118.2398448,\"zipcode\":\"90012\",\"city\":\"Los Angeles\",\"neighborhood\":\"Central LA\"},{\"location\":\"Chinese American Museum\",\"address\":\"425 N. Los Angeles St. Los Angeles, \",\"formattedAddress\":\"425 N Los Angeles St, Los Angeles, CA 90012, USA\",\"neighborhood\":\"Central LA\",\"lat\":34.0558393,\"lng\":-118.23909,\"zipcode\":\"90012\"},{\"location\":\"Atwater Village Theater\",\"address\":\"3269 Casitas Ave. Los Angeles \",\"formattedAddress\":\"3269 Casitas Ave, Los Angeles, CA 90039, USA\",\"lat\":34.1164165,\"lng\":-118.2518773,\"zipcode\":\"90039\",\"city\":\"Los Angeles\",\"neighborhood\":\"Northeast Los Angeles\"},{\"location\":\"Civic Center Studios\",\"address\":\"207 S. Broadway, Los Angeles, CA, Torrance, \",\"formattedAddress\":\"S Broadway, Los Angeles, CA, USA\",\"neighborhood\":null,\"lat\":33.9778632,\"lng\":-118.2783254},{\"location\":\"Escape Room LA\",\"address\":\"120 E. 8th St Los Angeles, \",\"formattedAddress\":\"120 E 8th St, Los Angeles, CA 90014, USA\",\"neighborhood\":\"Downtown\",\"lat\":34.0420721,\"lng\":-118.2528292,\"zipcode\":\"90014\"},{\"location\":\"Hollywood Pantages Theatre\",\"address\":\"6233 Hollywood Blvd., Los Angeles 90028, us\",\"formattedAddress\":\"6233 Hollywood Blvd, Los Angeles, CA 90028, USA\",\"neighborhood\":\"Hollywood\",\"lat\":34.102001,\"lng\":-118.325867,\"zipcode\":\"90028\"},{\"location\":\"The Victory Theatre Center\",\"address\":\"3326 W. Victory Blvd., Burbank 91505, us\",\"formattedAddress\":\"3326 W Victory Blvd, Burbank, CA 91505, USA\",\"neighborhood\":null,\"lat\":34.1844808,\"lng\":-118.3478558,\"zipcode\":\"91505\"},{\"location\":\"South Coast Botanic Garden\",\"address\":\"26300 Crenshaw Boulevard, Palos Verdes Peninsula, CA, Palos Verdes Estates, \",\"formattedAddress\":\"26300 Crenshaw Blvd, Palos Verdes Estates, CA 90274, USA\",\"neighborhood\":null,\"lat\":33.7831775,\"lng\":-118.3488527,\"zipcode\":\"90274\"},{\"location\":\"Hornblower Cruises & Events\",\"address\":\"13755 Fiji Way Marina Del Rey \",\"formattedAddress\":\"13755 Fiji Way, Marina Del Rey, CA 90292, USA\",\"lat\":33.9725614,\"lng\":-118.4462468,\"zipcode\":\"90292\",\"city\":\"Marina del Rey\"},{\"location\":\"Automata\",\"address\":\"504 Chung King Court Los Angeles, \",\"formattedAddress\":\"504 Chung King Ct, Los Angeles, CA 90012, USA\",\"lat\":34.0659809,\"lng\":-118.2383075,\"zipcode\":\"90012\",\"city\":\"Los Angeles\",\"neighborhood\":\"Central LA\"},{\"location\":\"Hollywood Bowl\",\"address\":\"2301 N. Highland Ave. Los Angeles, \",\"formattedAddress\":\"2301 Highland Ave, Los Angeles, CA 90068, USA\",\"lat\":34.1127392,\"lng\":-118.3388562,\"zipcode\":\"90068\",\"city\":\"Los Angeles\",\"neighborhood\":\"Central LA\"},{\"location\":\"Fonda Theatre\",\"address\":\"6126 Hollywood Blvd., Los Angeles, \",\"formattedAddress\":\"6126 Hollywood Blvd, Los Angeles, CA 90028, USA\",\"neighborhood\":\"Hollywood\",\"lat\":34.1012695,\"lng\":-118.3232478,\"zipcode\":\"90028\"},{\"location\":\"Amoeba Hollywood\",\"address\":\"6400 Sunset Blvd, Los Angeles 90028, us\",\"formattedAddress\":\"6400 Sunset Blvd, Los Angeles, CA 90028, USA\",\"neighborhood\":\"Hollywood\",\"lat\":34.0977683,\"lng\":-118.3290738,\"zipcode\":\"90028\"},{\"location\":\"Downtown San Pedro\",\"address\":\"398 W. 6th Street San Pedro \",\"formattedAddress\":\"398 W 6th St, San Pedro, CA 90731, USA\",\"lat\":33.7387602,\"lng\":-118.2857012,\"zipcode\":\"90731\",\"city\":\"Los Angeles\",\"neighborhood\":\"San Pedro\"},{\"location\":\"Hollywood Bowl\",\"address\":\"2301 N. Highland Ave. Los Angeles, \",\"formattedAddress\":\"2301 Highland Ave, Los Angeles, CA 90068, USA\",\"lat\":34.1127392,\"lng\":-118.3388562,\"zipcode\":\"90068\",\"city\":\"Los Angeles\",\"neighborhood\":\"Central LA\"},{\"location\":\"Annenberg Space for Photography\",\"address\":\"2000 Avenue of the Stars Century City \",\"formattedAddress\":\"2000 Avenue of the Stars, Los Angeles, CA 90067, USA\",\"neighborhood\":\"Century City\",\"lat\":34.0583595,\"lng\":-118.4148332,\"zipcode\":\"90067\"},{\"location\":\"STAPLES Center\",\"address\":\"1111 S. Figueroa St., Los Angeles, \",\"formattedAddress\":\"1111 S Figueroa St, Los Angeles, CA 90015, USA\",\"neighborhood\":\"Downtown\",\"lat\":34.043125,\"lng\":-118.267118,\"zipcode\":\"90015\"},{\"location\":\"The Greek Theatre\",\"address\":\"2700 N. Vermont Ave. Los Angeles, \",\"formattedAddress\":\"2700 N Vermont Ave, Los Angeles, CA 90027, USA\",\"neighborhood\":null,\"lat\":34.1205588,\"lng\":-118.2963915,\"zipcode\":\"90027\"},{\"location\":\"The Forum\",\"address\":\"3900 W. Manchester Blvd. Inglewood, \",\"formattedAddress\":\"3900 W Manchester Blvd, Inglewood, CA 90305, USA\",\"neighborhood\":\"South Los Angeles\",\"lat\":33.9581667,\"lng\":-118.3418158,\"zipcode\":\"90305\"},{\"location\":\"Hollywood Improv (The Main Room)\",\"address\":\"8162 Melrose Ave. Hollywood, \",\"formattedAddress\":\"8162 Melrose Ave, Los Angeles, CA 90048, USA\",\"neighborhood\":\"Beverly Grove\",\"lat\":34.0834368,\"lng\":-118.3672735,\"zipcode\":\"90048\"},{\"location\":\"The Forum\",\"address\":\"3900 W. Manchester Blvd. Inglewood, \",\"formattedAddress\":\"3900 W Manchester Blvd, Inglewood, CA 90305, USA\",\"neighborhood\":\"South Los Angeles\",\"lat\":33.9581667,\"lng\":-118.3418158,\"zipcode\":\"90305\"},{\"location\":\"Theatre Raymond Kabbaz\",\"address\":\"10361 W. Pico Blvd., Los Angeles, \",\"formattedAddress\":\"10361 W Pico Blvd, Los Angeles, CA 90064, USA\",\"neighborhood\":\"Century City\",\"lat\":34.0472142,\"lng\":-118.4160617,\"zipcode\":\"90064\"},{\"location\":\"The Novo by Microsoft\",\"address\":\"800 W. Olympic Blvd. Los Angeles, \",\"formattedAddress\":\"800 W Olympic Blvd, Los Angeles, CA 90015, USA\",\"neighborhood\":\"Downtown\",\"lat\":34.0449376,\"lng\":-118.2654979,\"zipcode\":\"90015\"},{\"location\":\"Genghis Cohen\",\"address\":\"740 N. Fairfax Ave. Los Angeles, \",\"formattedAddress\":\"740 N Fairfax Ave, Los Angeles, CA 90046, USA\",\"neighborhood\":\"Fairfax\",\"lat\":34.0850767,\"lng\":-118.3611139,\"zipcode\":\"90046\"},{\"location\":\"Genghis Cohen\",\"address\":\"740 N. Fairfax Ave. Los Angeles, \",\"formattedAddress\":\"740 N Fairfax Ave, Los Angeles, CA 90046, USA\",\"neighborhood\":\"Fairfax\",\"lat\":34.0850767,\"lng\":-118.3611139,\"zipcode\":\"90046\"},{\"location\":\"Teragram Ballroom\",\"address\":\"1234 W. Seventh St., Los Angeles 90017, us\",\"formattedAddress\":\"1234 W 7th St, Los Angeles, CA 90017, USA\",\"neighborhood\":\"Central LA\",\"lat\":34.0518639,\"lng\":-118.2670623,\"zipcode\":\"90017\"},{\"location\":\"The Roxy\",\"address\":\"9009 W. Sunset Blvd. West Hollywood, \",\"formattedAddress\":\"9009 Sunset Blvd, West Hollywood, CA 90069, USA\",\"neighborhood\":\"Sunset Strip\",\"lat\":34.0909001,\"lng\":-118.3879395,\"zipcode\":\"90069\"},{\"location\":\"The Canyon\",\"address\":\"28912 Roadside Dr., Agoura Hills, \",\"formattedAddress\":\"28912 Roadside Dr, Agoura Hills, CA 91301, USA\",\"neighborhood\":null,\"lat\":34.144004,\"lng\":-118.7551541,\"zipcode\":\"91301\"},{\"location\":\"The Federal Underground\",\"address\":\"102 Pine Ave, Long Beach 90802, us\",\"formattedAddress\":\"102 Pine Ave, Long Beach, CA 90802, USA\",\"neighborhood\":\"Downtown\",\"lat\":33.7682406,\"lng\":-118.1920563,\"zipcode\":\"90802\"},{\"location\":\"Pasadena Museum of California Art\",\"address\":\"490 East Union Street, Pasadena, \",\"formattedAddress\":\"490 E Union St, Pasadena, CA 91101, USA\",\"neighborhood\":null,\"lat\":34.1468743,\"lng\":-118.1401975,\"zipcode\":\"91101\"},{\"location\":\"Abbot Kinney Blvd.\",\"address\":\"Abbot Kinney Blvd. and California St. Los Angeles CA\",\"formattedAddress\":\"Abbot Kinney Blvd & California Ave, Venice, CA 90291, USA\",\"lat\":33.9906424,\"lng\":-118.4659828,\"zipcode\":\"90291\",\"city\":\"Los Angeles\",\"neighborhood\":\"Venice\"},{\"location\":\"First Fridays Long Beach Art Walk\",\"address\":\"4313 Atlantic Avenue Long Beach \",\"formattedAddress\":\"4313 Atlantic Ave, Long Beach, CA 90807, USA\",\"lat\":33.8347837,\"lng\":-118.1852911,\"zipcode\":\"90807\",\"city\":\"Long Beach\",\"neighborhood\":\"Bixby Knolls\"},{\"location\":\"Vibiana\",\"address\":\"214 S Main St Los Angeles \",\"formattedAddress\":\"214 S Main St, Los Angeles, CA 90012, USA\",\"lat\":34.0504491,\"lng\":-118.2444335,\"zipcode\":\"90012\",\"city\":\"Los Angeles\",\"neighborhood\":\"Downtown\"},{\"location\":\"Hollywood Improv (The Lab)\",\"address\":\"8162 Melrose Ave. Hollywood, \",\"formattedAddress\":\"8162 Melrose Ave, Los Angeles, CA 90048, USA\",\"neighborhood\":\"Beverly Grove\",\"lat\":34.0834368,\"lng\":-118.3672735,\"zipcode\":\"90048\"},{\"location\":\"SugarMynt Gallery\",\"address\":\"810 Meridian Ave. South Pasadena, CA South Pasadena \",\"formattedAddress\":\"810 Meridian Ave, South Pasadena, CA 91030, USA\",\"neighborhood\":null,\"lat\":34.1162721,\"lng\":-118.1571171,\"zipcode\":\"91030\"},{\"location\":\"Los Angeles State Historic Park\",\"address\":\"1245 N Spring St Los Angeles CA\",\"formattedAddress\":\"1245 N Spring St, Los Angeles, CA 90012, USA\",\"lat\":34.0661743,\"lng\":-118.2342881,\"zipcode\":\"90012\",\"city\":\"Los Angeles\",\"neighborhood\":\"Central LA\"},{\"location\":\"The Wiltern\",\"address\":\"3790 Wilshire Blvd. Los Angeles, \",\"formattedAddress\":\"3790 Wilshire Blvd, Los Angeles, CA 90010, USA\",\"neighborhood\":\"Koreatown\",\"lat\":34.0614896,\"lng\":-118.3087587,\"zipcode\":\"90010\"},{\"location\":\"Microsoft Theater\",\"address\":\"777 Chick Hearn Court Los Angeles, \",\"formattedAddress\":\"777 Chick Hearn Ct, Los Angeles, CA 90015, USA\",\"neighborhood\":\"Downtown\",\"lat\":34.044489,\"lng\":-118.2670519,\"zipcode\":\"90015\"},{\"location\":\"The Federal Underground\",\"address\":\"102 Pine Ave, Long Beach 90802, us\",\"formattedAddress\":\"102 Pine Ave, Long Beach, CA 90802, USA\",\"neighborhood\":\"Downtown\",\"lat\":33.7682406,\"lng\":-118.1920563,\"zipcode\":\"90802\"},{\"location\":\"Zombie Joes Underground Theatre Group at Z.J.U.\",\"address\":\"4850 Lankershim Blvd North Hollywood \",\"formattedAddress\":\"4850 Lankershim Blvd, North Hollywood, CA 91601, USA\",\"lat\":34.1591794,\"lng\":-118.3708756,\"zipcode\":\"91601\",\"city\":\"Los Angeles\",\"neighborhood\":\"North Hollywood\"},{\"location\":\"Bootleg Theater\",\"address\":\"2200 Beverly Blvd. Los Angeles, \",\"formattedAddress\":\"2200 Beverly Blvd, Los Angeles, CA 90057, USA\",\"neighborhood\":\"Central LA\",\"lat\":34.0669309,\"lng\":-118.271662,\"zipcode\":\"90057\"},{\"location\":\"The Greek Theatre\",\"address\":\"2700 N. Vermont Ave. Los Angeles, \",\"formattedAddress\":\"2700 N Vermont Ave, Los Angeles, CA 90027, USA\",\"neighborhood\":null,\"lat\":34.1205588,\"lng\":-118.2963915,\"zipcode\":\"90027\"},{\"location\":\"Dolby Theatre\",\"address\":\"6801 Hollywood Blvd. Los Angeles, \",\"formattedAddress\":\"6801 Hollywood Blvd, Los Angeles, CA 90028, USA\",\"neighborhood\":\"Hollywood\",\"lat\":34.1025903,\"lng\":-118.3400444,\"zipcode\":\"90028\"},{\"location\":\"Catalina Bar & Grill\",\"address\":\"6725 W. Sunset Blvd. Los Angeles, \",\"formattedAddress\":\"6725 Sunset Blvd, Los Angeles, CA 90028, USA\",\"neighborhood\":\"Hollywood\",\"lat\":34.09834420000001,\"lng\":-118.3373005,\"zipcode\":\"90028\"},{\"location\":\"The Rose\",\"address\":\"245 E. Green St. Pasadena, \",\"formattedAddress\":\"245 E Green St, Pasadena, CA 91101, USA\",\"neighborhood\":null,\"lat\":34.1445579,\"lng\":-118.1450515,\"zipcode\":\"91101\"},{\"location\":\"Saban Theatre\",\"address\":\"8440 W. Wilshire Blvd. Beverly Hills, \",\"formattedAddress\":\"8440 Wilshire Blvd, Beverly Hills, CA 90211, USA\",\"neighborhood\":null,\"lat\":34.0645718,\"lng\":-118.3748496,\"zipcode\":\"90211\"},{\"location\":\"Molly Malones\",\"address\":\"575 S. Fairfax Ave., Los Angeles, \",\"formattedAddress\":\"575 S Fairfax Ave, Los Angeles, CA 90036, USA\",\"neighborhood\":\"Carthay Circle\",\"lat\":34.065287,\"lng\":-118.361697,\"zipcode\":\"90036\"},{\"location\":\"The Federal Bar\",\"address\":\"102 Pine Ave. Long Beach, \",\"formattedAddress\":\"102 Pine Ave, Long Beach, CA 90802, USA\",\"neighborhood\":\"Downtown\",\"lat\":33.7682406,\"lng\":-118.1920563,\"zipcode\":\"90802\"},{\"location\":\"Grand Park\",\"address\":\"200 N. Grand Ave. Los Angeles, \",\"formattedAddress\":\"200 N Grand Ave, Los Angeles, CA 90012, USA\",\"lat\":34.0562797,\"lng\":-118.2467434,\"zipcode\":\"90012\",\"city\":\"Los Angeles\",\"neighborhood\":\"Central LA\"},{\"location\":\"Ernie Howlett Park\",\"address\":\"25851 Hawthorne Blvd. Rolling Hills Estates, \",\"formattedAddress\":\"25851 Hawthorne Blvd, Rolling Hills Estates, CA 90274, USA\",\"lat\":33.7908241,\"lng\":-118.3541776,\"zipcode\":\"90274\",\"city\":\"Rolling Hills Estates\"},{\"location\":\"Montrose, Honolulu Ave\",\"address\":\"2400 Honolulu Ave La Crescenta-Montrose \",\"formattedAddress\":\"2400 Honolulu Ave, Montrose, CA 91020, USA\",\"neighborhood\":\"Montrose\",\"lat\":34.2063571,\"lng\":-118.2304414,\"zipcode\":\"91020\"},{\"location\":\"Los Angeles Memorial Coliseum\",\"address\":\"3911 S. Figueroa St., Los Angeles 90037, us\",\"formattedAddress\":\"3911 S Figueroa St, Los Angeles, CA 90037, USA\",\"neighborhood\":\"South Los Angeles\",\"lat\":34.0128805,\"lng\":-118.2827671,\"zipcode\":\"90037\"},{\"location\":\"Los Angeles Convention Center\",\"address\":\"1201 S. Figueroa St. Los Angeles, \",\"formattedAddress\":\"1201 S Figueroa St, Los Angeles, CA 90015, USA\",\"neighborhood\":\"Central LA\",\"lat\":34.0413606,\"lng\":-118.2697771,\"zipcode\":\"90015\"},{\"location\":\"Center for the Arts Eagle Rock\",\"address\":\"2225 Colorado Blvd., Los Angeles, \",\"formattedAddress\":\"2225 Colorado Blvd, Los Angeles, CA 90041, USA\",\"neighborhood\":\"Northeast Los Angeles\",\"lat\":34.1396227,\"lng\":-118.2149175,\"zipcode\":\"90041\"},{\"location\":\"Highland Hall Waldorf School\",\"address\":\"17100 Superior St., Northridge, CA Northridge \",\"formattedAddress\":\"17100 Superior St, Los Angeles, CA 91325, USA\",\"neighborhood\":\"Northridge\",\"lat\":34.245522,\"lng\":-118.505681,\"zipcode\":\"91325\"},{\"location\":\"Durden and Ray\",\"address\":\"1923 S. Santa Fe Ave. Los Angeles, CA Downtown \",\"formattedAddress\":\"1923 S Santa Fe Ave, Los Angeles, CA 90021, USA\",\"lat\":34.0223484,\"lng\":-118.2304801,\"zipcode\":\"90021\",\"city\":\"Los Angeles\",\"neighborhood\":\"Boyle Heights\"},{\"location\":\"Warner Center Park\",\"address\":\"5800 Topanga Canyon Blvd. Woodland Hills, \",\"formattedAddress\":\"5800 Topanga Canyon Blvd, Woodland Hills, CA 91367, USA\",\"lat\":34.1753396,\"lng\":-118.6057517,\"zipcode\":\"91367\",\"city\":\"Los Angeles\",\"neighborhood\":\"Woodland Hills\"},{\"location\":\"Getty Center\",\"address\":\"1200 Getty Center Drive Los Angeles \",\"formattedAddress\":\"1200 Getty Center Dr, Los Angeles, CA 90049, USA\",\"neighborhood\":\"Brentwood\",\"lat\":34.0790329,\"lng\":-118.4751057,\"zipcode\":\"90049\"},{\"location\":\"Whisky A Go Go\",\"address\":\"8901 sunset blvd, West Hollywood, \",\"formattedAddress\":\"8901 Sunset Blvd, West Hollywood, CA 90069, USA\",\"neighborhood\":\"Sunset Strip\",\"lat\":34.0908403,\"lng\":-118.3857013,\"zipcode\":\"90069\"},{\"location\":\"Royce Hall - UCLA\",\"address\":\"340 Royce Dr., Los Angeles, \",\"formattedAddress\":\"340 Royce Dr, Los Angeles, CA 90095, USA\",\"neighborhood\":\"Westwood\",\"lat\":34.0728242,\"lng\":-118.4421682,\"zipcode\":\"90095\"},{\"location\":\"El Rey Theatre\",\"address\":\"5515 Wilshire Blvd. Los Angeles, \",\"formattedAddress\":\"5515 Wilshire Blvd, Los Angeles, CA 90036, USA\",\"neighborhood\":\"Mid-Wilshire\",\"lat\":34.0626988,\"lng\":-118.3489004,\"zipcode\":\"90036\"},{\"location\":\"Scherr Forum-Thousand Oaks Civic Arts Plaza\",\"address\":\"Thousand Oaks 91362, us\",\"formattedAddress\":\"Thousand Oaks, CA 91362, USA\",\"neighborhood\":null,\"lat\":34.1971476,\"lng\":-118.824722,\"zipcode\":\"91362\"},{\"location\":\"Shrine Expo Hall\",\"address\":\"665 W Jefferson Blvd. Los Angeles CA\",\"formattedAddress\":\"665 W Jefferson Blvd, Los Angeles, CA 90007, USA\",\"neighborhood\":\"South Los Angeles\",\"lat\":34.0236612,\"lng\":-118.2812202,\"zipcode\":\"90007\"},{\"location\":\"Aero Theatre\",\"address\":\"1328 Montana Ave., Santa Monica, \",\"formattedAddress\":\"1328 Montana Ave, Santa Monica, CA 90403, USA\",\"neighborhood\":\"Wilshire Montana\",\"lat\":34.0318921,\"lng\":-118.4952572,\"zipcode\":\"90403\"},{\"location\":\"Dorothy Chandler Pavilion\",\"address\":\"135 Grand Ave, Los Angeles, \",\"formattedAddress\":\"135 S Grand Ave, Los Angeles, CA 90012, USA\",\"neighborhood\":\"Downtown\",\"lat\":34.0552671,\"lng\":-118.2490979,\"zipcode\":\"90012\"},{\"location\":\"Santa Monica Playhouse\",\"address\":\"1211 4th St Santa Monica CA\",\"formattedAddress\":\"1211 4th St, Santa Monica, CA 90401, USA\",\"lat\":34.0189556,\"lng\":-118.4977074,\"zipcode\":\"90401\",\"city\":\"Santa Monica\",\"neighborhood\":\"Downtown\"},{\"location\":\"StubHub Center\",\"address\":\"18400 S. Avalon Blvd., Carson, CA, us\",\"formattedAddress\":\"18400 S Avalon Blvd, Carson, CA 90746, USA\",\"neighborhood\":null,\"lat\":33.8639438,\"lng\":-118.2660058,\"zipcode\":\"90746\"},{\"location\":\"Soka Performing Arts Center\",\"address\":\"1 University Drive, Aliso Viejo, \",\"formattedAddress\":\"1 University Cir, Aliso Viejo, CA 92656, USA\",\"neighborhood\":null,\"lat\":33.55587,\"lng\":-117.7335121,\"zipcode\":\"92656\"},{\"location\":\"Richard and Karen Carpenter Center\",\"address\":\"6200 E Atherton St, Long Beach 90815, us\",\"formattedAddress\":\"6200 E Atherton St, Long Beach, CA 90815, USA\",\"neighborhood\":null,\"lat\":33.788396,\"lng\":-118.1126051,\"zipcode\":\"90815\"},{\"location\":\"Ralph Freud Playhouse\",\"address\":\"245 Charles E. Young Dr. E, Los Angeles, \",\"formattedAddress\":\"245 Charles E Young Dr E, Los Angeles, CA 90024, USA\",\"neighborhood\":\"Westwood\",\"lat\":34.0757605,\"lng\":-118.4396458,\"zipcode\":\"90024\"},{\"location\":\"The Forum\",\"address\":\"3900 W. Manchester Blvd. Inglewood, \",\"formattedAddress\":\"3900 W Manchester Blvd, Inglewood, CA 90305, USA\",\"neighborhood\":\"South Los Angeles\",\"lat\":33.9581667,\"lng\":-118.3418158,\"zipcode\":\"90305\"},{\"location\":\"St. Augustine by-the-Sea\",\"address\":\"1227 Fourth Street, Santa Monica  \",\"formattedAddress\":\"1227 4th St, Santa Monica, CA 90401, USA\",\"neighborhood\":\"Downtown\",\"lat\":34.0188991,\"lng\":-118.4973994,\"zipcode\":\"90401\"},{\"location\":\"Dolby Theatre\",\"address\":\"6801 Hollywood Blvd. Los Angeles, \",\"formattedAddress\":\"6801 Hollywood Blvd, Los Angeles, CA 90028, USA\",\"neighborhood\":\"Hollywood\",\"lat\":34.1025903,\"lng\":-118.3400444,\"zipcode\":\"90028\"},{\"location\":\"Alex Theatre\",\"address\":\"216 N. Brand Blvd. Glendale, \",\"formattedAddress\":\"216 N Brand Blvd, Glendale, CA 91203, USA\",\"neighborhood\":\"Downtown\",\"lat\":34.1488644,\"lng\":-118.2548412,\"zipcode\":\"91203\"},{\"location\":\"iO West\",\"address\":\"6366 Hollywood Blvd Hollywood \",\"formattedAddress\":\"6366 Hollywood Blvd, Los Angeles, CA 90028, USA\",\"neighborhood\":\"Hollywood\",\"lat\":34.1013952,\"lng\":-118.3287424,\"zipcode\":\"90028\"},{\"location\":\"Luckman Fine Arts Complex\",\"address\":\"5151 State University Drive Los Angeles CA\",\"formattedAddress\":\"5151 State University Dr, Los Angeles, CA 90032, USA\",\"neighborhood\":null,\"lat\":34.0615308,\"lng\":-118.1733051,\"zipcode\":\"90032\"},{\"location\":\"The Rose\",\"address\":\"245 E. Green St. Pasadena, \",\"formattedAddress\":\"245 E Green St, Pasadena, CA 91101, USA\",\"neighborhood\":null,\"lat\":34.1445579,\"lng\":-118.1450515,\"zipcode\":\"91101\"},{\"location\":\"Downtown Los Angeles\",\"address\":\"Downtown Los Angeles, \",\"formattedAddress\":\"Downtown, Los Angeles, CA, USA\",\"lat\":34.040713,\"lng\":-118.2467693,\"city\":\"Los Angeles\",\"neighborhood\":\"Downtown\"},{\"location\":\"Santa Monica Pier\",\"address\":\"200 Santa Monica Pier Santa Monica \",\"formattedAddress\":\"200 Santa Monica Pier, Santa Monica, CA 90401, USA\",\"neighborhood\":null,\"lat\":34.0098476,\"lng\":-118.4964629,\"zipcode\":\"90401\"},{\"location\":\"Grand Park\",\"address\":\"200 N. Grand Ave. Los Angeles, \",\"formattedAddress\":\"200 N Grand Ave, Los Angeles, CA 90012, USA\",\"lat\":34.0562797,\"lng\":-118.2467434,\"zipcode\":\"90012\",\"city\":\"Los Angeles\",\"neighborhood\":\"Central LA\"},{\"location\":\"Los Angeles Memorial Coliseum\",\"address\":\"3911 S. Figueroa St., Los Angeles 90037, us\",\"formattedAddress\":\"3911 S Figueroa St, Los Angeles, CA 90037, USA\",\"neighborhood\":\"South Los Angeles\",\"lat\":34.0128805,\"lng\":-118.2827671,\"zipcode\":\"90037\"},{\"location\":\"The Theatre at Ace Hotel\",\"address\":\"929 S. Broadway Los Angeles, \",\"formattedAddress\":\"929 S Broadway, Los Angeles, CA 90015, USA\",\"neighborhood\":\"Downtown\",\"lat\":34.0418769,\"lng\":-118.2570341,\"zipcode\":\"90015\"},{\"location\":\"The Belasco Theater\",\"address\":\"1050 S. Hill St. Los Angeles, \",\"formattedAddress\":\"1050 Hill St, Los Angeles, CA 90015, USA\",\"neighborhood\":\"Downtown\",\"lat\":34.0402556,\"lng\":-118.2592519,\"zipcode\":\"90015\"},{\"location\":\"A Noise Within\",\"address\":\"3352 E. Foothill Blvd. Pasadena, \",\"formattedAddress\":\"3352 E Foothill Blvd, Pasadena, CA 91107, USA\",\"lat\":34.1495943,\"lng\":-118.0811409,\"zipcode\":\"91107\",\"city\":\"Pasadena\",\"neighborhood\":\"Hastings Ranch\"},{\"location\":\"Long Beach Performing Arts Center\",\"address\":\"300 E. Ocean Blvd. Long Beach \",\"formattedAddress\":\"300 E Ocean Blvd, Long Beach, CA 90802, USA\",\"neighborhood\":\"Waterfront\",\"lat\":33.76520350000001,\"lng\":-118.1893341,\"zipcode\":\"90802\"},{\"location\":\"Pauley Pavilion\",\"address\":\"301 Westwood Plaza, Los Angeles, \",\"formattedAddress\":\"301 Westwood Plaza, Los Angeles, CA 90095, USA\",\"neighborhood\":\"Westwood\",\"lat\":34.0702949,\"lng\":-118.4467667,\"zipcode\":\"90095\"},{\"location\":\"Pauley Pavilion\",\"address\":\"301 Westwood Plaza, Los Angeles, \",\"formattedAddress\":\"301 Westwood Plaza, Los Angeles, CA 90095, USA\",\"neighborhood\":\"Westwood\",\"lat\":34.0702949,\"lng\":-118.4467667,\"zipcode\":\"90095\"},{\"location\":\"The Forum\",\"address\":\"3900 W. Manchester Blvd. Inglewood, \",\"formattedAddress\":\"3900 W Manchester Blvd, Inglewood, CA 90305, USA\",\"neighborhood\":\"South Los Angeles\",\"lat\":33.9581667,\"lng\":-118.3418158,\"zipcode\":\"90305\"},{\"location\":\"Hollywood Bowl\",\"address\":\"2301 N. Highland Ave. Los Angeles, \",\"formattedAddress\":\"2301 Highland Ave, Los Angeles, CA 90068, USA\",\"lat\":34.1127392,\"lng\":-118.3388562,\"zipcode\":\"90068\",\"city\":\"Los Angeles\",\"neighborhood\":\"Central LA\"},{\"location\":\"TCL Chinese 6 Theatres\",\"address\":\"Hollywood & Highland, 6801 Hollywood Blvd Hollywood, \",\"formattedAddress\":\"6801 Hollywood Blvd #170, Los Angeles, CA 90028, USA\",\"lat\":34.1024368,\"lng\":-118.3400872,\"zipcode\":\"90028\",\"city\":\"Los Angeles\",\"neighborhood\":\"Hollywood\"},{\"location\":\"The Theatre at Ace Hotel\",\"address\":\"929 S. Broadway Los Angeles, \",\"formattedAddress\":\"929 S Broadway, Los Angeles, CA 90015, USA\",\"neighborhood\":\"Downtown\",\"lat\":34.0418769,\"lng\":-118.2570341,\"zipcode\":\"90015\"},{\"location\":\"Silverlake Lounge\",\"address\":\"2906 Sunset Blvd. Los Angeles, \",\"formattedAddress\":\"2906 Sunset Blvd, Los Angeles, CA 90026, USA\",\"neighborhood\":\"Silver Lake\",\"lat\":34.0828261,\"lng\":-118.2736878,\"zipcode\":\"90026\"},{\"location\":\"Crowell Public Library\",\"address\":\"1890 Huntington Drive, CA, \",\"formattedAddress\":\"1890 Huntington Dr, Pasadena, CA 91108, USA\",\"neighborhood\":null,\"lat\":34.1190091,\"lng\":-118.1126926,\"zipcode\":\"91108\"},{\"location\":\"The Ebell of Los Angeles\",\"address\":\"4401 W 8th St Mid-Wilshire \",\"formattedAddress\":\"4401 W 8th St, Los Angeles, CA 90005, USA\",\"lat\":34.0609082,\"lng\":-118.3250733,\"zipcode\":\"90005\",\"city\":\"Los Angeles\",\"neighborhood\":\"Central LA\"},{\"location\":\"Downtown Los Angeles Historic Core\",\"address\":\"Sixth St. and Spring St. Los Angeles CA\",\"formattedAddress\":\"W 6th St & S Spring St, Los Angeles, CA 90014, USA\",\"neighborhood\":\"Downtown\",\"lat\":34.0459485,\"lng\":-118.2509641,\"zipcode\":\"90014\"},{\"location\":\"FIGat7th\",\"address\":\"735 S. Figueroa St., Los Angeles, \",\"formattedAddress\":\"735 S Figueroa St, Los Angeles, CA 90017, USA\",\"neighborhood\":\"Downtown\",\"lat\":34.0492459,\"lng\":-118.2617532,\"zipcode\":\"90017\"},{\"location\":\"M.i.'s Westside Comedy Theater\",\"address\":\"1323-A 3rd St Promenade (A stands for Alley) Santa Monica, \",\"formattedAddress\":\"Third Street Promenade, 1323-A 3rd St, Santa Monica, CA 90401, USA\",\"lat\":34.0169538,\"lng\":-118.4968376,\"zipcode\":\"90401\",\"city\":\"Santa Monica\",\"neighborhood\":\"Downtown\"},{\"location\":\"James Bridges Theater at UCLA's School of Theater, Film and Television\",\"address\":\"235 Charles E. Young Drive  \",\"formattedAddress\":\"East Melnitz Hall, 235 Charles E Young Dr E, Los Angeles, CA 90024, USA\",\"lat\":34.0764274,\"lng\":-118.439368,\"zipcode\":\"90024\",\"city\":\"Los Angeles\",\"neighborhood\":\"Westwood\"},{\"location\":\"Valley Performing Arts Center\",\"address\":\"18111 Nordoff St., Northridge, \",\"formattedAddress\":\"18111 Nordhoff St, Northridge, CA 91325, USA\",\"neighborhood\":\"Northridge\",\"lat\":34.2359329,\"lng\":-118.5280253,\"zipcode\":\"91325\"},{\"location\":\"Los Angeles Theatre Center\",\"address\":\"514 S. Spring St. Los Angeles, \",\"formattedAddress\":\"Security Building, 514 S Spring St, Los Angeles, CA 90013, USA\",\"lat\":34.0466405,\"lng\":-118.2496756,\"zipcode\":\"90013\",\"city\":\"Los Angeles\",\"neighborhood\":\"Central LA\"},{\"location\":\"Los Globos\",\"address\":\"3040 W. Sunset Blvd. Los Angeles, \",\"formattedAddress\":\"3040 Sunset Blvd, Los Angeles, CA 90026, USA\",\"neighborhood\":\"Silver Lake\",\"lat\":34.0838215,\"lng\":-118.2743235,\"zipcode\":\"90026\"},{\"location\":\"Harvelle's Santa Monica\",\"address\":\"1432 Fourth St. Santa Monica, \",\"formattedAddress\":\"1432 4th St, Santa Monica, CA 90401, USA\",\"neighborhood\":\"Downtown\",\"lat\":34.0156047,\"lng\":-118.4944879,\"zipcode\":\"90401\"},{\"location\":\"The Lot\",\"address\":\"1041 N. Formosa Los Angeles CA\",\"formattedAddress\":\"1041 N Formosa Ave, West Hollywood, CA 90046, USA\",\"lat\":34.09028660000001,\"lng\":-118.3464168,\"zipcode\":\"90046\",\"city\":\"West Hollywood\",\"neighborhood\":\"Central LA\"},{\"location\":\"OC Fair & Event Center\",\"address\":\"88 Fair Dr. Costa Mesa, \",\"formattedAddress\":\"88 Fair Dr, Costa Mesa, CA 92626, USA\",\"neighborhood\":null,\"lat\":33.6684775,\"lng\":-117.9046209,\"zipcode\":\"92626\"},{\"location\":\"M.i. Westside Comedy Theater\",\"address\":\"1323-A Third St. Promenade (in the alley betw. Third & Fourth Sts. at Arizona Ave.) Santa Monica, \"},{\"location\":\"Egyptian Theatre\",\"address\":\"6712 Hollywood Blvd., Hollywood, CA Hollywood \",\"formattedAddress\":\"6712 Hollywood Blvd, Los Angeles, CA 90028, USA\",\"neighborhood\":\"Hollywood\",\"lat\":34.1013684,\"lng\":-118.3366935,\"zipcode\":\"90028\"},{\"location\":\"Fonda Theatre\",\"address\":\"6126 Hollywood Blvd., Los Angeles, \",\"formattedAddress\":\"6126 Hollywood Blvd, Los Angeles, CA 90028, USA\",\"neighborhood\":\"Hollywood\",\"lat\":34.1012695,\"lng\":-118.3232478,\"zipcode\":\"90028\"},{\"location\":\"The Canyon\",\"address\":\"28912 Roadside Dr., Agoura Hills, \",\"formattedAddress\":\"28912 Roadside Dr, Agoura Hills, CA 91301, USA\",\"neighborhood\":null,\"lat\":34.144004,\"lng\":-118.7551541,\"zipcode\":\"91301\"},{\"location\":\"Downtown Long Beach\",\"address\":\"Linden Ave. and E. Broadway Long Beach CA\",\"formattedAddress\":\"E Broadway & Linden Ave, Long Beach, CA 90802, USA\",\"neighborhood\":\"Downtown\",\"lat\":33.7692751,\"lng\":-118.1863671,\"zipcode\":\"90802\"},{\"location\":\"Highland Park and surrounding areas\",\"address\":\"York Blvd. and N. Ave. 50 Los Angeles CA\",\"formattedAddress\":\"York Blvd & N Avenue 50, Los Angeles, CA 90042, USA\",\"neighborhood\":\"Eagle Rock\",\"lat\":34.1214799,\"lng\":-118.206906,\"zipcode\":\"90042\"},{\"location\":\"Downtown Pomona\",\"address\":\"Downtown Pomona Pomona \",\"formattedAddress\":\"119 W 2nd St, Pomona, CA 91766, USA\",\"neighborhood\":\"Westmont\",\"lat\":34.0580378,\"lng\":-117.7506816,\"zipcode\":\"91766\"},{\"location\":\"Rose Bowl\",\"address\":\"1001 Rose Bowl Dr. Pasadena, \",\"formattedAddress\":\"1001 Rose Bowl Dr, Pasadena, CA 91103, USA\",\"lat\":34.1606364,\"lng\":-118.1674865,\"zipcode\":\"91103\",\"city\":\"Pasadena\",\"neighborhood\":\"North Arroyo\"},{\"location\":\"PLATFORM\",\"address\":\"8850 Washington Blvd. Culver City, California 90232 310-883-5138\",\"formattedAddress\":\"8850 Washington Blvd, Culver City, CA 90232, USA\",\"lat\":34.0267767,\"lng\":-118.3881675,\"zipcode\":\"90232\",\"city\":\"Culver City\",\"neighborhood\":\"Lucerne - Higuera\"},{\"location\":\"Brand Library\",\"address\":\"1601 West Mountain Street Glendale \",\"formattedAddress\":\"1601 W Mountain St, Glendale, CA 91201, USA\",\"lat\":34.1826353,\"lng\":-118.2764402,\"zipcode\":\"91201\",\"city\":\"Glendale\",\"neighborhood\":\"Verdugo Mountains\"},{\"location\":\"The Pike Outlets\",\"address\":\"95 South Pine Avenue Long Beach \",\"formattedAddress\":\"95 S Pine Ave, Long Beach, CA 90802, USA\",\"neighborhood\":\"Waterfront\",\"lat\":33.76475,\"lng\":-118.1941419,\"zipcode\":\"90802\"},{\"location\":\"18th Street Arts Center\",\"address\":\"1639 18th Street Santa Monica \",\"formattedAddress\":\"1639 18th St, Santa Monica, CA 90404, USA\",\"lat\":34.023855,\"lng\":-118.4777478,\"zipcode\":\"90404\"},{\"location\":\"El Portal Theatre\",\"address\":\"5269 Lankershim Blvd. North Hollywood, \",\"formattedAddress\":\"5269 Lankershim Blvd, North Hollywood, CA 91601, USA\",\"neighborhood\":\"North Hollywood\",\"lat\":34.1667182,\"lng\":-118.3762649,\"zipcode\":\"91601\"},{\"location\":\"Future Studio Gallery\",\"address\":\"5558 N. Figueroa St. Highland Park \",\"formattedAddress\":\"5558 N Figueroa St, Los Angeles, CA 90042, USA\",\"lat\":34.1085305,\"lng\":-118.1943164,\"zipcode\":\"90042\",\"city\":\"Los Angeles\",\"neighborhood\":\"Northeast Los Angeles\"},{\"location\":\"Dorothy Chandler Pavilion\",\"address\":\"135 Grand Ave, Los Angeles, \",\"formattedAddress\":\"135 S Grand Ave, Los Angeles, CA 90012, USA\",\"neighborhood\":\"Downtown\",\"lat\":34.0552671,\"lng\":-118.2490979,\"zipcode\":\"90012\"},{\"location\":\"The Ambassador Auditorium\",\"address\":\"131 South Saint John Avenue Pasadena \",\"formattedAddress\":\"131 S St John Ave, Pasadena, CA 91123, USA\",\"neighborhood\":\"Northeast Los Angeles\",\"lat\":34.1433765,\"lng\":-118.1565116,\"zipcode\":\"91123\"},{\"location\":\"Long Beach Arena- Long Beach Convention and Entertainment Center\",\"address\":\"300 E. Ocean Blvd. Long Beach CA\",\"formattedAddress\":\"300 E Ocean Blvd, Long Beach, CA 90802, USA\",\"neighborhood\":\"Waterfront\",\"lat\":33.76520350000001,\"lng\":-118.1893341,\"zipcode\":\"90802\"},{\"location\":\"Alex Theatre in Glendale\",\"address\":\"216 N. Brand Blvd Glendale CA \",\"formattedAddress\":\"216 N Brand Blvd, Glendale, CA 91203, USA\",\"neighborhood\":\"Downtown\",\"lat\":34.1488644,\"lng\":-118.2548412,\"zipcode\":\"91203\"},{\"location\":\"The Mint\",\"address\":\"6010 W. Pico Blvd. Los Angeles, \",\"formattedAddress\":\"6010 W Pico Blvd, Los Angeles, CA 90035, USA\",\"neighborhood\":\"Mid City\",\"lat\":34.0521634,\"lng\":-118.3716095,\"zipcode\":\"90035\"},{\"location\":\"Santa Anita Park\",\"address\":\"285 W. Huntington Dr. Arcadia, \",\"formattedAddress\":\"285 W Huntington Dr, Arcadia, CA 91007, USA\",\"lat\":34.1365782,\"lng\":-118.0408645,\"zipcode\":\"91007\",\"city\":\"Arcadia\"},{\"location\":\"Woodley Park\",\"address\":\"6350 Woodley Ave. Van Nuys, \",\"formattedAddress\":\"6350 Woodley Ave, Van Nuys, CA 91436, USA\",\"neighborhood\":\"Van Nuys\",\"lat\":34.1786563,\"lng\":-118.4764638,\"zipcode\":\"91436\"},{\"location\":\"American Jewish University\",\"address\":\"15600 Mulholland Drive, Los Angeles, \",\"formattedAddress\":\"15600 Mulholland Dr, Los Angeles, CA 90077, USA\",\"neighborhood\":\"Bel Air\",\"lat\":34.1287275,\"lng\":-118.4719173,\"zipcode\":\"90077\"},{\"location\":\"Church of the Angels\",\"address\":\"1100 Avenue 64 Pasadena, \",\"formattedAddress\":\"1100 Avenue 64, Pasadena, CA 91105, USA\",\"lat\":34.1255288,\"lng\":-118.1761117,\"zipcode\":\"91105\",\"city\":\"Pasadena\",\"neighborhood\":\"Northeast Los Angeles\"},{\"location\":\"Royce Hall - UCLA\",\"address\":\"340 Royce Dr., Los Angeles, \",\"formattedAddress\":\"340 Royce Dr, Los Angeles, CA 90095, USA\",\"neighborhood\":\"Westwood\",\"lat\":34.0728242,\"lng\":-118.4421682,\"zipcode\":\"90095\"},{\"location\":\"Cinemark 18 & XD\",\"address\":\"6081 Center Dr #201, Los Angeles 90045, us\",\"formattedAddress\":\"6081 Center Dr #201, Los Angeles, CA 90045, USA\",\"neighborhood\":\"Westchester\",\"lat\":33.9780349,\"lng\":-118.391949,\"zipcode\":\"90045\"},{\"location\":\"Plaza de la Raza\",\"address\":\"3540 N. Mission Rd. Los Angeles, \",\"formattedAddress\":\"3540 N Mission Rd, Los Angeles, CA 90031, USA\",\"lat\":34.0672034,\"lng\":-118.2034603,\"zipcode\":\"90031\",\"city\":\"Los Angeles\",\"neighborhood\":\"Northeast Los Angeles\"},{\"location\":\"Hollywood Palladium\",\"address\":\"6215 W. Sunset Blvd. Los Angeles, \",\"formattedAddress\":\"6215 Sunset Blvd, Los Angeles, CA 90028, USA\",\"neighborhood\":\"Hollywood\",\"lat\":34.0984783,\"lng\":-118.3243046,\"zipcode\":\"90028\"},{\"location\":\"LARGO at the CORONET\",\"address\":\"366 N. La Cienega Blvd Los Angeles \",\"formattedAddress\":\"366 N La Cienega Blvd, Los Angeles, CA 90048, USA\",\"neighborhood\":\"Beverly Grove\",\"lat\":34.0778713,\"lng\":-118.3763218,\"zipcode\":\"90048\"},{\"location\":\"Downtown Culver City\",\"address\":\"9718 Washington Blvd, Culver City, \",\"formattedAddress\":\"9718 Washington Blvd, Culver City, CA 90232, USA\",\"neighborhood\":\"Downtown\",\"lat\":34.0221879,\"lng\":-118.3961479,\"zipcode\":\"90232\"},{\"location\":\"Colburn School’s Zipper Concert Hall\",\"address\":\"200 South Grand Avenue Los Angeles \",\"formattedAddress\":\"200 S Grand Ave, Los Angeles, CA 90012, USA\",\"neighborhood\":\"Downtown\",\"lat\":34.0540039,\"lng\":-118.2498686,\"zipcode\":\"90012\"},{\"location\":\"Bar Lubitsch\",\"address\":\"7702 Santa Monica Blvd, \",\"formattedAddress\":\"7702 Santa Monica Blvd, West Hollywood, CA 90046, USA\",\"neighborhood\":\"Central LA\",\"lat\":34.0908032,\"lng\":-118.3567625,\"zipcode\":\"90046\"},{\"location\":\"Saban Theatre\",\"address\":\"8440 W. Wilshire Blvd. Beverly Hills, \",\"formattedAddress\":\"8440 Wilshire Blvd, Beverly Hills, CA 90211, USA\",\"neighborhood\":null,\"lat\":34.0645718,\"lng\":-118.3748496,\"zipcode\":\"90211\"},{\"location\":\"The Wiltern\",\"address\":\"3790 Wilshire Blvd. Los Angeles, \",\"formattedAddress\":\"3790 Wilshire Blvd, Los Angeles, CA 90010, USA\",\"neighborhood\":\"Koreatown\",\"lat\":34.0614896,\"lng\":-118.3087587,\"zipcode\":\"90010\"},{\"location\":\"Teragram Ballroom\",\"address\":\"1234 W. Seventh St., Los Angeles 90017, us\",\"formattedAddress\":\"1234 W 7th St, Los Angeles, CA 90017, USA\",\"neighborhood\":\"Central LA\",\"lat\":34.0518639,\"lng\":-118.2670623,\"zipcode\":\"90017\"},{\"location\":\"Shrine Auditorium\",\"address\":\"665 W Jefferson Blvd., Los Angeles, \",\"formattedAddress\":\"665 W Jefferson Blvd, Los Angeles, CA 90007, USA\",\"neighborhood\":\"South Los Angeles\",\"lat\":34.0236612,\"lng\":-118.2812202,\"zipcode\":\"90007\"},{\"location\":\"The Theatre at Ace Hotel\",\"address\":\"929 S. Broadway Los Angeles, \",\"formattedAddress\":\"929 S Broadway, Los Angeles, CA 90015, USA\",\"neighborhood\":\"Downtown\",\"lat\":34.0418769,\"lng\":-118.2570341,\"zipcode\":\"90015\"},{\"location\":\"Woodley Park\",\"address\":\"6350 Woodley Ave. Van Nuys, \",\"formattedAddress\":\"6350 Woodley Ave, Van Nuys, CA 91436, USA\",\"neighborhood\":\"Van Nuys\",\"lat\":34.1786563,\"lng\":-118.4764638,\"zipcode\":\"91436\"},{\"location\":\"Griffith Park Fern Dell\",\"address\":\"2333 Fern Dell Place, Los Angeles 90068, us\",\"formattedAddress\":\"2333 Fern Dell Pl, Los Angeles, CA 90068, USA\",\"neighborhood\":\"Central LA\",\"lat\":34.1120369,\"lng\":-118.307843,\"zipcode\":\"90068\"},{\"location\":\"California Market Center (The CMC) - Penthouse Floor\",\"address\":\"110 East Ninth Street Los Angeles CA\",\"formattedAddress\":\"110 E 9th St, Los Angeles, CA 90079, USA\",\"lat\":34.0404559,\"lng\":-118.2553945,\"zipcode\":\"90079\",\"city\":\"Los Angeles\",\"neighborhood\":\"Central LA\"},{\"location\":\"The Good Luck Gallery\",\"address\":\"945 Chung King Rd. Los Angeles, \",\"formattedAddress\":\"945 Chung King Rd, Los Angeles, CA 90012, USA\",\"neighborhood\":\"Central LA\",\"lat\":34.0659286,\"lng\":-118.2385978,\"zipcode\":\"90012\"},{\"location\":\"Lora Schlesinger Gallery\",\"address\":\"2525 Michigan Ave., B5b Santa Monica, \",\"formattedAddress\":\"2525 Michigan Ave, Santa Monica, CA 90404, USA\",\"neighborhood\":\"Pico\",\"lat\":34.028222,\"lng\":-118.467641,\"zipcode\":\"90404\"},{\"location\":\"Union Station\",\"address\":\"800 N. Alameda St. Los Angeles, \",\"formattedAddress\":\"800 North Alameda Street, Los Angeles, CA 90012, USA\",\"lat\":34.0561193,\"lng\":-118.2375219,\"zipcode\":\"90012\",\"city\":\"Los Angeles\",\"neighborhood\":\"Central LA\"},{\"location\":\"Heritage Square Museum\",\"address\":\"3800 Homer Street Los Angeles, CA Lincoln Heights \",\"formattedAddress\":\"3800 Homer St, Los Angeles, CA 90031, USA\",\"neighborhood\":\"Northeast Los Angeles\",\"lat\":34.0880775,\"lng\":-118.208078,\"zipcode\":\"90031\"},{\"location\":\"Marsee Auditorium, Center for the Arts at El Camino College\",\"address\":\"16007 Crenshaw Boulevard Torrance \",\"formattedAddress\":\"16007 Crenshaw Blvd, Torrance, CA 90506, USA\",\"neighborhood\":null,\"lat\":33.8852359,\"lng\":-118.3284419,\"zipcode\":\"90506\"},{\"location\":\"Los Angeles Center Studios\",\"address\":\"450 S. Bixel St. Los Angeles, \",\"formattedAddress\":\"450 S Bixel St, Los Angeles, CA 90017, USA\",\"lat\":34.0555136,\"lng\":-118.2608743,\"zipcode\":\"90017\",\"city\":\"Los Angeles\",\"neighborhood\":\"Central LA\"},{\"location\":\"UCLA Meteorite Gallery\",\"address\":\"595 Charles Young Drive East, Geology 3697 Los Angeles, \"},{\"location\":\"Microsoft Theater\",\"address\":\"777 Chick Hearn Court Los Angeles, \",\"formattedAddress\":\"777 Chick Hearn Ct, Los Angeles, CA 90015, USA\",\"neighborhood\":\"Downtown\",\"lat\":34.044489,\"lng\":-118.2670519,\"zipcode\":\"90015\"},{\"location\":\"REDCAT\",\"address\":\"631 West 2nd Street Los Angeles \",\"formattedAddress\":\"631 W 2nd St, Los Angeles, CA 90012, USA\",\"lat\":34.0550997,\"lng\":-118.2505889,\"zipcode\":\"90012\",\"city\":\"Los Angeles\",\"neighborhood\":\"Downtown\"},{\"location\":\"Wilshire Ebell Theatre\",\"address\":\"4401 W 8th St. Los Angeles \",\"formattedAddress\":\"4401 W 8th St, Los Angeles, CA 90005, USA\",\"neighborhood\":\"Central LA\",\"lat\":34.0609082,\"lng\":-118.3250733,\"zipcode\":\"90005\"},{\"location\":\"The Federal Bar\",\"address\":\"102 Pine Ave. Long Beach, \",\"formattedAddress\":\"102 Pine Ave, Long Beach, CA 90802, USA\",\"neighborhood\":\"Downtown\",\"lat\":33.7682406,\"lng\":-118.1920563,\"zipcode\":\"90802\"},{\"location\":\"JW Marriott LA Live\",\"address\":\"800 W Olympic Blvd, Los Angeles, CA  Downtown \",\"formattedAddress\":\"Lucky Strike Bowling - Los Angeles, 800 W Olympic Blvd, Los Angeles, CA 90015, USA\",\"lat\":34.0447954,\"lng\":-118.2652703,\"zipcode\":\"90015\",\"city\":\"Los Angeles\",\"neighborhood\":\"Central LA\"},{\"location\":\"Pacific Battleship Center/Battleship IOWA Museum\",\"address\":\"250 S. Harbor Blvd, Los Angeles 90731, us\",\"formattedAddress\":\"250 S Harbor Blvd, San Pedro, CA 90731, USA\",\"neighborhood\":\"San Pedro\",\"lat\":33.7424041,\"lng\":-118.2772029,\"zipcode\":\"90731\"},{\"location\":\"Beverly O'Neill Theater - Long Beach Conv and Entertainment Ctr\",\"address\":\"300 E Ocean BL Long Beach CA\",\"formattedAddress\":\"300 E Ocean Blvd, Long Beach, CA 90802, USA\",\"neighborhood\":\"Waterfront\",\"lat\":33.76520350000001,\"lng\":-118.1893341,\"zipcode\":\"90802\"},{\"location\":\"Beverly Hilton Hotel\",\"address\":\"9876 Wilshire Blvd, Beverly Hills 90210, us\",\"formattedAddress\":\"9876 Wilshire Blvd, Beverly Hills, CA 90210, USA\",\"neighborhood\":\"Century City\",\"lat\":34.0668695,\"lng\":-118.4135112,\"zipcode\":\"90210\"},{\"location\":\"Exposition Park\",\"address\":\"Los Angeles \",\"formattedAddress\":\"Los Angeles, CA, USA\",\"neighborhood\":null,\"lat\":34.0522342,\"lng\":-118.2436849},{\"location\":\"Heritage Square Museum\",\"address\":\"3800 Homer Street Los Angeles, CA Lincoln Heights \",\"formattedAddress\":\"3800 Homer St, Los Angeles, CA 90031, USA\",\"neighborhood\":\"Northeast Los Angeles\",\"lat\":34.0880775,\"lng\":-118.208078,\"zipcode\":\"90031\"},{\"location\":\"Miles Memorial Playhouse\",\"address\":\"1130 Lincoln Blvd. Santa Monica, \",\"formattedAddress\":\"1130 Lincoln Blvd, Santa Monica, CA 90403, USA\",\"neighborhood\":\"Wilshire Montana\",\"lat\":34.0226618,\"lng\":-118.4956828,\"zipcode\":\"90403\"},{\"location\":\"San Gabriel Mission Playhouse\",\"address\":\"320 Mission Dr. San Gabriel, \",\"formattedAddress\":\"320 N Mission Dr, San Gabriel, CA 91775, USA\",\"neighborhood\":null,\"lat\":34.1068399,\"lng\":-118.1112117,\"zipcode\":\"91775\"},{\"location\":\"Musco Center for the Arts\",\"address\":\"1 University Drive, Orange 92866, us\",\"formattedAddress\":\"1 University Dr, Orange, CA 92866, USA\",\"neighborhood\":null,\"lat\":33.7930045,\"lng\":-117.8524747,\"zipcode\":\"92866\"},{\"location\":\"Wilshire Ebell Theatre\",\"address\":\"4401 W 8th St. Los Angeles \",\"formattedAddress\":\"4401 W 8th St, Los Angeles, CA 90005, USA\",\"neighborhood\":\"Central LA\",\"lat\":34.0609082,\"lng\":-118.3250733,\"zipcode\":\"90005\"}]"]