[{"location":"La Luz de Jesus Gallery","address":"4633 Hollywood Blvd. Los Angeles, ","formattedAddress":"4633 Hollywood Blvd, Los Angeles, CA 90027, USA","lat":34.1004237,"lng":-118.2899669,"zipcode":"90027","city":"Los Angeles","neighborhood":"Central LA"},{"location":"Think Tank Gallery","address":"939 Maple Ave. Los Angeles, ","formattedAddress":"939 Maple Ave, Los Angeles, CA 90015, USA","lat":34.0387504,"lng":-118.25387,"zipcode":"90015","city":"Los Angeles","neighborhood":"Central LA"},{"location":"Paramount Studios","address":"5555 Melrose Ave. Los Angeles, ","formattedAddress":"5555 Melrose Ave, Los Angeles, CA 90038, USA","lat":34.0844373,"lng":-118.3191466,"zipcode":"90038","city":"Los Angeles","neighborhood":"Central LA"},{"location":"IMAX THEATER, CALIFORNIA SCIENCE CENTER","address":"700 Exposition Los Angeles, ","formattedAddress":"700 Exposition Blvd, Los Angeles, CA 90037, USA","lat":34.0181226,"lng":-118.2869634,"zipcode":"90037","city":"Los Angeles","neighborhood":"South Los Angeles"},{"location":"JW Marriott Los Angeles L.A. Live","address":"900 W. Olympic Blvd. Los Angeles, ","formattedAddress":"900 W Olympic Blvd, Los Angeles, CA 90015, USA","lat":34.0452221,"lng":-118.2666712,"zipcode":"90015","city":"Los Angeles","neighborhood":"Downtown"},{"location":"Citizens Business Bank Arena","address":"4000 Ontario Center Ontario, ","formattedAddress":"4000 Ontario Center, Ontario, CA 91764, USA","lat":34.0729726,"lng":-117.5663751,"zipcode":"91764","city":"Ontario"},{"location":"Pomona Fairplex","address":"1101 W. McKinley Ave. Pomona, ","formattedAddress":"1101 W McKinley Ave, Pomona, CA 91768, USA","lat":34.0809612,"lng":-117.7651993,"zipcode":"91768","city":"Pomona","neighborhood":"Westmont"},{"location":"Pechanga Resort & Casino","address":"45000 Pechanga Parkway Temecula, ","formattedAddress":"45000 Pechanga Pkwy, Temecula, CA 92592, USA","lat":33.4559771,"lng":-117.1061683,"zipcode":"92592","city":"Temecula"},{"location":"Levitt Pavilion at MacArthur Park","address":"2230 W. Sixth St. Los Angeles, ","formattedAddress":"2230 W 6th St, Los Angeles, CA 90057, USA","lat":34.060205,"lng":-118.2770517,"zipcode":"90057","city":"Los Angeles","neighborhood":"Central LA"},{"location":"The Ford Theatres","address":"2580 Cahuenga Blvd. East Hollywood, California 90068 323-461-3673","formattedAddress":"2580 Cahuenga Blvd E, Los Angeles, CA 90068, USA","lat":34.1167804,"lng":-118.3366578,"zipcode":"90068","city":"Los Angeles","neighborhood":"Central LA"},{"location":"Arlington Theatre","address":"1317 State St. Santa Barbara, ","formattedAddress":"1317 State St, Santa Barbara, CA 93101, USA","lat":34.42462769999999,"lng":-119.7065206,"zipcode":"93101","city":"Santa Barbara","neighborhood":"Santa Barbara Downtown"},{"location":"People's Place & Palace","address":"365 W. Sixth St. San Pedro, ","formattedAddress":"365 W 6th St, San Pedro, CA 90731, USA","lat":33.7385334,"lng":-118.2848875,"zipcode":"90731","city":"Los Angeles","neighborhood":"San Pedro"},{"location":"Levitt Pavilion Pasadena","address":"85 E. Holly St. Pasadena, ","formattedAddress":"85 E Holly St, Pasadena, CA 91103, USA","lat":34.1478774,"lng":-118.1486,"zipcode":"91103","city":"Pasadena"},{"location":"Chinatown Central Plaza","address":"727 N. Broadway Los Angeles, ","formattedAddress":"727 N Broadway, Los Angeles, CA 90012, USA","lat":34.0613125,"lng":-118.2395806,"zipcode":"90012","city":"Los Angeles","neighborhood":"Central LA"},{"location":"Karen Michelle","address":"1460 S. Robertson Blvd. Los Angeles, CA 310-777-6700","formattedAddress":"1460 S Robertson Blvd, Los Angeles, CA 90035, USA","lat":34.0530371,"lng":-118.3837429,"zipcode":"90035","city":"Los Angeles","neighborhood":"Central LA"},{"location":"Camarillo Ranch Foundation","address":"201 Camarillo Ranch Rd. Camarillo, California 93010","formattedAddress":"201 Camarillo Ranch Rd, Camarillo, CA 93012, USA","lat":34.218499,"lng":-119.0183711,"zipcode":"93012","city":"Camarillo"},{"location":"Delicious Pizza","address":"5419 W. Adams Blvd. Los Angeles, ","formattedAddress":"5419 W Adams Blvd, Los Angeles, CA 90016, USA","lat":34.0326878,"lng":-118.3609014,"zipcode":"90016","city":"Los Angeles"},{"location":"Rainbow Bar & Grill","address":"9015 W. Sunset Blvd. West Hollywood, ","formattedAddress":"9015 Sunset Blvd, West Hollywood, CA 90069, USA","lat":34.0909078,"lng":-118.3882145,"zipcode":"90069","city":"West Hollywood","neighborhood":"Central LA"},{"location":"Festival Amphitheatre","address":"12762 Main St. Garden Grove, ","formattedAddress":"12762 Main St, Garden Grove, CA 92840, USA","lat":33.7770111,"lng":-117.940602,"zipcode":"92840","city":"Garden Grove"},{"location":"Nevada Museum of Art","address":"160 W. Liberty St. Reno, NV 89501","formattedAddress":"160 W Liberty St, Reno, NV 89501, USA","lat":39.5208179,"lng":-119.8132712,"zipcode":"89501","city":"Reno"},{"location":"BlackLight District","address":"2500 E. Anaheim St. Long Beach, ","formattedAddress":"2500 E Anaheim St, Long Beach, CA 90804, USA","lat":33.7824083,"lng":-118.1620861,"zipcode":"90804","city":"Long Beach","neighborhood":"Eastside"},{"location":"The Standard Downtown","address":"550 S. Flower St. Los Angeles, ","formattedAddress":"550 S Flower St, Los Angeles, CA 90071, USA","lat":34.0501654,"lng":-118.2569631,"zipcode":"90071","city":"Los Angeles","neighborhood":"Downtown"},{"location":"Knott's Berry Farm","address":"8039 Beach Blvd. Buena Park, ","formattedAddress":"8039 Beach Blvd, Buena Park, CA 90620, USA","lat":33.843854,"lng":-118.0001748,"zipcode":"90620","city":"Buena Park"},{"location":"Whitefire Theater","address":"13500 Ventura Blvd. Sherman Oaks, ","formattedAddress":"13500 Ventura Blvd, Sherman Oaks, CA 91423, USA","lat":34.1471717,"lng":-118.4273501,"zipcode":"91423","city":"Los Angeles","neighborhood":"Sherman Oaks"},{"location":"Ramen Bangaichi","address":"4339 W. Sunset Blvd. Los Angeles, CA 323-522-6578","formattedAddress":"4339 Sunset Blvd, Los Angeles, CA 90029, USA","lat":34.0952644,"lng":-118.2829531,"zipcode":"90029","city":"Los Angeles","neighborhood":"Central LA"},{"location":"Pasadena Playhouse","address":"39 S. El Molino Ave. Pasadena, ","formattedAddress":"39 S El Molino Ave, Pasadena, CA 91101, USA","lat":34.1451149,"lng":-118.137375,"zipcode":"91101","city":"Pasadena"},{"location":"Square Mixx","address":"450 S Western Ave., 3rd floor Los Angeles, ","formattedAddress":"450 S Western Ave, Los Angeles, CA 90020, USA","lat":34.0657724,"lng":-118.3085041,"zipcode":"90020","city":"Los Angeles","neighborhood":"Central LA"},{"location":"Starburns Castle","address":"1101 W. Isabel St. Burbank, ","formattedAddress":"1101 W Isabel St, Burbank, CA 91506, USA","lat":34.1826752,"lng":-118.3235756,"zipcode":"91506","city":"Burbank"},{"location":"Camino Theater","address":"855 North Vermont Avenue Los Angeles, ","formattedAddress":"855 N Vermont Ave, Los Angeles, CA 90029, USA","lat":34.0892329,"lng":-118.2927846,"zipcode":"90029","city":"Los Angeles","neighborhood":"Central LA"},{"location":"Academy of Motion Picture Arts and Sciences, Samuel Goldwyn Theater","address":"8949 Wilshire Blvd. Beverly Hills, ","formattedAddress":"8949 Wilshire Blvd, Beverly Hills, CA 90211, USA","lat":34.0673948,"lng":-118.3873419,"zipcode":"90211","city":"Beverly Hills"},{"location":"Laemmle's NoHo 7","address":"5240 Lankershim Blvd. Los Angeles, ","formattedAddress":"5240 Lankershim Blvd, North Hollywood, CA 91601, USA","lat":34.1661289,"lng":-118.3749957,"zipcode":"91601","city":"Los Angeles","neighborhood":"North Hollywood"},{"location":"The Dr. Martens Store","address":"12196 Ventura Blvd. Studio City, ","formattedAddress":"12196 Ventura Blvd, Studio City, CA 91604, USA","lat":34.1430193,"lng":-118.3984949,"zipcode":"91604","city":"Los Angeles","neighborhood":"Studio City"},{"location":"Mothers Beach","address":"5825 E. Appian Way Long Beach, ","formattedAddress":"5825 Appian Way, Long Beach, CA 90803, USA","lat":33.7574942,"lng":-118.120274,"zipcode":"90803","city":"Long Beach","neighborhood":"Naples"},{"location":"Irvine Barclay Theatre","address":"4242 Campus Dr. Irvine, ","formattedAddress":"Irvine Barclay Theater, 4242 Campus Dr, Irvine, CA 92697, USA","lat":33.6491845,"lng":-117.8408089,"zipcode":"92697","city":"Irvine"},{"location":"Norris Theatre","address":"27570 Norris Center Dr. Rolling Hills Estates, California 90274 310-544-0403","formattedAddress":"27570 Norris Center Dr, Rolling Hills Estates, CA 90274, USA","lat":33.7722142,"lng":-118.3755603,"zipcode":"90274","city":"Rolling Hills Estates"},{"location":"Glen Helen Amphitheater","address":"2575 Glen Helen Parkway San Bernardino, ","formattedAddress":"2575 Glen Helen Pkwy, San Bernardino, CA 92407, USA","lat":34.2108779,"lng":-117.4069989,"zipcode":"92407","city":"San Bernardino"},{"location":"The Old Towne Pub","address":"66 N. Fair Oaks Ave. Pasadena, ","formattedAddress":"66 N Fair Oaks Ave, Pasadena, CA 91103, USA","lat":34.1469566,"lng":-118.1501902,"zipcode":"91103","city":"Pasadena","neighborhood":"Old Pasadena"},{"location":"Santa Barbara Bowl","address":"1122 N. Milpas St. Santa Barbara, ","formattedAddress":"1122 N Milpas St, Santa Barbara, CA 93103, USA","lat":34.4326564,"lng":-119.6938129,"zipcode":"93103","city":"Santa Barbara","neighborhood":"Lower Riviera"},{"location":"94th Aero Squadron","address":"16320 Raymer Ave. Van Nuys, ","formattedAddress":"16320 Raymer St, Van Nuys, CA 91406, USA","lat":34.218635,"lng":-118.487894,"zipcode":"91406","city":"Los Angeles","neighborhood":"Van Nuys"},{"location":"St. Thomas the Apostle Church","address":"7501 Hollywood Blvd. Los Angeles, ","formattedAddress":"7501 Hollywood Blvd, Los Angeles, CA 90046, USA","lat":34.1019397,"lng":-118.3530847,"zipcode":"90046","city":"Los Angeles","neighborhood":"Hollywood"},{"location":"John Anson Ford Amphitheatre","address":"2580 Cahuenga Blvd. East Hollywood, ","formattedAddress":"2580 Cahuenga Blvd E, Los Angeles, CA 90068, USA","lat":34.1140558,"lng":-118.3343777,"zipcode":"90068","city":"Los Angeles","neighborhood":"Central LA"},{"location":"Arthritis Foundation","address":"800 W. 6th Street, Suite 1010 Los Angeles, ","formattedAddress":"800 W 6th St #1010, Los Angeles, CA 90017, USA","lat":34.0501093,"lng":-118.257949,"zipcode":"90017","city":"Los Angeles","neighborhood":"Central LA"},{"location":"Oxnard Beach Park","address":"1601 Harbor Blvd. Oxnard, ","formattedAddress":"1601 Harbor Blvd, Oxnard, CA 93035, USA","lat":34.1831605,"lng":-119.2362122,"zipcode":"93035","city":"Oxnard","neighborhood":"Oxnard Shores"},{"location":"Redondo Beach Pier","address":"100 Fisherman's Wharf Redondo Beach, ","formattedAddress":"100 Fishermans Wharf, Redondo Beach, CA 90277, USA","lat":33.8390803,"lng":-118.3909962,"zipcode":"90277","city":"Redondo Beach","neighborhood":"South Redondo"},{"location":"Wrigley Plaza Stage","address":"Crescent Ave. Avalon, ","formattedAddress":"Crescent Ave, Avalon, CA 90704, USA","lat":33.3440707,"lng":-118.325947,"zipcode":"90704","city":"Avalon"},{"location":"Cerritos Center for the Performing Arts","address":"12700 Center Court Dr. Cerritos, ","formattedAddress":"12700 Center Ct Dr N, Cerritos, CA 90703, USA","lat":33.867418,"lng":-118.0615344,"zipcode":"90703","city":"Cerritos"},{"location":"Mal's Bar","address":"2331 S. Hill St. Los Angeles, ","formattedAddress":"2331 Hill St, Los Angeles, CA 90007, USA","lat":34.0279403,"lng":-118.2697504,"zipcode":"90007","city":"Los Angeles","neighborhood":"South Los Angeles"},{"location":"Marina del Rey Hotel","address":"13534 Bali Way Marina del Rey, ","formattedAddress":"13534 Bali Way, Marina Del Rey, CA 90292, USA","lat":33.9799859,"lng":-118.4456637,"zipcode":"90292","city":"Marina del Rey"},{"location":"Riviera United Methodist Church","address":"375 Palos Verdes Blvd. Redondo Beach, ","formattedAddress":"375 Palos Verdes Blvd, Redondo Beach, CA 90277, USA","lat":33.8120401,"lng":-118.3873284,"zipcode":"90277","city":"Redondo Beach","neighborhood":"Riviera"},{"location":"ComedySportz","address":"733 Seward St. Los Angeles, ","formattedAddress":"733 Seward St, Los Angeles, CA 90038, USA","lat":34.0844523,"lng":-118.3333625,"zipcode":"90038","city":"Los Angeles","neighborhood":"Central LA"},{"location":"Las Perlas","address":"107 E. Sixth St. Los Angeles, ","formattedAddress":"107 E 6th St, Los Angeles, CA 90014, USA","lat":34.0450811,"lng":-118.2495339,"zipcode":"90014","city":"Los Angeles","neighborhood":"Downtown"},{"location":"Shape Up LA","address":"19564 Ventura Blvd Tarzana, ","formattedAddress":"19564 Ventura Blvd, Tarzana, CA 91356, USA","lat":34.1727814,"lng":-118.5593711,"zipcode":"91356","city":"Los Angeles","neighborhood":"Tarzana"},{"location":"The Evergreen State College","address":"2700 Evergreen Parkway NW Olympia, WA 98505 360-867-6000","formattedAddress":"2700 Evergreen Pkwy NW, Olympia, WA 98505, USA","lat":47.0733706,"lng":-122.9734736,"zipcode":"98505","city":"Olympia"},{"location":"Chelle's Seafood","address":"6325 Hollywood Blvd. Los Angeles, CA 323-468-0656","formattedAddress":"6325 Hollywood Blvd, Los Angeles, CA 90028, USA","lat":34.1017801,"lng":-118.3276247,"zipcode":"90028","city":"Los Angeles","neighborhood":"Hollywood"},{"location":"Stoner Recreation Center","address":"1835 Stoner Ave. Los Angeles, ","formattedAddress":"1835 Stoner Ave, Los Angeles, CA 90025, USA","lat":34.0384978,"lng":-118.453568,"zipcode":"90025","city":"Los Angeles","neighborhood":"Sawtelle"},{"location":"Joxer Daly's","address":"11168 Washington Blvd. Culver City, ","formattedAddress":"11168 Washington Blvd, Culver City, CA 90232, USA","lat":34.0077893,"lng":-118.4123399,"zipcode":"90232","city":"Culver City","neighborhood":"Clarkdale"},{"location":"Calabasas City Hall","address":"100 Civic Center Way Calabasas, California 91302 818-224-1600","formattedAddress":"100 Civic Center Way, Calabasas, CA 91302, USA","lat":34.1524861,"lng":-118.6472506,"zipcode":"91302","city":"Calabasas"},{"location":"Urban Press Winery","address":"316 N. San Fernando Blvd. Burbank, ","formattedAddress":"316 N San Fernando Blvd, Burbank, CA 91502, USA","lat":34.1826608,"lng":-118.3111691,"zipcode":"91502","city":"Burbank"},{"location":"American Friends Service Committee","address":"634 S. Spring St. Los Angeles, ","formattedAddress":"634 S Spring St, Los Angeles, CA 90014, USA","lat":34.0449856,"lng":-118.2514334,"zipcode":"90014","city":"Los Angeles","neighborhood":"Downtown"},{"location":"Beach Coders Academy","address":"615 N. Nash St. El Segundo, ","formattedAddress":"615 N Nash St, El Segundo, CA 90245, USA","lat":33.92535040000001,"lng":-118.3881438,"zipcode":"90245","city":"El Segundo"},{"location":"Pacific Resident Theatre","address":"703 Venice Blvd. Venice, ","formattedAddress":"703 Venice Blvd, Venice, CA 90291, USA","lat":33.9917092,"lng":-118.4580386,"zipcode":"90291","city":"Los Angeles","neighborhood":"Venice"},{"location":"iHeart Radio’s Wango Tango Concert","address":"18400 S Avalon Blvd Carson, ","formattedAddress":"18400 S Avalon Blvd, Carson, CA 90746, USA","lat":33.8637714,"lng":-118.2658432,"zipcode":"90746","city":"Carson"},{"location":"Plaza Park","address":"673 E Santa Clara St Ventura, ","formattedAddress":"673 E Santa Clara St, Ventura, CA 93001, USA","lat":34.2795408,"lng":-119.2903021,"zipcode":"93001","city":"Ventura","neighborhood":"Downtown Ventura"},{"location":"CycleBar","address":"4130 Sepulveda Blvd. Culver City, CA","formattedAddress":"4130 Sepulveda Blvd, Culver City, CA 90230, USA","lat":34.0065721,"lng":-118.4121854,"zipcode":"90230","city":"Culver City","neighborhood":"Clarkdale"},{"location":"Rainbow Lagoon Park","address":"400 E. Shoreline Village Dr. Long Beach, ","formattedAddress":"400 Shoreline Village Dr, Long Beach, CA 90802, USA","lat":33.7636937,"lng":-118.1881779,"zipcode":"90802","city":"Long Beach","neighborhood":"Waterfront"},{"location":"El Camino College","address":"16007 Crenshaw Blvd. Torrance, ","formattedAddress":"16007 Crenshaw Blvd, Torrance, CA 90506, USA","lat":33.8852359,"lng":-118.3284419,"zipcode":"90506","city":"Torrance"},{"location":"3600 Miner St.","address":"3600 Miner St. San Pedro, ","formattedAddress":"3600 Miner St, San Pedro, CA 90731, USA","lat":33.7173877,"lng":-118.2737662,"zipcode":"90731","city":"Los Angeles","neighborhood":"San Pedro"},{"location":"Zuma Beach","address":"30000 Pacific Coast Highway Malibu, California 90265 213-988-8344","formattedAddress":"30000 Pacific Coast Hwy, Malibu, CA 90265, USA","lat":34.0158729,"lng":-118.8203318,"zipcode":"90265","city":"Malibu","neighborhood":"Western Malibu"},{"location":"Griffith Park Merry-Go-Round","address":"4730 Crystal Springs Drive Los Angeles, California 90027 213-913-4688","formattedAddress":"4730 Crystal Springs Dr, Los Angeles, CA 90027, USA","lat":34.1328966,"lng":-118.280288,"zipcode":"90027","city":"Los Angeles"},{"location":"Jones Coffee Roasters","address":"693 S. Raymond Ave. Pasadena, ","formattedAddress":"693 S Raymond Ave, Pasadena, CA 91105, USA","lat":34.1337886,"lng":-118.1492671,"zipcode":"91105","city":"Pasadena"},{"location":"Bogie's","address":"32001 Agoura Rd. Westlake Village, ","formattedAddress":"32001 Agoura Rd, Westlake Village, CA 91361, USA","lat":34.1487865,"lng":-118.817408,"zipcode":"91361","city":"Westlake Village"},{"location":"The Moroccan Lounge","address":"901 E. First St. Los Angeles, ","formattedAddress":"901 E 1st St, Los Angeles, CA 90012, USA","lat":34.0487434,"lng":-118.2336734,"zipcode":"90012","city":"Los Angeles","neighborhood":"Central LA"},{"location":"Redondo Beach Performing Arts Center","address":"1935 Manhattan Beach Blvd. Redondo Beach, ","formattedAddress":"1935 Manhattan Beach Blvd, Redondo Beach, CA 90278, USA","lat":33.8881899,"lng":-118.3773458,"zipcode":"90278","city":"Redondo Beach","neighborhood":"North Redondo"},{"location":"A Simple Bar","address":"3256 Cahuenga Boulevard W. Los Angeles, ","formattedAddress":"3256 Cahuenga Blvd W, Los Angeles, CA 90068, USA","lat":34.1299759,"lng":-118.3487902,"zipcode":"90068","city":"Los Angeles","neighborhood":"Central LA"},{"location":"Figueroa at Wilshire","address":"601 S. Figueroa St. Los Angeles, ","formattedAddress":"Figueroa at Wilshire, 601 S Figueroa St, Los Angeles, CA 90017, USA","lat":34.0508105,"lng":-118.2592862,"zipcode":"90017","city":"Los Angeles","neighborhood":"Central LA"},{"location":"Unplug Meditation","address":"12401 Wilshire Blvd Los Angeles, ","formattedAddress":"12401 Wilshire Blvd, Los Angeles, CA 90025, USA","lat":34.0418857,"lng":-118.4707829,"zipcode":"90025","city":"Los Angeles","neighborhood":"West Los Angeles"},{"location":"DiPiazza's Restaurant & Lounge","address":"5205 E. Pacific Coast Highway Long Beach, ","formattedAddress":"5205 E Pacific Coast Hwy, Long Beach, CA 90815, USA","lat":33.7827075,"lng":-118.131961,"zipcode":"90804","city":"Long Beach","neighborhood":"Park Estates"},{"location":"Gallery 800","address":"5108 Lankershim Blvd. North Hollywood, ","formattedAddress":"5108 Lankershim Blvd, North Hollywood, CA 91601, USA","lat":34.1632645,"lng":-118.3732982,"zipcode":"91601","city":"Los Angeles","neighborhood":"North Hollywood"},{"location":"Rabobank Arena Theater & Convention Center","address":"1001 Truxtun Ave. Bakersfield, ","formattedAddress":"1001 Truxtun Ave, Bakersfield, CA 93301, USA","lat":35.372182,"lng":-119.012983,"zipcode":"93301","city":"Bakersfield","neighborhood":"Downtown"},{"location":"Figueroa Mountain Brewing Co.","address":"45 Industrial Way Buellton, California 93427 805-694-2252","formattedAddress":"45 Industrial Way, Buellton, CA 93427, USA","lat":34.6106759,"lng":-120.2022501,"zipcode":"93427","city":"Buellton"},{"location":"Smothers Theatre, Pepperdine University","address":"24255 Pacific Coast Highway Malibu, ","formattedAddress":"24255 E Pacific Coast Hwy, Malibu, CA 90265, USA","lat":34.038975,"lng":-118.7057353,"zipcode":"90265","city":"Malibu"},{"location":"Florence Joyner Olympiad Park","address":"22670 Olympiad Rd Mission Viejo, ","formattedAddress":"22670 Olympiad Rd, Mission Viejo, CA 92692, USA","lat":33.6326684,"lng":-117.6366245,"zipcode":"92692","city":"Mission Viejo"},{"location":"Ruskin Group Theatre","address":"3000 Airport Ave. Santa Monica, ","formattedAddress":"3000 Airport Ave, Santa Monica, CA 90405, USA","lat":34.0134461,"lng":-118.4497944,"zipcode":"90405","city":"Santa Monica"},{"location":"Black Rabbit Rose","address":"1719 N. Hudson Ave. Los Angeles, ","formattedAddress":"1719 N Hudson Ave, Los Angeles, CA 90028, USA","lat":34.101888,"lng":-118.3321008,"zipcode":"90028","city":"Los Angeles","neighborhood":"Central LA"},{"location":"Montalban Theatre","address":"1615 Vine St. Los Angeles, ","formattedAddress":"1615 Vine St, Los Angeles, CA 90028, USA","lat":34.1002972,"lng":-118.3271407,"zipcode":"90028","city":"Los Angeles","neighborhood":"Central LA"},{"location":"Beaches Resorts on Turks and Caicos Islands","address":"Lower Bight Rd The Bight Settlement, Turks and Caicos Islands TKCA 1ZZ 310-645-4345","formattedAddress":"Lower Bight Rd, The Bight Settlement TKCA 1ZZ, Turks and Caicos Islands","lat":21.782533,"lng":-72.20465639999999,"zipcode":"TKCA 1ZZ","city":"The Bight Settlement"},{"location":"Hyatt Regency Orange County","address":"11999 Harbor Blvd. Garden Grove, ","formattedAddress":"11999 S Harbor Blvd, Garden Grove, CA 92840, USA","lat":33.7895808,"lng":-117.916555,"zipcode":"92840","city":"Garden Grove","neighborhood":"Anaheim Resort"},{"location":"Gold Diggers","address":"5632 Santa Monica Blvd. Los Angeles, ","formattedAddress":"5632 Santa Monica Blvd, Los Angeles, CA 90038, USA","lat":34.09058720000001,"lng":-118.31256,"zipcode":"90038","city":"Los Angeles","neighborhood":"Hollywood"},{"location":"Hollywood Property Owners Alliance","address":"6562 Hollywood Blvd. Hollywood, ","formattedAddress":"6562 Hollywood Blvd, Los Angeles, CA 90028, USA","lat":34.1012961,"lng":-118.3331656,"zipcode":"90028","city":"Los Angeles","neighborhood":"Hollywood"},{"location":"Marina Green Park","address":"386 E. Shoreline Dr. Long Beach, ","formattedAddress":"386 E Shoreline Dr, Long Beach, CA 90802, USA","lat":33.7614113,"lng":-118.1867081,"zipcode":"90802","city":"Long Beach","neighborhood":"Downtown"},{"location":"Historic Nixon Plaza","address":"13002 Philadelphia St Whittier, ","formattedAddress":"13002 Philadelphia St, Whittier, CA 90601, USA","lat":33.9787741,"lng":-118.0370339,"zipcode":"90601","city":"Whittier"},{"location":"Cinemark Playa Vista and XD","address":"12746 W Jefferson Blvd #3190 Los Angeles, ","formattedAddress":"12746 W Jefferson Blvd #3190, Playa Vista, CA 90094, USA","lat":33.9770366,"lng":-118.4173063,"zipcode":"90094","city":"Los Angeles","neighborhood":"Playa Vista"},{"location":"Port of Los Angeles","address":"3011 Miner St. Los Angeles ","formattedAddress":"3011 Miner St, San Pedro, CA 90731, USA","lat":33.7154373,"lng":-118.2742548,"zipcode":"90731","city":"Los Angeles","neighborhood":"San Pedro"},{"location":"Fairplex Pomona","address":"1101 W McKinley Ave, Pomona, CA ","formattedAddress":"1101 W McKinley Ave, Pomona, CA 91768, USA","lat":34.0809612,"lng":-117.7651993,"zipcode":"91768","city":"Pomona","neighborhood":"Westmont"},{"location":"Paramount Pictures Studios","address":"5555 Melrose Avenue 5555 Melrose Avenue CA","formattedAddress":"5555 Melrose Ave, Los Angeles, CA 90038, USA","lat":34.0854228,"lng":-118.319153,"zipcode":"90038","city":"Los Angeles","neighborhood":"Hollywood"},{"location":"LEVEL","address":"888 S. Olive Street Los Angeles, CA  Downtown ","formattedAddress":"888 S Olive St, Los Angeles, CA 90015, USA","lat":34.0437942,"lng":-118.2577112,"zipcode":"90015","city":"Los Angeles","neighborhood":"Downtown"},{"location":"dublab","address":"4519 Santa Monica Boulevard 4519 Santa Monica Boulevard CA Los Angeles","formattedAddress":"4519 Santa Monica Blvd, Los Angeles, CA 90029, USA","lat":34.0909885,"lng":-118.2870572,"zipcode":"90029","city":"Los Angeles","neighborhood":"Hollywood"},{"location":"344 , Dhula Garden","address":"344 , Dhula Garden Miami CA 33114"},{"location":"Hollywood and Vine St.","address":"Hollywood Blvd &amp; Vine St, Los Angeles, CA Hollywood ","formattedAddress":"Hollywood Blvd & Vine St, Los Angeles, CA 90028, USA","lat":34.1016345,"lng":-118.3267051,"zipcode":"90028","city":"Los Angeles","neighborhood":"Hollywood"},{"location":"Davey's Locker","address":"400 Main Street Newport Beach CA","formattedAddress":"400 Main St, Newport Beach, CA 92661, USA","lat":33.6027472,"lng":-117.8988851,"zipcode":"92661","city":"Newport Beach","neighborhood":"Balboa Peninsula"},{"location":"Ronald Reagan Presidential Library and Museum","address":"40 Presidential Drive Simi Valley ","formattedAddress":"40 Presidential Dr, Simi Valley, CA 93065, USA","lat":34.2598671,"lng":-118.8198082,"zipcode":"93065","city":"Simi Valley"},{"location":"Skirball Center","address":"2701 N Sepulveda Blvd Los Angeles ","formattedAddress":"2701 N Sepulveda Blvd, Los Angeles, CA 90049, USA","lat":34.124832,"lng":-118.4791916,"zipcode":"90049","city":"Los Angeles"},{"location":"Skirball Center","address":"2701 N. Sepulveda Blvd Los Angeles ","formattedAddress":"2701 N Sepulveda Blvd, Los Angeles, CA 90049, USA","lat":34.124832,"lng":-118.4791916,"zipcode":"90049","city":"Los Angeles"},{"location":"Hornblower Cruises","address":"13755 Fiji Way 13755 Fiji Way CA","formattedAddress":"13755 Fiji Way, Marina Del Rey, CA 90292, USA","lat":33.9725614,"lng":-118.4462468,"zipcode":"90292","city":"Marina del Rey"},{"location":"El Camp","address":"2150 Park Place, El Segundo, CA El Segundo ","formattedAddress":"2150 E El Segundo Blvd, El Segundo, CA 90245, USA","lat":33.9162775,"lng":-118.3874744,"zipcode":"90245","city":"El Segundo"},{"location":"Ruskin Group Theatre","address":"3000 Airport Ave. Santa Monica ","formattedAddress":"3000 Airport Ave, Santa Monica, CA 90405, USA","lat":34.0134461,"lng":-118.4497944,"zipcode":"90405","city":"Santa Monica"},{"location":"Rowland Heights Center","address":"18150 Pathfinder Rd. Rowland Heights ","formattedAddress":"18150 Pathfinder Rd, Rowland Heights, CA 91748, USA","lat":33.966144,"lng":-117.912631,"zipcode":"91748","city":"Rowland Heights"},{"location":"UCLA Library","address":"280 Charles E. Young Dr. North, Los Angeles, CA   ","formattedAddress":"Charles E. Young Research Library, 280 Charles E Young Dr N, Los Angeles, CA 90095, USA","lat":34.0749691,"lng":-118.441466,"zipcode":"90095","city":"Los Angeles","neighborhood":"Westwood"},{"location":"ART LANDING GALLERY","address":"1146 South Inglewood Ave Inglewood ","formattedAddress":"1146 S Inglewood Ave, Inglewood, CA 90301, USA","lat":33.9474481,"lng":-118.361098,"zipcode":"90301","city":"Inglewood"},{"location":"The Pantages Theater","address":"6233 Hollywood Blvd. Los Angeles CA","formattedAddress":"6233 Hollywood Blvd, Los Angeles, CA 90028, USA","lat":34.102001,"lng":-118.325867,"zipcode":"90028","city":"Los Angeles","neighborhood":"Hollywood"},{"location":"Four Seasons Hotel Los Angeles at Beverly Hills","address":"300 South Doheny Drive Los Angeles ","formattedAddress":"300 S Doheny Dr, Los Angeles, CA 90048, USA","lat":34.0729547,"lng":-118.3892059,"zipcode":"90048","city":"Los Angeles","neighborhood":"Central LA"},{"location":"Go For Broke National Education Center","address":"355 E. 1st Street Los Angeles ","formattedAddress":"355 E 1st St, Los Angeles, CA 90012, USA","lat":34.0494891,"lng":-118.2396109,"zipcode":"90012","city":"Los Angeles","neighborhood":"Central LA"},{"location":"Strada Eateria & Coffee","address":"119 E 5th St Little Tokyo ","formattedAddress":"119 E 5th St, Los Angeles, CA 90013, USA","lat":34.0464186,"lng":-118.2478117,"zipcode":"90013","city":"Los Angeles","neighborhood":"Central LA"},{"location":"Odyssey Theatre Ensemble","address":"2055 S. Sepulveda Blvd. Los Angeles ","formattedAddress":"2055 S Sepulveda Blvd, Los Angeles, CA 90025, USA","lat":34.0417077,"lng":-118.439644,"zipcode":"90025","city":"Los Angeles","neighborhood":"West Los Angeles"},{"location":"JW Marriott L.A. Live","address":"900 West Olympic Boulevard Los Angeles ","formattedAddress":"900 W Olympic Blvd, Los Angeles, CA 90015, USA","lat":34.0452221,"lng":-118.2666712,"zipcode":"90015","city":"Los Angeles","neighborhood":"Downtown"},{"location":"The GRAMMY Museum®","address":"A245, 800 West Olympic Boulevard Los Angeles ","formattedAddress":"Lucky Strike Bowling - Los Angeles, 800 W Olympic Blvd, Los Angeles, CA 90015, USA","lat":34.0447954,"lng":-118.2652703,"zipcode":"90015","city":"Los Angeles","neighborhood":"Central LA"},{"location":"KP Project Chinatown","address":"936 Mei Ling Way Downtown ","formattedAddress":"936 Mei Ling Way, Los Angeles, CA 90012, USA","lat":34.0651429,"lng":-118.2378556,"zipcode":"90012","city":"Los Angeles","neighborhood":"Central LA"},{"location":"The Sherry Theater","address":"11052 Magnolia Blvd. North Hollywood ","formattedAddress":"11052 W Magnolia Blvd, North Hollywood, CA 91601, USA","lat":34.164743,"lng":-118.3723852,"zipcode":"91601","city":"Los Angeles","neighborhood":"North Hollywood"},{"location":"Catalina Jazz","address":"6725 W. Sunset Blvd. Hollywood ","formattedAddress":"6725 Sunset Blvd, Los Angeles, CA 90028, USA","lat":34.09834420000001,"lng":-118.3373005,"zipcode":"90028","city":"Los Angeles","neighborhood":"Central LA"},{"location":"Viper Room","address":"8852 W Sunset Blvd West Hollywood ","formattedAddress":"8852 Sunset Blvd, West Hollywood, CA 90069, USA","lat":34.0904329,"lng":-118.3850555,"zipcode":"90069","city":"West Hollywood","neighborhood":"Central LA"},{"location":"Treehouse Rooftop DTLA","address":"686 N Spring St Downtown ","formattedAddress":"600-698 N Spring St, Pensacola, FL 32501, USA","lat":30.4194494,"lng":-87.2197713,"zipcode":"32501","city":"Pensacola","neighborhood":"Downtown"},{"location":"Los Angeles County Fair","address":"1101 W. McKinley Ave. Pomona ","formattedAddress":"1101 W McKinley Ave, Pomona, CA 91768, USA","lat":34.0809612,"lng":-117.7651993,"zipcode":"91768","city":"Pomona","neighborhood":"Westmont"},{"location":"Norris Theatre","address":"Norris Center Drive Palos Verdes Estates ","formattedAddress":"Norris Center Dr, Rolling Hills Estates, CA 90274, USA","lat":33.7729831,"lng":-118.3750825,"zipcode":"90274","city":"Rolling Hills Estates"},{"location":"Glendale Galleria","address":"100 W. Broadway Glendale CA ","formattedAddress":"100 W Broadway, Glendale, CA 91204, USA","lat":34.1460872,"lng":-118.2561726,"zipcode":"91204","city":"Glendale","neighborhood":"Downtown"},{"location":"Glendale Galleria","address":"100 W. Broadway, Suite 100  Glendale ","formattedAddress":"100 W Broadway #100, Glendale, CA 91204, USA","lat":34.1460872,"lng":-118.2561726,"zipcode":"91204","city":"Glendale","neighborhood":"Downtown"},{"location":"FLEX Los Angeles","address":"1640 S. Sepulveda Blvd, SUITE 209 West Los Angeles ","formattedAddress":"1640 S Sepulveda Blvd #209, Los Angeles, CA 90025, USA","lat":34.0487549,"lng":-118.4447896,"zipcode":"90025","city":"Los Angeles","neighborhood":"Westwood"},{"location":"Norris Theatre","address":"27570 Norris Center Drive Rolling Hills Estates ","formattedAddress":"27570 Norris Center Dr, Rolling Hills Estates, CA 90274, USA","lat":33.7722142,"lng":-118.3755603,"zipcode":"90274","city":"Rolling Hills Estates"},{"location":"Gaslamp Long Beach","address":"6251 E. Pacific Coast Highway Long Beach ","formattedAddress":"6251 E Pacific Coast Hwy, Long Beach, CA 90803, USA","lat":33.7671249,"lng":-118.1163545,"zipcode":"90803","city":"Long Beach","neighborhood":"Marina"},{"location":"The Parlor Hollywood","address":"7250 Melrose Ave Los Angeles ","formattedAddress":"7250 Melrose Ave, Los Angeles, CA 90046, USA","lat":34.08324959999999,"lng":-118.3476921,"zipcode":"90046","city":"Los Angeles","neighborhood":"Central LA"},{"location":"Kidspace Children's Museum","address":"480 N. Arroyo Blvd. Pasadena CA","formattedAddress":"The Robert's Pavilion, 480 N Arroyo Blvd, Pasadena, CA 91103, USA","lat":34.1554477,"lng":-118.1639971,"zipcode":"91103","city":"Pasadena","neighborhood":"North Arroyo"},{"location":"The Viceroy Hotel","address":"1819 Ocean Avenue  ","formattedAddress":"1819 Ocean Ave, Santa Monica, CA 90401, USA","lat":34.0081095,"lng":-118.4903991,"zipcode":"90401","city":"Santa Monica"},{"location":"Electric Lodge Dance Studio","address":"1416 Electric Ave. Venice ","formattedAddress":"1416 Electric Ave, Venice, CA 90291, USA","lat":33.9911866,"lng":-118.4650125,"zipcode":"90291","city":"Los Angeles","neighborhood":"Venice"},{"location":"Broken Shaker at Freehand Los Angeles","address":"416 W 8th Street Downtown ","formattedAddress":"416 W 8th St, Los Angeles, CA 90014, USA","lat":34.044814,"lng":-118.25666,"zipcode":"90014","city":"Los Angeles","neighborhood":"Central LA"},{"location":"Skirball Center","address":"2701 N Sepulveda Blvd Los Angeles, CA ","formattedAddress":"2701 N Sepulveda Blvd, Los Angeles, CA 90049, USA","lat":34.124832,"lng":-118.4791916,"zipcode":"90049","city":"Los Angeles"},{"location":"The Wallis Annenberg Center for the Performing Arts","address":"9390 North Santa Monica Boulevard, Beverly Hills,  ","formattedAddress":"9390 N Santa Monica Blvd, Beverly Hills, CA 90210, USA","lat":34.0722901,"lng":-118.4012055,"zipcode":"90210","city":"Beverly Hills"},{"location":"LA Star Dance Studio","address":"LA Star Dance Studio Tarzana ","formattedAddress":"19320 Ventura Blvd, Tarzana, CA 91356, USA","lat":34.1724618,"lng":-118.5542527,"zipcode":"91356","city":"Los Angeles","neighborhood":"Tarzana"},{"location":"Lot 1","address":"1533 Sunset Blvd Silver Lake ","formattedAddress":"1533 Sunset Blvd, Los Angeles, CA 90026, USA","lat":34.0763907,"lng":-118.2559403,"zipcode":"90026","city":"Los Angeles","neighborhood":"Echo Park"},{"location":"AMC Burbank","address":"770 N 1st St. Burbank, CA ","formattedAddress":"770 N 1st St, Burbank, CA 91502, USA","lat":34.1848397,"lng":-118.3153246,"zipcode":"91502","city":"Burbank"},{"location":"The Yard House","address":"800 W Olympic Blvd Downtown ","formattedAddress":"Lucky Strike Bowling - Los Angeles, 800 W Olympic Blvd, Los Angeles, CA 90015, USA","lat":34.0447954,"lng":-118.2652703,"zipcode":"90015","city":"Los Angeles","neighborhood":"Central LA"},{"location":"Faultline Bar","address":"4216 Melrose Avenue, Los Angeles, CA Mid-Wilshire ","formattedAddress":"4216 Melrose Ave, Los Angeles, CA 90029, USA","lat":34.083439,"lng":-118.292403,"zipcode":"90029","city":"Los Angeles","neighborhood":"Central LA"},{"location":"LA LIVE Regal Cinemas","address":"1000 W Olympic Blvd, Los Angeles, CA Downtown ","formattedAddress":"1000 W Olympic Blvd, Los Angeles, CA 90015, USA","lat":34.0457356,"lng":-118.2680272,"zipcode":"90015","city":"Los Angeles","neighborhood":"Downtown"},{"location":"Culver Palms YMCA Dance Studio","address":"4500 Sepulveda Blvd Culver City ","formattedAddress":"4500 Sepulveda Blvd, Culver City, CA 90230, USA","lat":34.0025145,"lng":-118.4052464,"zipcode":"90230","city":"Culver City","neighborhood":"Park West"},{"location":"SpringHill Suites Marriott, Downtown Burbank","address":"549 S San Fernando Blvd Burbank ","formattedAddress":"549 S San Fernando Blvd, Burbank, CA 91502, USA","lat":34.1772308,"lng":-118.3042364,"zipcode":"91502","city":"Burbank"},{"location":"Formerly De Re Gallery","address":"8373 Melrose Avenue  ","formattedAddress":"8373 Melrose Ave, Los Angeles, CA 90069, USA","lat":34.0838554,"lng":-118.3726075,"zipcode":"90069","city":"Los Angeles","neighborhood":"Central LA"},{"location":"LA84 Foundation Library","address":"2141 West Adams Blvd. Jefferson ","formattedAddress":"2141 W Adams Blvd, Los Angeles, CA 90018, USA","lat":34.0332193,"lng":-118.3127034,"zipcode":"90018","city":"Los Angeles","neighborhood":"South Los Angeles"},{"location":"Pacific Avenue Arts Colony","address":"303 S. Pacific Ave. San Pedro ","formattedAddress":"303 S Pacific Ave, San Pedro, CA 90731, USA","lat":33.7411443,"lng":-118.2881367,"zipcode":"90731","city":"Los Angeles","neighborhood":"San Pedro"},{"location":"The District by Hannah An","address":"8772 W. 3rd Street Los Angeles, California ","formattedAddress":"8772 W 3rd St, Los Angeles, CA 90048, USA","lat":34.0735913,"lng":-118.3833694,"zipcode":"90048","city":"Los Angeles","neighborhood":"Central LA"},{"location":"Getty Villa Malibu","address":"17985 Pacific Coast Highway Los Angeles CA","formattedAddress":"17985 Pacific Coast Hwy, Pacific Palisades, CA 90272, USA","lat":34.04401259999999,"lng":-118.5666443,"zipcode":"90272","city":"Los Angeles","neighborhood":"Pacific Palisades"},{"location":"Glen Helen Raceway 18585 Verdemont Ranch Road San Bernardino, CA 92407","address":"18585 Verdemont Ranch Road San Bernardino, CA ","formattedAddress":"18585 Verdemont Ranch Rd, San Bernardino, CA 92407, USA","lat":34.190556,"lng":-117.390009,"zipcode":"92407","city":"San Bernardino"},{"location":"Space 15 Twenty","address":"1520 N Cahuenga Blvd Hollywood ","formattedAddress":"1520 N Cahuenga Blvd, Los Angeles, CA 90028, USA","lat":34.0989122,"lng":-118.3290776,"zipcode":"90028","city":"Los Angeles","neighborhood":"Central LA"},{"location":"Los Angeles County Museum of Art","address":"5905 Wilshire Blvd. Los Angeles ","formattedAddress":"5905 Wilshire Blvd, Los Angeles, CA 90036, USA","lat":34.0637913,"lng":-118.3588851,"zipcode":"90036","city":"Los Angeles","neighborhood":"Central LA"},{"location":"Ford Theatres","address":"2580 Cahuenga Blvd. East Hollywood ","formattedAddress":"2580 Cahuenga Blvd E, Los Angeles, CA 90068, USA","lat":34.1140558,"lng":-118.3343777,"zipcode":"90068","city":"Los Angeles","neighborhood":"Central LA"},{"location":"Gary E. Goodson Theatre","address":"1327 S San Gabriel Blvd San Gabriel ","formattedAddress":"1327 S San Gabriel Blvd, San Gabriel, CA 91776, USA","lat":34.08243849999999,"lng":-118.0910403,"zipcode":"91776","city":"San Gabriel"},{"location":"Centennial Square at Pasadena City Hall","address":"100 N Garfield Ave  Pasadena ","formattedAddress":"100 Garfield Ave, Pasadena, CA 91101, USA","lat":34.14764540000001,"lng":-118.1437979,"zipcode":"91101","city":"Pasadena"},{"location":"University of California, Los Angeles (UCLA)","address":"120 Westwood Blvd. Los Angeles ","formattedAddress":"Kaufman Hall, 120 Westwood Plaza, Los Angeles, CA 90095, USA","lat":34.0728633,"lng":-118.4440614,"zipcode":"90095","city":"Los Angeles","neighborhood":"Westwood"},{"location":"People's Place","address":"356 W 6th Street San Pedro ","formattedAddress":"356 W 6th St, San Pedro, CA 90731, USA","lat":33.7389058,"lng":-118.2847088,"zipcode":"90731","city":"Los Angeles","neighborhood":"San Pedro"},{"location":"Rainbow Lagoon Park","address":"E Shoreline Dr Long Beach, CA ","formattedAddress":"E Shoreline Dr, Long Beach, CA 90802, USA","lat":33.76233089999999,"lng":-118.1874679,"zipcode":"90802","city":"Long Beach","neighborhood":"Downtown"},{"location":"Haworth Los Angeles Showroom","address":"444 South Flower Street Downtown ","formattedAddress":"Citigroup center, 444 S Flower St, Los Angeles, CA 90071, USA","lat":34.051561,"lng":-118.2549921,"zipcode":"90071","city":"Los Angeles","neighborhood":"Downtown"},{"location":"Garis & Hahn","address":"1820 Industrial St, Los Angeles Downtown ","formattedAddress":"1820 Industrial St, Los Angeles, CA 90021, USA","lat":34.035803,"lng":-118.2337279,"zipcode":"90021","city":"Los Angeles","neighborhood":"Downtown"},{"location":"Leonis Adobe Museum","address":"23537 Calabasas Road Calabasas ","formattedAddress":"23537 Calabasas Rd, Calabasas, CA 91302, USA","lat":34.1575359,"lng":-118.6402745,"zipcode":"91302","city":"Calabasas"},{"location":"The LODGE","address":"1024 N WESTERN AVE Mid-Wilshire ","formattedAddress":"1024 N Western Ave, Los Angeles, CA 90029, USA","lat":34.0892821,"lng":-118.3089633,"zipcode":"90029","city":"Los Angeles","neighborhood":"Central LA"},{"location":"KP Projects","address":"170 South La Brea Avenue La Brea ","formattedAddress":"170 South La Brea Ave, Los Angeles, CA 90036, USA","lat":34.0714876,"lng":-118.3440441,"zipcode":"90036","city":"Los Angeles","neighborhood":"Central LA"},{"location":"Forest Lawn Glendale","address":"1712 S. Glendale Ave. Glendale CA","formattedAddress":"1712 S Glendale Ave, Glendale, CA 91205, USA","lat":34.1247374,"lng":-118.2516698,"zipcode":"91205","city":"Glendale","neighborhood":"Adams Hill"},{"location":"Gabba Gallery","address":"3126 Beverly Blvd Los Angeles ","formattedAddress":"3126 Beverly Blvd, Los Angeles, CA 90057, USA","lat":34.0719998,"lng":-118.2830273,"zipcode":"90057","city":"Los Angeles","neighborhood":"Central LA"},{"location":"The Left Bank","address":"2479 Fletcher Dr Los Angeles ","formattedAddress":"2479 Fletcher Dr, Los Angeles, CA 90039, USA","lat":34.1075188,"lng":-118.2550627,"zipcode":"90039","city":"Los Angeles","neighborhood":"Northeast Los Angeles"},{"location":"TreePeople Ampitheatre","address":"12601 Mulholland Drive  ","formattedAddress":"12601 Mulholland Dr, Studio City, CA 91604, USA","lat":34.1291351,"lng":-118.4062733,"zipcode":"91604","city":"Los Angeles","neighborhood":"Studio City"},{"location":"24th STreet Theatre","address":"1117 West 24th St. Los Angeles ","formattedAddress":"1117 W 24th St, Los Angeles, CA 90007, USA","lat":34.0346417,"lng":-118.284517,"zipcode":"90007","city":"Los Angeles","neighborhood":"South Los Angeles"},{"location":"Revive Theater","address":"12420 Santa Monica Blvd. West Los Angeles ","formattedAddress":"12420 Santa Monica Blvd, Los Angeles, CA 90025, USA","lat":34.0389221,"lng":-118.4670902,"zipcode":"90025","city":"Los Angeles","neighborhood":"Sawtelle"},{"location":"The World Stage Art, Education & Performance Gallery","address":"4344 Degnan Blvd Los Angeles ","formattedAddress":"4344 Degnan Blvd, Los Angeles, CA 90008, USA","lat":34.0047153,"lng":-118.3312343,"zipcode":"90008","city":"Los Angeles","neighborhood":"South Los Angeles"},{"location":"Gaslamp Long Beach","address":"6251 E. Pacific Coast Highway Long Beach CA","formattedAddress":"6251 E Pacific Coast Hwy, Long Beach, CA 90803, USA","lat":33.7671249,"lng":-118.1163545,"zipcode":"90803","city":"Long Beach","neighborhood":"Marina"},{"location":"Mal's Bar","address":"2331 S. Hill St. Downtown ","formattedAddress":"2331 Hill St, Los Angeles, CA 90007, USA","lat":34.0279403,"lng":-118.2697504,"zipcode":"90007","city":"Los Angeles","neighborhood":"South Los Angeles"},{"location":"Hammer Museum - Annex","address":"10899 Wilshire Blvd., Los Angeles, CA  ","formattedAddress":"10899 Wilshire Blvd, Los Angeles, CA 90024, USA","lat":34.0591217,"lng":-118.4436674,"zipcode":"90024","city":"Los Angeles","neighborhood":"Westwood"},{"location":"James Armstrong Theatre","address":"3330 Civic Center Drive Torrance ","formattedAddress":"3330 Civic Center Dr, Torrance, CA 90503, USA","lat":33.8393642,"lng":-118.3434411,"zipcode":"90503","city":"Torrance"},{"location":"Marina del Rey Hotel","address":"13534 Bali Way Marina del Rey Marina del Rey ","formattedAddress":"13534 Bali Way, Marina Del Rey, CA 90292, USA","lat":33.9799859,"lng":-118.4456637,"zipcode":"90292","city":"Marina del Rey"},{"location":"USC Hillel Art Gallery","address":"3300 S. Hoover St Historic West Adams ","formattedAddress":"2263 S Harvard Blvd, Los Angeles, CA 90018, USA","lat":34.0343726,"lng":-118.3072306,"zipcode":"90018","city":"Los Angeles","neighborhood":"South Los Angeles"},{"location":"Smith&Cohen","address":"10351 Santa Monica Blvd.  West Los Angeles ","formattedAddress":"10351 California Route 2, Los Angeles, CA 90025, USA","lat":34.05835460000001,"lng":-118.4235442,"zipcode":"90025","city":"Los Angeles","neighborhood":"Westwood"},{"location":"Stella Adler Academy & Theatre Complex","address":"CA","formattedAddress":"California, USA","lat":36.778261,"lng":-119.4179324},{"location":"LA Law Library","address":"301 W. 1st Street Los Angeles ","formattedAddress":"301 W 1st St, Los Angeles, CA 90012, USA","lat":34.0543829,"lng":-118.2456,"zipcode":"90012","city":"Los Angeles","neighborhood":"Central LA"},{"location":"Tbc","address":"Los Angeles, United States  ","formattedAddress":"Los Angeles, CA, USA","lat":34.0522342,"lng":-118.2436849,"city":"Los Angeles"},{"location":"NCJW/LA Council House","address":"543 N. Fairfax Ave. Los Angeles ","formattedAddress":"543 N Fairfax Ave, Los Angeles, CA 90036, USA","lat":34.0814455,"lng":-118.3617972,"zipcode":"90036","city":"Los Angeles","neighborhood":"Central LA"},{"location":"CHALK Preschool in Pasadena","address":"700 East Green Street  ","formattedAddress":"700 E Green St, Tallulah, LA 71282, USA","lat":32.407867,"lng":-91.1841213,"zipcode":"71282","city":"Tallulah"},{"location":"CHALK Preschool","address":"700 East Green Street, Pasadena, CA  ","formattedAddress":"700 E Green St, Pasadena, CA 91101, USA","lat":34.144256,"lng":-118.135769,"zipcode":"91101","city":"Pasadena"},{"location":"Social and Public Art Resource Center (SPARC)","address":"685 Venice Blvd. Venice ","formattedAddress":"685 Venice Blvd, Venice, CA 90291, USA","lat":33.991533,"lng":-118.4586863,"zipcode":"90291","city":"Los Angeles","neighborhood":"Venice"},{"location":"Room & Board","address":"8707 W Washington Blvd Culver City ","formattedAddress":"8707 Washington Blvd, Culver City, CA 90232, USA","lat":34.0296674,"lng":-118.3846043,"zipcode":"90232","city":"Culver City","neighborhood":"Art District"},{"location":"The Fountain Theatre","address":"5060 Fountain Ave. Los Angeles ","formattedAddress":"5060 Fountain Ave, Los Angeles, CA 90029, USA","lat":34.095084,"lng":-118.2998588,"zipcode":"90029","city":"Los Angeles","neighborhood":"Hollywood"},{"location":"Fairfont Miramar Hotel & Bungalows","address":"101 Wilshire Blvd  ","formattedAddress":"101 Wilshire Blvd, Santa Monica, CA 90401, USA","lat":34.017845,"lng":-118.5014962,"zipcode":"90401","city":"Santa Monica","neighborhood":"Wilshire Montana"},{"location":"Saatchi Art","address":"1655 26th Street Santa Monica ","formattedAddress":"1655 26th St, Santa Monica, CA 90404, USA","lat":34.0297244,"lng":-118.4695672,"zipcode":"90404","city":"Santa Monica"},{"location":"Hyatt Regency Los Angeles Downtown","address":"333 S. Figueroa Los Angeles ","formattedAddress":"333 S Figueroa St, Los Angeles, CA 90071, USA","lat":34.0550246,"lng":-118.2554539,"zipcode":"90071","city":"Los Angeles","neighborhood":"Central LA"},{"location":"The G2 Gallery","address":"Abbot Kinney Blvd. Venice ","formattedAddress":"Abbot Kinney Blvd, Venice, CA 90291, USA","lat":33.9899135,"lng":-118.4637973,"zipcode":"90291","city":"Los Angeles","neighborhood":"Venice"},{"location":"The Standard, Hollywod","address":"8300 Sunset Blvd West Hollywood ","formattedAddress":"8300 Sunset Blvd, West Hollywood, CA 90069, USA","lat":34.0958992,"lng":-118.3709743,"zipcode":"90069","city":"West Hollywood","neighborhood":"Central LA"},{"location":"Regal L.A. LIVE: A Barco Innovation Center","address":"1000 West Olympic Blvd. Los Angeles ","formattedAddress":"1000 W Olympic Blvd, Los Angeles, CA 90015, USA","lat":34.0457356,"lng":-118.2680272,"zipcode":"90015","city":"Los Angeles","neighborhood":"Downtown"},{"location":"Modo Yoga LA","address":"1755 Glendale Blvd Silver Lake ","formattedAddress":"1755 Glendale Blvd, Los Angeles, CA 90026, USA","lat":34.0873076,"lng":-118.2600168,"zipcode":"90026","city":"Los Angeles","neighborhood":"Silver Lake"},{"location":"Mari’s Kitchen","address":"1319 N. Grand Ave. Covina ","formattedAddress":"1319 N Grand Ave, Covina, CA 91724, USA","lat":34.1036435,"lng":-117.8728992,"zipcode":"91724","city":"Covina"},{"location":"BertaArt Studio Gallery","address":"120 E 8th St, Los Angeles, CA Downtown ","formattedAddress":"120 E 8th St, Los Angeles, CA 90014, USA","lat":34.0420721,"lng":-118.2528292,"zipcode":"90014","city":"Los Angeles","neighborhood":"Downtown"},{"location":"Contemporary Gallery","address":"548 S Spring St. Little Tokyo ","formattedAddress":"548 S Spring St, Los Angeles, CA 90013, USA","lat":34.0459406,"lng":-118.2504857,"zipcode":"90013","city":"Los Angeles","neighborhood":"Downtown"},{"location":"Ahmanson Theater","address":"135 N. Grand Ave Los Angeles ","formattedAddress":"135 N Grand Ave, Los Angeles, CA 90012, USA","lat":34.0566067,"lng":-118.2489325,"zipcode":"90012","city":"Los Angeles","neighborhood":"Central LA"},{"location":"Warner Center- Warner Tower III (AIG Bldg)","address":"21650 Oxnard Street, Suite 200 Woodland Hills ","formattedAddress":"21650 Oxnard St #200, Woodland Hills, CA 91367, USA","lat":34.178822,"lng":-118.6009662,"zipcode":"91367","city":"Los Angeles","neighborhood":"Woodland Hills"},{"location":"Woodland Hills","address":"Topanga Blvd. Woodland Hills ","formattedAddress":"Woodland Hills, Los Angeles, CA, USA","lat":34.165357,"lng":-118.6089752,"city":"Los Angeles","neighborhood":"Woodland Hills"},{"location":"La Brea Tar Pits Park","address":"5801 Wilshire Blvd Los Angeles ","formattedAddress":"5801 Wilshire Blvd, Los Angeles, CA 90036, USA","lat":34.0638208,"lng":-118.3554627,"zipcode":"90036","city":"Los Angeles","neighborhood":"Central LA"},{"location":"CASA 0101 Theater","address":"2102 E. 1st Street Los Angeles ","formattedAddress":"2102 E 1st St, Los Angeles, CA 90033, USA","lat":34.0446827,"lng":-118.2136746,"zipcode":"90033","city":"Los Angeles","neighborhood":"Central LA"},{"location":"The Music Center's Dorothy Chandler Pavilion","address":"135 North Grand Avenue  Downtown ","formattedAddress":"135 N Grand Ave, Los Angeles, CA 90012, USA","lat":34.0566067,"lng":-118.2489325,"zipcode":"90012","city":"Los Angeles","neighborhood":"Central LA"},{"location":"ACADEMY OF MOTION PICTURE ARTS & SCIENCES","address":"HOLLYWOOD | 1313 VINE ST, LOS ANGELES, CA  Hollywood ","formattedAddress":"1313 Vine St, Los Angeles, CA 90028, USA","lat":34.0948159,"lng":-118.3273299,"zipcode":"90028","city":"Los Angeles","neighborhood":"Central LA"},{"location":"Barnum Auditorium, Santa Monica High School","address":"601 Pico Blvd  Santa Monica ","formattedAddress":"601 Pico Blvd, Santa Monica, CA 90405, USA","lat":34.0114172,"lng":-118.4852521,"zipcode":"90405","city":"Santa Monica"},{"location":"Essentia - Natural Memory Foam Mattresses -","address":"2430 Main Street  ","formattedAddress":"2430 Main St, Buffalo, NY 14214, USA","lat":42.9351487,"lng":-78.84352059999999,"zipcode":"14214","city":"Buffalo","neighborhood":"Parkside"},{"location":"The Broad Stage at SMC Performing Arts Center","address":"1310 11th St. Santa Monica Santa Monica ","formattedAddress":"1310 11th St, Santa Monica, CA 90401, USA","lat":34.022176,"lng":-118.4898567,"zipcode":"90401","city":"Santa Monica","neighborhood":"Downtown"},{"location":"Cerritos Center for the Performing Arts","address":"12700 Center Court Drive Cerritos ","formattedAddress":"12700 Center Ct Dr N, Cerritos, CA 90703, USA","lat":33.867418,"lng":-118.0615344,"zipcode":"90703","city":"Cerritos"},{"location":"The Richard and Karen Carpenter Performing Arts Center","address":"6200 E Atherton Street Long Beach ","formattedAddress":"Richard and Karen Carpenter Performing Arts Center, 6200 E Atherton St, Long Beach, CA 90815, USA","lat":33.7883359,"lng":-118.1126195,"zipcode":"90815","city":"Long Beach"},{"location":"Zuma Beach in Malibu, CA","address":"Pacific Coast Highway between Busch Dr. and Morning View Dr. Malibu "},{"location":"University Art Museum, CSULB","address":"1250 Bellflower Boulevard Long Beach ","formattedAddress":"1250 N Bellflower Blvd, Long Beach, CA 90815, USA","lat":33.7826983,"lng":-118.1223044,"zipcode":"90815","city":"Long Beach"},{"location":"St. James presbyterian church","address":"19414 Ventura Blvd. Tarzana ","formattedAddress":"19414 Ventura Blvd, Tarzana, CA 91356, USA","lat":34.1724319,"lng":-118.5563574,"zipcode":"91356","city":"Los Angeles","neighborhood":"Tarzana"},{"location":"Ann and Jerry Moss Theater at New Roads School","address":"3131 W. Olympic Blvd. Santa Monica ","formattedAddress":"3131 Olympic Blvd, Santa Monica, CA 90404, USA","lat":34.0312851,"lng":-118.4612321,"zipcode":"90404","city":"Santa Monica"},{"location":"NCJW LA Council House","address":"543 N. Fairfax Ave. La Brea ","formattedAddress":"543 N Fairfax Ave, Los Angeles, CA 90036, USA","lat":34.0814455,"lng":-118.3617972,"zipcode":"90036","city":"Los Angeles","neighborhood":"Central LA"},{"location":"The Grand Annex","address":"434 W 6th St San Pedro ","formattedAddress":"434 W 6th St, San Pedro, CA 90731, USA","lat":33.7390242,"lng":-118.2865293,"zipcode":"90731","city":"Los Angeles","neighborhood":"San Pedro"},{"location":"Doheny Memorial Library","address":"3550 Trousdale Parkway, USC University Park campus Los Angeles ","formattedAddress":"Los Angeles, CA 90007, USA","lat":34.0223519,"lng":-118.285117,"zipcode":"90007","city":"Los Angeles","neighborhood":"South Los Angeles"},{"location":"Freud Playhouse at UCLA","address":"405 Hilgard Avenue Los Angeles ","formattedAddress":"Fowler Museum, 405 Hilgard Ave, Los Angeles, CA 90095, USA","lat":34.0729274,"lng":-118.442983,"zipcode":"90095","city":"Los Angeles","neighborhood":"Westwood"},{"location":"LA Star Dance Studio","address":"19320 Ventura Blvd Tarzana ","formattedAddress":"19320 Ventura Blvd, Tarzana, CA 91356, USA","lat":34.1724618,"lng":-118.5542527,"zipcode":"91356","city":"Los Angeles","neighborhood":"Tarzana"},{"location":"CLUB LOS GLOBOS","address":"3040 Sunset 3040 Sunset CA","formattedAddress":"3040 Sunset Ave, Bakersfield, CA 93304, USA","lat":35.3667183,"lng":-119.037502,"zipcode":"93304","city":"Bakersfield","neighborhood":"Oleander/Sunset"},{"location":"Figueroa at Wilshire","address":"601 S. Figueroa Street Los Angeles ","formattedAddress":"Figueroa at Wilshire, 601 S Figueroa St, Los Angeles, CA 90017, USA","lat":34.0508105,"lng":-118.2592862,"zipcode":"90017","city":"Los Angeles","neighborhood":"Central LA"},{"location":"FIGat7th Courtyard and TASTE Food Hall","address":"735 S. Figueroa St. Los Angeles ","formattedAddress":"735 S Figueroa St, Los Angeles, CA 90017, USA","lat":34.0492459,"lng":-118.2617532,"zipcode":"90017","city":"Los Angeles","neighborhood":"Central LA"},{"location":"Wood & Vine","address":"6280 Hollywood Blvd Hollywood CA","formattedAddress":"6280 Hollywood Blvd, Los Angeles, CA 90028, USA","lat":34.1014005,"lng":-118.3261774,"zipcode":"90028","city":"Los Angeles","neighborhood":"Hollywood"},{"location":"Redondo Beach Performing Arts Center","address":"1935 Manhattan Beach Blvd., Redondo Beach Redondo Beach ","formattedAddress":"1935 Manhattan Beach Blvd, Redondo Beach, CA 90278, USA","lat":33.8881922,"lng":-118.3773216,"zipcode":"90278","city":"Redondo Beach","neighborhood":"North Redondo"},{"location":"The Palm","address":"1100 S Flower Street Downtown ","formattedAddress":"1100 S Flower St, Los Angeles, CA 90015, USA","lat":34.0425185,"lng":-118.2640199,"zipcode":"90015","city":"Los Angeles","neighborhood":"Downtown"},{"location":"St. Vibiana Cathedral","address":"214 S. Main St. Los Angeles, Ca ","formattedAddress":"214 S Main St, Los Angeles, CA 90012, USA","lat":34.0504491,"lng":-118.2444335,"zipcode":"90012","city":"Los Angeles","neighborhood":"Central LA"},{"location":"American Legion Post 43 Hollywood","address":"2035 N Highland Ave. Los Angeles CA","formattedAddress":"2035 N Highland Ave, Los Angeles, CA 90068, USA","lat":34.1078175,"lng":-118.3379951,"zipcode":"90068","city":"Los Angeles","neighborhood":"Hollywood Hills"},{"location":"Omni Los Angeles Hotel at California Plaza","address":"251 South Olive Street Los Angeles ","formattedAddress":"251 S Olive St, Los Angeles, CA 90012, USA","lat":34.0525511,"lng":-118.2504527,"zipcode":"90012","city":"Los Angeles","neighborhood":"Downtown"},{"location":"The Road Theatre on Magnolia","address":"10747 W Magnolia Blvd North Hollywood ","formattedAddress":"10747 W Magnolia Blvd, North Hollywood, CA 91601, USA","lat":34.1649276,"lng":-118.3652803,"zipcode":"91601","city":"Los Angeles","neighborhood":"North Hollywood"},{"location":"Catalina Jazz","address":"6725 W. Sunset Blvd. Hollywood CA","formattedAddress":"6725 Sunset Blvd, Los Angeles, CA 90028, USA","lat":34.09834420000001,"lng":-118.3373005,"zipcode":"90028","city":"Los Angeles","neighborhood":"Central LA"},{"location":"Emerson Avenue Community Garden","address":"6550 West 80th Street Westchester ","formattedAddress":"6550 W 80th St, Los Angeles, CA 90045, USA","lat":33.9677904,"lng":-118.4038765,"zipcode":"90045","city":"Los Angeles","neighborhood":"Westchester"},{"location":"Tarzana Community and Cultural Center","address":"19130 Ventura Blvd. Tarzana ","formattedAddress":"19130 Ventura Blvd, Tarzana, CA 91356, USA","lat":34.1721186,"lng":-118.5497393,"zipcode":"91356","city":"Los Angeles","neighborhood":"Tarzana"},{"location":"Commissary At Sony Pictures Studios","address":"10202 Washington Blvd Culver City ","formattedAddress":"10202 Washington Blvd, Culver City, CA 90232, USA","lat":34.0176956,"lng":-118.4013649,"zipcode":"90232","city":"Culver City","neighborhood":"Washington Culver"},{"location":"The Walt Disney Concert Hall","address":"111 S. Grand Ave. Los Angeles ","formattedAddress":"111 S Grand Ave, Los Angeles, CA 90012, USA","lat":34.0553468,"lng":-118.2499213,"zipcode":"90012","city":"Los Angeles","neighborhood":"Downtown"},{"location":"The Majestic Downtown","address":"650 S Spring St  Downtown ","formattedAddress":"A.G. Bartlett Building, 650 S Spring St, Los Angeles, CA 90014, USA","lat":34.04462060000001,"lng":-118.2518969,"zipcode":"90014","city":"Los Angeles","neighborhood":"Downtown"},{"location":"Barnes & Noble - The Grove","address":"189 Grove Drive K30 Los Angeles ","formattedAddress":"189 The Grove Dr K 30, Los Angeles, CA 90036, USA","lat":34.0719168,"lng":-118.3583621,"zipcode":"90036","city":"Los Angeles","neighborhood":"Central LA"},{"location":"Taglyan Complex","address":"1201 Vine Street Los Angeles ","formattedAddress":"1201 Vine St, Los Angeles, CA 90038, USA","lat":34.0927589,"lng":-118.327016,"zipcode":"90038","city":"Los Angeles","neighborhood":"Central LA"},{"location":"Oak Tree Room","address":"1150 Colorado St.  ","formattedAddress":"1150 Colorado St, Arcadia, CA 91007, USA","lat":34.1475897,"lng":-118.0670233,"zipcode":"91007","city":"Arcadia"},{"location":"Agoura Performing Arts Education Center","address":"28545 W. Driver Avenue Calabasas ","formattedAddress":"28545 W Driver Ave, Agoura Hills, CA 91301, USA","lat":34.1485066,"lng":-118.7438027,"zipcode":"91301","city":"Agoura Hills"},{"location":"Valencia Heritage Park, Santa Clarita","address":"24155 Newhall Ranch Road Santa Clarita, CA Valencia ","formattedAddress":"24155 Newhall Ranch Rd, Santa Clarita, CA 91354, USA","lat":34.4334962,"lng":-118.5594535,"zipcode":"91354","city":"Santa Clarita"},{"location":"The Gourmandise School","address":"395 Santa Monica Pl #329  ","formattedAddress":"395 Santa Monica Fwy #329, Santa Monica, CA 90401, USA","lat":34.014514,"lng":-118.493644,"zipcode":"90401","city":"Santa Monica","neighborhood":"Downtown"},{"location":"Rancho Los Alamitos Historic Ranch and Gardens","address":"6400 E. Bixby Hill Road Long Beach ","formattedAddress":"6400 E Bixby Hill Rd, Long Beach, CA 90815, USA","lat":33.7768442,"lng":-118.1070102,"zipcode":"90815","city":"Long Beach","neighborhood":"Bixby Hill"},{"location":"The Garage Boardshop","address":"1852 E 1st ST Downtown ","formattedAddress":"1852 E 1st St, Vidalia, GA 30474, USA","lat":32.2098155,"lng":-82.3874554,"zipcode":"30474","city":"Vidalia"},{"location":"Fais Do Do","address":"5253 West Adams Blvd. Los Angeles ","formattedAddress":"5253 W Adams Blvd, Los Angeles, CA 90016, USA","lat":34.0328031,"lng":-118.3569536,"zipcode":"90016","city":"Los Angeles"},{"location":"Los Angeles Airport Marriott","address":"5855 W Century Blvd Westchester ","formattedAddress":"5855 W Century Blvd, Los Angeles, CA 90045, USA","lat":33.9465619,"lng":-118.3848148,"zipcode":"90045","city":"Los Angeles"},{"location":"Avalon Theatre","address":"1 Casino Way Avalon ","formattedAddress":"1 Casino Way, Avalon, CA 90704, USA","lat":33.3490013,"lng":-118.3256507,"zipcode":"90704","city":"Avalon"},{"location":"Cafe Nela","address":"1906 Cypress Ave, Los Angeles, CA ","formattedAddress":"1906 Cypress Ave, Los Angeles, CA 90065, USA","lat":34.1008484,"lng":-118.2350751,"zipcode":"90065","city":"Los Angeles","neighborhood":"Northeast Los Angeles"},{"location":"The Original Farmers Market","address":"6333 West 3rd Street Los Angeles ","formattedAddress":"6333 W 3rd St, Los Angeles, CA 90036, USA","lat":34.0719955,"lng":-118.360253,"zipcode":"90036","city":"Los Angeles","neighborhood":"Central LA"},{"location":"Cabrillo Way Marina, Los Angeles Harbor","address":"2293 Miner St. San Pedro ","formattedAddress":"2293 Miner St, San Pedro, CA 90731, USA","lat":33.7227191,"lng":-118.2779165,"zipcode":"90731","city":"Los Angeles","neighborhood":"San Pedro"},{"location":"Muse Studio City","address":"11824 Ventura Blvd Studio City ","formattedAddress":"11824 Ventura Blvd, Studio City, CA 91604, USA","lat":34.1421414,"lng":-118.3900335,"zipcode":"91604","city":"Los Angeles","neighborhood":"Studio City"},{"location":"Montalban Theater","address":"1615 Vine Street Los Angeles CA","formattedAddress":"1615 Vine St, Los Angeles, CA 90028, USA","lat":34.1002972,"lng":-118.3271407,"zipcode":"90028","city":"Los Angeles","neighborhood":"Central LA"},{"location":"Van Nuys Civic Center","address":"14400 Erwin St. Los Angeles CA","formattedAddress":"14400 Erwin St, Van Nuys, CA 91401, USA","lat":34.1830445,"lng":-118.446941,"zipcode":"91401","city":"Los Angeles","neighborhood":"Van Nuys"},{"location":"Glendora Continental","address":"316 W. Route 66 Glendora ","formattedAddress":"316 W Rte 66, Glendora, CA 91740, USA","lat":34.1283866,"lng":-117.8680283,"zipcode":"91740","city":"Glendora"},{"location":"The Eli & Edythe Broad Stage","address":"1310 11th St. Santa Monica "},"[{\"location\":\"Cinefamily/Silent Movie Theatre\",\"address\":\"611 N. Fairfax Ave. Los Angeles, \",\"formattedAddress\":\"611 N Fairfax Ave, Los Angeles, CA 90036, USA\",\"neighborhood\":\"Beverly Grove\",\"lat\":34.0820093,\"lng\":-118.3617361,\"zipcode\":\"90036\"},{\"location\":\"Laemmle Ahrya Fine Arts\",\"address\":\"8556 Wilshire Blvd. Beverly Hills, \",\"formattedAddress\":\"8556 Wilshire Blvd, Beverly Hills, CA 90211, USA\",\"lat\":34.0653227,\"lng\":-118.3779504,\"zipcode\":\"90211\",\"city\":\"Beverly Hills\"},{\"location\":\"The Echo\",\"address\":\"1822 W. Sunset Blvd. Los Angeles, \",\"formattedAddress\":\"1822 Sunset Blvd, Los Angeles, CA 90026, USA\",\"neighborhood\":\"Echo Park\",\"lat\":34.0777287,\"lng\":-118.260108,\"zipcode\":\"90026\"},{\"location\":\"Bootleg Theater\",\"address\":\"2200 Beverly Blvd. Los Angeles, \",\"formattedAddress\":\"2200 Beverly Blvd, Los Angeles, CA 90057, USA\",\"neighborhood\":\"Central LA\",\"lat\":34.0669309,\"lng\":-118.271662,\"zipcode\":\"90057\"},{\"location\":\"Egyptian Theatre\",\"address\":\"6712 Hollywood Blvd., Hollywood, CA Hollywood \",\"formattedAddress\":\"6712 Hollywood Blvd, Los Angeles, CA 90028, USA\",\"neighborhood\":\"Hollywood\",\"lat\":34.1013684,\"lng\":-118.3366935,\"zipcode\":\"90028\"},{\"location\":\"Skirball Cultural Center\",\"address\":\"2701 N. Sepulveda Blvd. Los Angeles, \",\"formattedAddress\":\"2701 N Sepulveda Blvd, Los Angeles, CA 90049, USA\",\"neighborhood\":null,\"lat\":34.124832,\"lng\":-118.4791916,\"zipcode\":\"90049\"},{\"location\":\"Pasadena Museum of California Art\",\"address\":\"490 East Union Street, Pasadena, \",\"formattedAddress\":\"490 E Union St, Pasadena, CA 91101, USA\",\"neighborhood\":null,\"lat\":34.1468743,\"lng\":-118.1401975,\"zipcode\":\"91101\"},{\"location\":\"The Autry\",\"address\":\"4700 Western Heritage Way Los Angeles, \",\"formattedAddress\":\"4700 Western Heritage Way, Los Angeles, CA 90027, USA\",\"neighborhood\":null,\"lat\":34.1486202,\"lng\":-118.2812132,\"zipcode\":\"90027\"},{\"location\":\"Natural History Museum of Los Angeles County\",\"address\":\"900 Exposition Blvd. Los Angeles, \",\"formattedAddress\":\"900 Exposition Blvd, Los Angeles, CA 90007, USA\",\"neighborhood\":\"South Los Angeles\",\"lat\":34.0170769,\"lng\":-118.2886818,\"zipcode\":\"90007\"},{\"location\":\"LACMA\",\"address\":\"5905 Wilshire Blvd. Los Angeles, \",\"formattedAddress\":\"5905 Wilshire Blvd, Los Angeles, CA 90036, USA\",\"neighborhood\":\"Mid-Wilshire\",\"lat\":34.0637913,\"lng\":-118.3588851,\"zipcode\":\"90036\"},{\"location\":\"Venus Over Los Angeles\",\"address\":\"601 S. Anderson St. Los Angeles, \",\"formattedAddress\":\"601 S Anderson St, Los Angeles, CA 90023, USA\",\"neighborhood\":\"Central LA\",\"lat\":34.038945,\"lng\":-118.2243706,\"zipcode\":\"90023\"},{\"location\":\"Los Angeles Museum of the Holocaust\",\"address\":\"100 S. The Grove Dr. Los Angeles, \",\"formattedAddress\":\"100 The Grove Dr, Los Angeles, CA 90036, USA\",\"neighborhood\":\"Fairfax\",\"lat\":34.074523,\"lng\":-118.355691,\"zipcode\":\"90036\"},{\"location\":\"Center for Land Use Interpretation\",\"address\":\"9331 Venice Blvd. Culver City, \",\"formattedAddress\":\"9331 Venice Blvd, Culver City, CA 90232, USA\",\"neighborhood\":\"Palms\",\"lat\":34.0259925,\"lng\":-118.3948444,\"zipcode\":\"90232\"},{\"location\":\"Commonwealth & Council\",\"address\":\"3006 W. Seventh St., #220 Los Angeles, \",\"formattedAddress\":\"3006 W 7th St #220, Los Angeles, CA 90005, USA\",\"neighborhood\":\"Wilshire Center\",\"lat\":34.0595367,\"lng\":-118.289449,\"zipcode\":\"90005\"},{\"location\":\"The Line Hotel\",\"address\":\"3515 Wilshire Blvd. Los Angeles, \",\"formattedAddress\":\"3515 Wilshire Blvd, Los Angeles, CA 90010, USA\",\"neighborhood\":\"Koreatown\",\"lat\":34.0620711,\"lng\":-118.3010331,\"zipcode\":\"90010\"},{\"location\":\"M.i. Westside Comedy Theater\",\"address\":\"1323-A Third St. Promenade (in the alley betw. Third & Fourth Sts. at Arizona Ave.) Santa Monica, \"},{\"location\":\"The Mackey Apartments\",\"address\":\"1137 S. Cochran Ave. Los Angeles, \",\"formattedAddress\":\"1137 S Cochran Ave, Los Angeles, CA 90019, USA\",\"neighborhood\":\"Central LA\",\"lat\":34.0547067,\"lng\":-118.3504201,\"zipcode\":\"90019\"},{\"location\":\"Resident\",\"address\":\"428 S. Hewitt St. Los Angeles, \",\"formattedAddress\":\"428 S Hewitt St, Los Angeles, CA 90013, USA\",\"neighborhood\":\"Downtown\",\"lat\":34.042668,\"lng\":-118.234922,\"zipcode\":\"90013\"},{\"location\":\"Grand Star Jazz Club\",\"address\":\"943 N. Broadway Los Angeles, \",\"formattedAddress\":\"943 N Broadway, Los Angeles, CA 90012, USA\",\"neighborhood\":\"Old Chinatown\",\"lat\":34.0652074,\"lng\":-118.237149,\"zipcode\":\"90012\"},{\"location\":\"iO West (Improv Olympic)\",\"address\":\"6366 Hollywood Blvd. Los Angeles, \",\"formattedAddress\":\"6366 Hollywood Blvd, Los Angeles, CA 90028, USA\",\"neighborhood\":\"Hollywood\",\"lat\":34.1013952,\"lng\":-118.3287424,\"zipcode\":\"90028\"},{\"location\":\"Fowler Museum at UCLA\",\"address\":\"Sunset & Westwood blvds. Westwood, \",\"formattedAddress\":\"11461 Sunset Blvd, Los Angeles, CA 90049, USA\",\"neighborhood\":\"Brentwood\",\"lat\":34.072598,\"lng\":-118.468582,\"zipcode\":\"90049\"},{\"location\":\"El Floridita Restaurant\",\"address\":\"1253 N. Vine St. Los Angeles, \",\"formattedAddress\":\"1253 Vine St, Los Angeles, CA 90038, USA\",\"neighborhood\":\"Central LA\",\"lat\":34.0940071,\"lng\":-118.3275855,\"zipcode\":\"90038\"},{\"location\":\"Page Museum\",\"address\":\"5801 Wilshire Blvd. Los Angeles, \",\"formattedAddress\":\"5801 Wilshire Blvd, Los Angeles, CA 90036, USA\",\"neighborhood\":\"Mid-Wilshire\",\"lat\":34.0638208,\"lng\":-118.3554627,\"zipcode\":\"90036\"},{\"location\":\"The Dresden Restaurant\",\"address\":\"1760 N. Vermont Ave. Los Angeles, \",\"formattedAddress\":\"1760 N Vermont Ave, Los Angeles, CA 90027, USA\",\"neighborhood\":\"Los Feliz\",\"lat\":34.1030944,\"lng\":-118.2914886,\"zipcode\":\"90027\"},{\"location\":\"The Groundlings Theater\",\"address\":\"7307 Melrose Ave. Los Angeles, \",\"formattedAddress\":\"7307 Melrose Ave, Los Angeles, CA 90046, USA\",\"neighborhood\":\"Fairfax\",\"lat\":34.0838002,\"lng\":-118.3490097,\"zipcode\":\"90046\"},{\"location\":\"Los Globos\",\"address\":\"3040 W. Sunset Blvd. Los Angeles, \",\"formattedAddress\":\"3040 Sunset Blvd, Los Angeles, CA 90026, USA\",\"neighborhood\":\"Silver Lake\",\"lat\":34.0838215,\"lng\":-118.2743235,\"zipcode\":\"90026\"},{\"location\":\"The Viper Room\",\"address\":\"8852 W. Sunset Blvd. West Hollywood, \",\"formattedAddress\":\"8852 Sunset Blvd, West Hollywood, CA 90069, USA\",\"neighborhood\":\"Norma Triangle\",\"lat\":34.0904329,\"lng\":-118.3850554,\"zipcode\":\"90069\"},{\"location\":\"Union Nightclub\",\"address\":\"4067 W. Pico Blvd. Los Angeles, \",\"formattedAddress\":\"4067 W Pico Blvd, Los Angeles, CA 90019, USA\",\"neighborhood\":\"Mid City\",\"lat\":34.047775,\"lng\":-118.3241134,\"zipcode\":\"90019\"},{\"location\":\"The Glass House\",\"address\":\"200 W. Second St. Pomona, \",\"formattedAddress\":\"200 W 2nd St, Pomona, CA 91766, USA\",\"neighborhood\":\"Westmont\",\"lat\":34.05755550000001,\"lng\":-117.7514339,\"zipcode\":\"91766\"},{\"location\":\"House of Blues Anaheim\",\"address\":\"1530 S. Disneyland Dr. Anaheim, \",\"formattedAddress\":\"1530 Disneyland Dr, Anaheim, CA 92802, USA\",\"neighborhood\":\"Anaheim Resort\",\"lat\":33.8095602,\"lng\":-117.9229746,\"zipcode\":\"92802\"},{\"location\":\"The Satellite\",\"address\":\"1717 Silver Lake Blvd. Los Angeles, \",\"formattedAddress\":\"1717 Silver Lake Blvd, Los Angeles, CA 90026, USA\",\"neighborhood\":\"Silver Lake\",\"lat\":34.089872,\"lng\":-118.2682879,\"zipcode\":\"90026\"},{\"location\":\"Pantages Theatre\",\"address\":\"6233 Hollywood Blvd. Los Angeles, \",\"formattedAddress\":\"6233 Hollywood Blvd, Los Angeles, CA 90028, USA\",\"neighborhood\":\"Hollywood\",\"lat\":34.102001,\"lng\":-118.325867,\"zipcode\":\"90028\"},{\"location\":\"The Hi Hat\",\"address\":\"5043 York Blvd. Highland Park, \",\"formattedAddress\":\"5043 York Blvd, Los Angeles, CA 90042, USA\",\"neighborhood\":\"Eagle Rock\",\"lat\":34.1214595,\"lng\":-118.2053922,\"zipcode\":\"90042\"},{\"location\":\"Cody's Viva Cantina\",\"address\":\"900 Riverside Dr. Burbank, \",\"formattedAddress\":\"900 W Riverside Dr, Burbank, CA 91506, USA\",\"neighborhood\":null,\"lat\":34.1606464,\"lng\":-118.3105679,\"zipcode\":\"91506\"},{\"location\":\"Create Nightclub\",\"address\":\"6021 Hollywood Blvd. Los Angeles, \",\"formattedAddress\":\"6021 Hollywood Blvd, Los Angeles, CA 90028, USA\",\"neighborhood\":\"Hollywood\",\"lat\":34.1020426,\"lng\":-118.3209169,\"zipcode\":\"90028\"},{\"location\":\"Brea Improv\",\"address\":\"120 S. Brea Blvd Brea, California 92821 714-482-0700\",\"formattedAddress\":\"120 S Brea Blvd, Brea, CA 92821, USA\",\"neighborhood\":null,\"lat\":33.9193832,\"lng\":-117.8984393,\"zipcode\":\"92821\"},{\"location\":\"The Echoplex\",\"address\":\"1154 Glendale Blvd. Los Angeles, \",\"formattedAddress\":\"1154 Glendale Blvd, Los Angeles, CA 90026, USA\",\"neighborhood\":\"Echo Park\",\"lat\":34.07759060000001,\"lng\":-118.2605046,\"zipcode\":\"90026\"},{\"location\":\"Saban Theatre\",\"address\":\"8440 W. Wilshire Blvd. Beverly Hills, \",\"formattedAddress\":\"8440 Wilshire Blvd, Beverly Hills, CA 90211, USA\",\"neighborhood\":null,\"lat\":34.0645718,\"lng\":-118.3748496,\"zipcode\":\"90211\"},{\"location\":\"Zebulon\",\"address\":\"2478 Fletcher Dr. Los Angeles, \",\"formattedAddress\":\"2478 Fletcher Dr, Los Angeles, CA 90039, USA\",\"lat\":34.1071933,\"lng\":-118.2547325,\"zipcode\":\"90039\",\"city\":\"Los Angeles\"},{\"location\":\"Sound Nightclub\",\"address\":\"1642 N. Las Palmas Ave. Los Angeles, \",\"formattedAddress\":\"1642 N Las Palmas Ave, Los Angeles, CA 90028, USA\",\"neighborhood\":\"Central LA\",\"lat\":34.1010027,\"lng\":-118.3357833,\"zipcode\":\"90028\"},{\"location\":\"Alex's Bar\",\"address\":\"2913 E. Anaheim St. Long Beach, \",\"formattedAddress\":\"2913 E Anaheim St, Long Beach, CA 90804, USA\",\"neighborhood\":\"Zaferia\",\"lat\":33.7828017,\"lng\":-118.1573649,\"zipcode\":\"90804\"},{\"location\":\"The Beverly O'Neill Theater\",\"address\":\"300 E. Ocean Blvd., Long Beach Convention & Entertainment Center Long Beach, \",\"formattedAddress\":\"300 E Ocean Blvd, Long Beach, CA 90802, USA\",\"neighborhood\":\"Waterfront\",\"lat\":33.7652636,\"lng\":-118.1893385,\"zipcode\":\"90802\"},{\"location\":\"Saint Rocke\",\"address\":\"142 Pacific Coast Highway Hermosa Beach, \",\"formattedAddress\":\"142 Pacific Coast Hwy, Hermosa Beach, CA 90254, USA\",\"neighborhood\":null,\"lat\":33.8562163,\"lng\":-118.3902128,\"zipcode\":\"90254\"},{\"location\":\"Joe's Great American Bar & Grill\",\"address\":\"4311 W. Magnolia Blvd. Burbank, \",\"formattedAddress\":\"4311 W Magnolia Blvd, Burbank, CA 91505, USA\",\"neighborhood\":null,\"lat\":34.165776,\"lng\":-118.3536248,\"zipcode\":\"91505\"},{\"location\":\"The Smell\",\"address\":\"247 S. Main St. Los Angeles, \",\"formattedAddress\":\"247 S Main St, Los Angeles, CA 90012, USA\",\"neighborhood\":\"Downtown\",\"lat\":34.0503352,\"lng\":-118.2456679,\"zipcode\":\"90012\"},{\"location\":\"The Mint\",\"address\":\"6010 W. Pico Blvd. Los Angeles, \",\"formattedAddress\":\"6010 W Pico Blvd, Los Angeles, CA 90035, USA\",\"neighborhood\":\"Mid City\",\"lat\":34.0521634,\"lng\":-118.3716095,\"zipcode\":\"90035\"},{\"location\":\"The Hotel Cafe\",\"address\":\"1623 1/2 N. Cahuenga Blvd. Los Angeles, \",\"formattedAddress\":\"1623 N Cahuenga Blvd, Los Angeles, CA 90028, USA\",\"neighborhood\":\"Hollywood\",\"lat\":34.1004371,\"lng\":-118.329829,\"zipcode\":\"90028\"},{\"location\":\"Whisky A Go-Go\",\"address\":\"8901 Sunset Blvd. West Hollywood, \",\"formattedAddress\":\"8901 Sunset Blvd, West Hollywood, CA 90069, USA\",\"neighborhood\":\"Sunset Strip\",\"lat\":34.0908403,\"lng\":-118.3857013,\"zipcode\":\"90069\"},{\"location\":\"The Observatory\",\"address\":\"3503 S. Harbor Blvd. Santa Ana, \",\"formattedAddress\":\"3503 S Harbor Blvd, Santa Ana, CA 92704, USA\",\"neighborhood\":null,\"lat\":33.6997648,\"lng\":-117.9175717,\"zipcode\":\"92704\"},{\"location\":\"The World Stage\",\"address\":\"4321 Degnan Blvd. Los Angeles, \",\"formattedAddress\":\"4321 Degnan Blvd, Los Angeles, CA 90008, USA\",\"neighborhood\":\"South Los Angeles\",\"lat\":34.0052812,\"lng\":-118.3317413,\"zipcode\":\"90008\"},{\"location\":\"The Study Hollywood\",\"address\":\"6356 Hollywood Blvd. Los Angeles, \",\"formattedAddress\":\"6356 Hollywood Blvd, Los Angeles, CA 90028, USA\",\"neighborhood\":\"Hollywood\",\"lat\":34.101267,\"lng\":-118.328501,\"zipcode\":\"90028\"},{\"location\":\"Hollywood Improv (The Main Room)\",\"address\":\"8162 Melrose Ave. Hollywood, \",\"formattedAddress\":\"8162 Melrose Ave, Los Angeles, CA 90048, USA\",\"neighborhood\":\"Beverly Grove\",\"lat\":34.0834368,\"lng\":-118.3672735,\"zipcode\":\"90048\"},{\"location\":\"Cal State Northridge, CSUN\",\"address\":\"18111 Nordhoff St. Northridge, \",\"formattedAddress\":\"18111 Nordhoff St, Northridge, CA 91325, USA\",\"neighborhood\":\"Northridge\",\"lat\":34.2359329,\"lng\":-118.5280253,\"zipcode\":\"91325\"},{\"location\":\"The Novo by Microsoft\",\"address\":\"800 W. Olympic Blvd. Los Angeles, \",\"formattedAddress\":\"800 W Olympic Blvd, Los Angeles, CA 90015, USA\",\"neighborhood\":\"Downtown\",\"lat\":34.0449376,\"lng\":-118.2654979,\"zipcode\":\"90015\"},{\"location\":\"The Baked Potato\",\"address\":\"3787 Cahuenga Blvd. W. Studio City, \",\"formattedAddress\":\"3787 Cahuenga Blvd, Studio City, CA 91604, USA\",\"neighborhood\":\"Studio City\",\"lat\":34.1366405,\"lng\":-118.3631491,\"zipcode\":\"91604\"},{\"location\":\"Amoeba Music\",\"address\":\"6400 Sunset Blvd. Los Angeles, \",\"formattedAddress\":\"6400 Sunset Blvd, Los Angeles, CA 90028, USA\",\"neighborhood\":\"Hollywood\",\"lat\":34.0975274,\"lng\":-118.329153,\"zipcode\":\"90028\"},{\"location\":\"Exchange L.A.\",\"address\":\"618 S. Spring St. Los Angeles, \",\"formattedAddress\":\"618 S Spring St, Los Angeles, CA 90014, USA\",\"neighborhood\":\"Downtown\",\"lat\":34.0452545,\"lng\":-118.2511393,\"zipcode\":\"90014\"},{\"location\":\"Silverlake Lounge\",\"address\":\"2906 Sunset Blvd. Los Angeles, \",\"formattedAddress\":\"2906 Sunset Blvd, Los Angeles, CA 90026, USA\",\"neighborhood\":\"Silver Lake\",\"lat\":34.0828261,\"lng\":-118.2736878,\"zipcode\":\"90026\"},{\"location\":\"Canyon Club\",\"address\":\"28912 Roadside Dr. Agoura Hills, \",\"formattedAddress\":\"28912 Roadside Dr, Agoura Hills, CA 91301, USA\",\"neighborhood\":null,\"lat\":34.144004,\"lng\":-118.7551541,\"zipcode\":\"91301\"},{\"location\":\"The Teragram Ballroom\",\"address\":\"1234 W. Seventh St. Los Angeles, \",\"formattedAddress\":\"1234 W 7th St, Los Angeles, CA 90017, USA\",\"neighborhood\":\"Central LA\",\"lat\":34.0518639,\"lng\":-118.2670623,\"zipcode\":\"90017\"},{\"location\":\"The Troubadour\",\"address\":\"9081 Santa Monica Blvd. West Hollywood, \",\"formattedAddress\":\"9081 Santa Monica Blvd, West Hollywood, CA 90069, USA\",\"neighborhood\":\"Norma Triangle\",\"lat\":34.0815696,\"lng\":-118.3892793,\"zipcode\":\"90069\"},{\"location\":\"The Rose\",\"address\":\"245 E. Green St. Pasadena, \",\"formattedAddress\":\"245 E Green St, Pasadena, CA 91101, USA\",\"neighborhood\":null,\"lat\":34.1445579,\"lng\":-118.1450515,\"zipcode\":\"91101\"},{\"location\":\"Will Geer Theatricum Botanicum\",\"address\":\"1419 N. Topanga Canyon Blvd. Topanga, \",\"formattedAddress\":\"1419 N Topanga Canyon Blvd, Topanga, CA 90290, USA\",\"lat\":34.1108513,\"lng\":-118.5928551,\"zipcode\":\"90290\",\"city\":\"Topanga\"},{\"location\":\"Avalon Hollywood\",\"address\":\"1735 Vine St. Los Angeles, \",\"formattedAddress\":\"1735 Vine St, Los Angeles, CA 90028, USA\",\"neighborhood\":\"Hollywood\",\"lat\":34.1027185,\"lng\":-118.3271695,\"zipcode\":\"90028\"},{\"location\":\"Ahmanson Theatre\",\"address\":\"135 N. Grand Ave. Los Angeles, \",\"formattedAddress\":\"135 N Grand Ave, Los Angeles, CA 90012, USA\",\"neighborhood\":\"Downtown\",\"lat\":34.0566067,\"lng\":-118.2489325,\"zipcode\":\"90012\"},{\"location\":\"Olvera Street\",\"address\":\"845 N. Alameda St. Los Angeles, \",\"formattedAddress\":\"845 North Alameda Street, Los Angeles, CA 90012, USA\",\"lat\":34.0574412,\"lng\":-118.2376558,\"zipcode\":\"90012\",\"city\":\"Los Angeles\",\"neighborhood\":\"Central LA\"},{\"location\":\"Macgowan Little Theater, UCLA\",\"address\":\"245 Charles E. Young Drive East Los Angeles, \",\"formattedAddress\":\"Macgowan Hall, 245 Charles E Young Dr E, Los Angeles, CA 90095, USA\",\"lat\":34.0758815,\"lng\":-118.4396813,\"zipcode\":\"90095\",\"city\":\"Los Angeles\",\"neighborhood\":\"Westwood\"},{\"location\":\"Pantages Theatre\",\"address\":\"6233 Hollywood Blvd. Los Angeles, \",\"formattedAddress\":\"6233 Hollywood Blvd, Los Angeles, CA 90028, USA\",\"neighborhood\":\"Hollywood\",\"lat\":34.102001,\"lng\":-118.325867,\"zipcode\":\"90028\"},{\"location\":\"Hollywood Bowl\",\"address\":\"2301 N. Highland Ave. Los Angeles, \",\"formattedAddress\":\"2301 Highland Ave, Los Angeles, CA 90068, USA\",\"lat\":34.1127392,\"lng\":-118.3388562,\"zipcode\":\"90068\",\"city\":\"Los Angeles\",\"neighborhood\":\"Central LA\"},{\"location\":\"The Point\",\"address\":\"850 S. Sepulveda Blvd. El Segundo, \",\"formattedAddress\":\"850 S Sepulveda Blvd, El Segundo, CA 90245, USA\",\"lat\":33.9031445,\"lng\":-118.3954149,\"zipcode\":\"90245\",\"city\":\"El Segundo\"},{\"location\":\"International Printing Museum\",\"address\":\"315 W. Torrance Blvd. Carson, \",\"formattedAddress\":\"315 W Torrance Blvd, Carson, CA 90745, USA\",\"neighborhood\":null,\"lat\":33.8423643,\"lng\":-118.2822856,\"zipcode\":\"90745\"},{\"location\":\"Golden Road Brewing\",\"address\":\"5410 West San Fernando Road  Los Angeles, CA , Silver Lake, \",\"formattedAddress\":\"5410 W San Fernando Rd, Los Angeles, CA 90039, USA\",\"neighborhood\":\"Northeast Los Angeles\",\"lat\":34.1382835,\"lng\":-118.2680042,\"zipcode\":\"90039\"},{\"location\":\"Short Stop\",\"address\":\"1455 Sunset Blvd. Los Angeles, \",\"formattedAddress\":\"1455 Sunset Blvd, Los Angeles, CA 90026, USA\",\"neighborhood\":\"Echo Park\",\"lat\":34.0753537,\"lng\":-118.2535265,\"zipcode\":\"90026\"},{\"location\":\"Southwest Museum, Mount Washington Campus\",\"address\":\"234 Museum Dr. Los Angeles, \",\"formattedAddress\":\"234 Museum Dr, Los Angeles, CA 90065, USA\",\"neighborhood\":\"Northeast Los Angeles\",\"lat\":34.1004316,\"lng\":-118.2061763,\"zipcode\":\"90065\"},{\"location\":\"Long Beach Convention & Entertainment Center\",\"address\":\"300 E. Ocean Blvd. Long Beach, \",\"formattedAddress\":\"300 E Ocean Blvd, Long Beach, CA 90802, USA\",\"lat\":33.76520350000001,\"lng\":-118.1893341,\"zipcode\":\"90802\",\"city\":\"Long Beach\",\"neighborhood\":\"Waterfront\"},{\"location\":\"The Savoy Entertainment Center\",\"address\":\"218 S. La Brea Blvd. Inglewood, \",\"formattedAddress\":\"218 South La Brea Ave, Inglewood, CA 90301, USA\",\"lat\":33.9611289,\"lng\":-118.3529119,\"zipcode\":\"90301\",\"city\":\"Inglewood\"},{\"location\":\"The Coffee Gallery Backstage\",\"address\":\"2029 N. Lake Ave. Altadena, \",\"formattedAddress\":\"2029 Lake Ave, Altadena, CA 91001, USA\",\"neighborhood\":null,\"lat\":34.1807073,\"lng\":-118.132044,\"zipcode\":\"91001\"},{\"location\":\"Gaslamp Restaurant & Bar\",\"address\":\"6251 E. Pacific Coast Highway Long Beach, \",\"formattedAddress\":\"6251 E Pacific Coast Hwy, Long Beach, CA 90803, USA\",\"neighborhood\":\"Marina\",\"lat\":33.7671249,\"lng\":-118.1163545,\"zipcode\":\"90803\"},{\"location\":\"Trip\",\"address\":\"2101 Lincoln Blvd. Santa Monica, \",\"formattedAddress\":\"2101 Lincoln Blvd, Santa Monica, CA 90405, USA\",\"neighborhood\":\"Ocean Park\",\"lat\":34.0109254,\"lng\":-118.4809526,\"zipcode\":\"90405\"},{\"location\":\"Au Lac\",\"address\":\"710 W. First St. Los Angeles, \",\"formattedAddress\":\"710 W 1st St, Los Angeles, CA 90012, USA\",\"neighborhood\":\"Downtown\",\"lat\":34.05623300000001,\"lng\":-118.250806,\"zipcode\":\"90012\"},{\"location\":\"The Greek Theatre\",\"address\":\"2700 N. Vermont Ave. Los Angeles, \",\"formattedAddress\":\"2700 N Vermont Ave, Los Angeles, CA 90027, USA\",\"neighborhood\":null,\"lat\":34.1205588,\"lng\":-118.2963915,\"zipcode\":\"90027\"},{\"location\":\"Cafe NELA\",\"address\":\"1906 Cypress Ave. Los Angeles, \",\"formattedAddress\":\"1906 Cypress Ave, Los Angeles, CA 90065, USA\",\"neighborhood\":\"Northeast Los Angeles\",\"lat\":34.1008484,\"lng\":-118.2350751,\"zipcode\":\"90065\"},{\"location\":\"Honda Center\",\"address\":\"2695 E. Katella Ave. Anaheim, \",\"formattedAddress\":\"2695 E Katella Ave, Anaheim, CA 92806, USA\",\"neighborhood\":\"Anaheim Resort\",\"lat\":33.8078356,\"lng\":-117.8765438,\"zipcode\":\"92806\"},{\"location\":\"The Regent Theater\",\"address\":\"448 S. Main St. Los Angeles, \",\"formattedAddress\":\"448 S Main St, Los Angeles, CA 90013, USA\",\"neighborhood\":\"Downtown\",\"lat\":34.046981,\"lng\":-118.2478,\"zipcode\":\"90013\"},{\"location\":\"Taix French Restaurant\",\"address\":\"1911 Sunset Blvd. Los Angeles, \",\"formattedAddress\":\"1911 Sunset Blvd, Los Angeles, CA 90026, USA\",\"neighborhood\":\"Echo Park\",\"lat\":34.0782765,\"lng\":-118.2614713,\"zipcode\":\"90026\"},{\"location\":\"Revolver Gallery\",\"address\":\"2525 Michigan Avenue, D4 Santa Monica, \",\"formattedAddress\":\"2525 Michigan Ave, Santa Monica, CA 90405, USA\",\"neighborhood\":\"Pico\",\"lat\":34.02778929999999,\"lng\":-118.4684355,\"zipcode\":\"90405\"},{\"location\":\"Santa Anita Park\",\"address\":\"285 W. Huntington Dr. Arcadia, \",\"formattedAddress\":\"285 W Huntington Dr, Arcadia, CA 91007, USA\",\"lat\":34.1365782,\"lng\":-118.0408645,\"zipcode\":\"91007\",\"city\":\"Arcadia\"},{\"location\":\"Chinese American Museum\",\"address\":\"425 N. Los Angeles St. Los Angeles, \",\"formattedAddress\":\"425 N Los Angeles St, Los Angeles, CA 90012, USA\",\"neighborhood\":\"Central LA\",\"lat\":34.0558393,\"lng\":-118.23909,\"zipcode\":\"90012\"},{\"location\":\"Blue Whale\",\"address\":\"123 Astronaut E.S. Onizuka St. Los Angeles, \",\"formattedAddress\":\"123 Astronaut E S Onizuka St, Los Angeles, CA 90012, USA\",\"neighborhood\":\"Downtown\",\"lat\":34.0501009,\"lng\":-118.2421794,\"zipcode\":\"90012\"},{\"location\":\"El Cid\",\"address\":\"4212 W. Sunset Blvd. Los Angeles, \",\"formattedAddress\":\"4212 Sunset Blvd, Los Angeles, CA 90029, USA\",\"neighborhood\":\"Silver Lake\",\"lat\":34.0938296,\"lng\":-118.2824137,\"zipcode\":\"90029\"},{\"location\":\"The Broad Stage, Santa Monica College Performing Arts Center\",\"address\":\"1310 11th St. Santa Monica, \",\"formattedAddress\":\"1310 11th St, Santa Monica, CA 90401, USA\",\"neighborhood\":\"Downtown\",\"lat\":34.022176,\"lng\":-118.4898567,\"zipcode\":\"90401\"},{\"location\":\"ROW DTLA\",\"address\":\"777 S. Alameda St. Los Angeles, CA\",\"formattedAddress\":\"777 S Alameda St, Los Angeles, CA 90021, USA\",\"neighborhood\":\"Downtown\",\"lat\":34.0314345,\"lng\":-118.2388605,\"zipcode\":\"90021\"},{\"location\":\"Trepany House at the Steve Allen Theater\",\"address\":\"4773 Hollywood Blvd. Los Angeles, \",\"formattedAddress\":\"4773 Hollywood Blvd, Los Angeles, CA 90027, USA\",\"neighborhood\":\"Los Feliz\",\"lat\":34.102083,\"lng\":-118.2940281,\"zipcode\":\"90027\"},{\"location\":\"UCB Sunset\",\"address\":\"5419 W. Sunset Blvd. Los Angeles, \",\"formattedAddress\":\"5419 Sunset Blvd, Los Angeles, CA 90027, USA\",\"neighborhood\":\"Hollywood\",\"lat\":34.0984638,\"lng\":-118.3079614,\"zipcode\":\"90027\"},{\"location\":\"Tribal Cafe\",\"address\":\"1651 W. Temple St. Los Angeles, \",\"formattedAddress\":\"1651 W Temple St, Los Angeles, CA 90026, USA\",\"neighborhood\":\"Central LA\",\"lat\":34.06870980000001,\"lng\":-118.2626639,\"zipcode\":\"90026\"},{\"location\":\"Perch\",\"address\":\"448 S. Hill St. Los Angeles, \",\"formattedAddress\":\"448 Hill St, Los Angeles, CA 90013, USA\",\"neighborhood\":\"Downtown\",\"lat\":34.0488342,\"lng\":-118.2513587,\"zipcode\":\"90013\"},{\"location\":\"The Museum of Tolerance\",\"address\":\"9786 W. Pico Blvd. Los Angeles, \",\"formattedAddress\":\"9786 W Pico Blvd, Los Angeles, CA 90035, USA\",\"lat\":34.053697,\"lng\":-118.401716,\"zipcode\":\"90035\",\"city\":\"Los Angeles\",\"neighborhood\":\"Pico - Robertson\"},{\"location\":\"Pappy & Harriet's Pioneertown Palace\",\"address\":\"53688 Pioneertown Rd. Pioneertown, \",\"formattedAddress\":\"53688 Pioneertown Rd, Pioneertown, CA 92268, USA\",\"neighborhood\":null,\"lat\":34.156559,\"lng\":-116.4930662,\"zipcode\":\"92268\"},{\"location\":\"La Cita\",\"address\":\"336 S. Hill St. Los Angeles, \",\"formattedAddress\":\"336 Hill St, Los Angeles, CA 90013, USA\",\"neighborhood\":\"Downtown\",\"lat\":34.0507003,\"lng\":-118.2496529,\"zipcode\":\"90013\"},{\"location\":\"Rose Bowl\",\"address\":\"1001 Rose Bowl Dr. Pasadena, \",\"formattedAddress\":\"1001 Rose Bowl Dr, Pasadena, CA 91103, USA\",\"lat\":34.1606364,\"lng\":-118.1674865,\"zipcode\":\"91103\",\"city\":\"Pasadena\",\"neighborhood\":\"North Arroyo\"},{\"location\":\"Harvelle's Long Beach\",\"address\":\"201 E. Broadway Long Beach, \",\"formattedAddress\":\"201 E Broadway, Long Beach, CA 90802, USA\",\"lat\":33.7694762,\"lng\":-118.1908325,\"zipcode\":\"90802\",\"city\":\"Long Beach\",\"neighborhood\":\"Downtown\"},{\"location\":\"Libbey Bowl\",\"address\":\"210 S. Signal St. Ojai, \",\"formattedAddress\":\"210 S Signal St, Ojai, CA 93023, USA\",\"neighborhood\":null,\"lat\":34.4458781,\"lng\":-119.2458306,\"zipcode\":\"93023\"},{\"location\":\"Descanso Beach Club\",\"address\":\"1 St. Catherine Way Avalon, \",\"formattedAddress\":\"1 St Catherine Way, Avalon, CA 90704, USA\",\"lat\":33.350429,\"lng\":-118.328838,\"zipcode\":\"90704\",\"city\":\"Avalon\"},{\"location\":\"Hollywood Palladium\",\"address\":\"6215 W. Sunset Blvd. Los Angeles, \",\"formattedAddress\":\"6215 Sunset Blvd, Los Angeles, CA 90028, USA\",\"neighborhood\":\"Hollywood\",\"lat\":34.0984783,\"lng\":-118.3243046,\"zipcode\":\"90028\"},{\"location\":\"Vitello's Italian Restaurant\",\"address\":\"4349 Tujunga Ave. Studio City, \",\"formattedAddress\":\"4349 Tujunga Ave, North Hollywood, CA 91604, USA\",\"neighborhood\":\"North Hollywood\",\"lat\":34.1488599,\"lng\":-118.3792879,\"zipcode\":\"91604\"},{\"location\":\"Catalina Bar & Grill\",\"address\":\"6725 W. Sunset Blvd. Los Angeles, \",\"formattedAddress\":\"6725 Sunset Blvd, Los Angeles, CA 90028, USA\",\"neighborhood\":\"Hollywood\",\"lat\":34.09834420000001,\"lng\":-118.3373005,\"zipcode\":\"90028\"},{\"location\":\"HM157\",\"address\":\"3110 N. Broadway Los Angeles, \",\"formattedAddress\":\"3110 N Broadway, Los Angeles, CA 90031, USA\",\"neighborhood\":\"Montecito Heights\",\"lat\":34.0734152,\"lng\":-118.2086977,\"zipcode\":\"90031\"},{\"location\":\"Verdugo Bar\",\"address\":\"3408 Verdugo Road Los Angeles \",\"formattedAddress\":\"3408 Verdugo Rd, Los Angeles, CA 90065, USA\",\"neighborhood\":\"Northeast Los Angeles\",\"lat\":34.1137406,\"lng\":-118.2349602,\"zipcode\":\"90065\"},{\"location\":\"Zombie Joe's Underground Theatre\",\"address\":\"4850 Lankershim Blvd. North Hollywood, \",\"formattedAddress\":\"4850 Lankershim Blvd, North Hollywood, CA 91601, USA\",\"neighborhood\":\"North Hollywood\",\"lat\":34.1591794,\"lng\":-118.3708756,\"zipcode\":\"91601\"},{\"location\":\"The Road on Magnolia\",\"address\":\"10747 Magnolia Blvd. Los Angeles, \",\"formattedAddress\":\"10747 W Magnolia Blvd, Los Angeles, CA 91601, USA\",\"lat\":34.1656166,\"lng\":-118.3650552,\"zipcode\":\"91601\",\"city\":\"Los Angeles\",\"neighborhood\":\"NoHo Arts District\"},{\"location\":\"Edgemar Center for the Arts\",\"address\":\"2437 Main St. Santa Monica, \",\"formattedAddress\":\"2437 Main St, Santa Monica, CA 90405, USA\",\"neighborhood\":\"Ocean Park\",\"lat\":34.0035616,\"lng\":-118.4847408,\"zipcode\":\"90405\"},{\"location\":\"Club Bahia\",\"address\":\"1130 W. Sunset Blvd. Los Angeles, \",\"formattedAddress\":\"1130 Sunset Blvd, Los Angeles, CA 90012, USA\",\"lat\":34.0663088,\"lng\":-118.2498753,\"zipcode\":\"90012\",\"city\":\"Los Angeles\",\"neighborhood\":\"Echo Park\"},{\"location\":\"Viceroy Santa Monica\",\"address\":\"1819 Ocean Ave Santa Monica, California 90401 310-260-7500\",\"formattedAddress\":\"1819 Ocean Ave, Santa Monica, CA 90401, USA\",\"lat\":34.0081329,\"lng\":-118.4904687,\"zipcode\":\"90401\",\"city\":\"Santa Monica\"},{\"location\":\"1739 Public House\",\"address\":\"1739 N. Vermont Ave. Los Angeles, \",\"formattedAddress\":\"1739 N Vermont Ave, Los Angeles, CA 90027, USA\",\"neighborhood\":\"Los Feliz\",\"lat\":34.1027271,\"lng\":-118.2920773,\"zipcode\":\"90027\"},{\"location\":\"The Virgil\",\"address\":\"4519 Santa Monica Blvd. Los Angeles, \",\"formattedAddress\":\"4519 Santa Monica Blvd, Los Angeles, CA 90029, USA\",\"neighborhood\":\"Hollywood\",\"lat\":34.0910076,\"lng\":-118.2870107,\"zipcode\":\"90029\"},{\"location\":\"Burbank Moose Lodge\",\"address\":\"1901 W. Burbank Blvd. Burbank, \",\"formattedAddress\":\"1901 W Burbank Blvd, Burbank, CA 91506, USA\",\"neighborhood\":null,\"lat\":34.1811226,\"lng\":-118.3317986,\"zipcode\":\"91506\"},{\"location\":\"Colombo's Italian Steakhouse & Jazz Club\",\"address\":\"1833 Colorado Blvd. Eagle Rock, \",\"formattedAddress\":\"1833 Colorado Blvd, Los Angeles, CA 90041, USA\",\"neighborhood\":\"Northeast Los Angeles\",\"lat\":34.1395978,\"lng\":-118.2072713,\"zipcode\":\"90041\"},{\"location\":\"Las Hadas\",\"address\":\"9048 Balboa Blvd. Northridge, \",\"formattedAddress\":\"9048 Balboa Blvd, Northridge, CA 91325, USA\",\"neighborhood\":\"Northridge\",\"lat\":34.235028,\"lng\":-118.5020911,\"zipcode\":\"91325\"},{\"location\":\"Grand Park\",\"address\":\"200 N. Grand Ave. Los Angeles, \",\"formattedAddress\":\"200 N Grand Ave, Los Angeles, CA 90012, USA\",\"lat\":34.0562797,\"lng\":-118.2467434,\"zipcode\":\"90012\",\"city\":\"Los Angeles\",\"neighborhood\":\"Central LA\"},{\"location\":\"Multiple Locations\",\"address\":\"Multiple Locations Greater Los Angeles, California 90001 415-512-0151\"},{\"location\":\"UCLA Meteorite Gallery\",\"address\":\"595 Charles Young Drive East, Geology 3697 Los Angeles, \"},{\"location\":\"Boardner's\",\"address\":\"1652 N. Cherokee Ave. Los Angeles, \",\"formattedAddress\":\"1652 N Cherokee Ave, Los Angeles, CA 90028, USA\",\"neighborhood\":\"Central LA\",\"lat\":34.1011525,\"lng\":-118.3349334,\"zipcode\":\"90028\"},{\"location\":\"North Hollywood Park\",\"address\":\"5099 Tujunga Ave. North Hollywood, \",\"formattedAddress\":\"5099 Tujunga Ave, North Hollywood, CA 91601, USA\",\"lat\":34.1629645,\"lng\":-118.3790245,\"zipcode\":\"91601\",\"city\":\"Los Angeles\",\"neighborhood\":\"North Hollywood\"},{\"location\":\"Escape Hotel Hollywood\",\"address\":\"6633 Hollywood Blvd. Los Angeles, \",\"formattedAddress\":\"6633 Hollywood Blvd, Los Angeles, CA 90028, USA\",\"lat\":34.1017827,\"lng\":-118.3345105,\"zipcode\":\"90028\",\"city\":\"Los Angeles\",\"neighborhood\":\"Hollywood\"},{\"location\":\"Various Locations\",\"address\":\"Various Locations Los Angeles, \",\"formattedAddress\":\"812 Highland Ave, Los Angeles, CA 90038, USA\",\"neighborhood\":\"Hollywood\",\"lat\":34.0856992,\"lng\":-118.3384181,\"zipcode\":\"90038\"},{\"location\":\"UCB Franklin\",\"address\":\"5919 Franklin Ave. Los Angeles, \",\"formattedAddress\":\"5919 Franklin Ave, Los Angeles, CA 90028, USA\",\"neighborhood\":\"Hollywood Hills\",\"lat\":34.1054499,\"lng\":-118.3187772,\"zipcode\":\"90028\"},{\"location\":\"MOCA Grand Avenue\",\"address\":\"250 S. Grand Ave. Los Angeles, \",\"formattedAddress\":\"250 S Grand Ave, Los Angeles, CA 90012, USA\",\"neighborhood\":\"Downtown\",\"lat\":34.0534223,\"lng\":-118.2504046,\"zipcode\":\"90012\"},{\"location\":\"OMGC Parish\",\"address\":\"2060 N Vermont Ave. Los Angeles, \",\"formattedAddress\":\"2060 N Vermont Ave, Los Angeles, CA 90027, USA\",\"neighborhood\":\"Los Feliz\",\"lat\":34.1096399,\"lng\":-118.2917124,\"zipcode\":\"90027\"},{\"location\":\"Museum of Broken Relationships\",\"address\":\"6751 Hollywood Blvd Los Angeles, California 90028 323-892-8103\",\"formattedAddress\":\"6751 Hollywood Blvd, Hollywood, CA 90028, USA\",\"neighborhood\":\"Hollywood\",\"lat\":34.1017702,\"lng\":-118.3376512,\"zipcode\":\"90028\"},{\"location\":\"REDCAT: Roy & Edna Disney/CalArts Theater\",\"address\":\"631 W. Second St. Los Angeles, \",\"formattedAddress\":\"631 W 2nd St, Los Angeles, CA 90012, USA\",\"neighborhood\":\"Downtown\",\"lat\":34.0550997,\"lng\":-118.2505889,\"zipcode\":\"90012\"},{\"location\":\"El Portal Theatre\",\"address\":\"5269 Lankershim Blvd. North Hollywood, \",\"formattedAddress\":\"5269 Lankershim Blvd, North Hollywood, CA 91601, USA\",\"neighborhood\":\"North Hollywood\",\"lat\":34.1667182,\"lng\":-118.3762649,\"zipcode\":\"91601\"},{\"location\":\"California Science Center\",\"address\":\"700 Exposition Park Dr. Los Angeles, \",\"formattedAddress\":\"700 Exposition Park Dr, Los Angeles, CA 90037, USA\",\"neighborhood\":\"South Los Angeles\",\"lat\":34.0157877,\"lng\":-118.2862095,\"zipcode\":\"90037\"},{\"location\":\"Bee Canyon Park\",\"address\":\"17307 Sesnon Blvd. Los Angeles, \",\"formattedAddress\":\"17307 Sesnon Blvd, Granada Hills, CA 91344, USA\",\"neighborhood\":\"Granada Hills\",\"lat\":34.3084174,\"lng\":-118.510448,\"zipcode\":\"91344\"},{\"location\":\"Pomona College Art Department Chan Gallery\",\"address\":\"370 Columbia Ave. Claremont, California 91711 909-621-8079\",\"formattedAddress\":\"370 Columbia Ave, Claremont, CA 91711, USA\",\"lat\":34.0966139,\"lng\":-117.711123,\"zipcode\":\"91711\",\"city\":\"Claremont\"},{\"location\":\"Riviera 31\",\"address\":\"Hotel Sofitel, 8555 Beverly Blvd. Los Angeles, California 90048 310-278-5444\",\"formattedAddress\":\"8555 Beverly Blvd, Los Angeles, CA 90048, USA\",\"neighborhood\":\"Central LA\",\"lat\":34.0763642,\"lng\":-118.3774949,\"zipcode\":\"90048\"},{\"location\":\"Villain's Tavern\",\"address\":\"1356 Palmetto St. Los Angeles, \",\"formattedAddress\":\"1356 Palmetto St, Los Angeles, CA 90013, USA\",\"neighborhood\":\"Central LA\",\"lat\":34.0401415,\"lng\":-118.2309452,\"zipcode\":\"90013\"},{\"location\":\"Discovery Cube in Los Angeles\",\"address\":\"11800 Foothill Blvd. Los Angeles, California 91342 818-686-2823\",\"formattedAddress\":\"11800 Foothill Blvd, Sylmar, CA 91342, USA\",\"neighborhood\":\"Sylmar\",\"lat\":34.2729595,\"lng\":-118.3932212,\"zipcode\":\"91342\"},{\"location\":\"Fleming's Prime Steakhouse\",\"address\":\"179 E. Colorado Blvd, Pasadena, \",\"formattedAddress\":\"179 E Colorado Blvd, Pasadena, CA 91101, USA\",\"lat\":34.1458062,\"lng\":-118.1466612,\"zipcode\":\"91101\",\"city\":\"Pasadena\"},{\"location\":\"Multiple Locations\",\"address\":\"Multiple Locations Greater Los Angeles, California 90001 415-512-0151\"},{\"location\":\"The Roar Room\",\"address\":\"3645 Foothill Blvd. La Crescenta, \",\"formattedAddress\":\"3645 Foothill Blvd, La Crescenta, CA 91214, USA\",\"lat\":34.2362374,\"lng\":-118.258962,\"zipcode\":\"91214\",\"city\":\"Glendale\",\"neighborhood\":\"La Crescenta\"},{\"location\":\"L.A. Weekly\",\"address\":\"3861 Sepulveda Blvd. Culver City, \",\"formattedAddress\":\"3861 Sepulveda Blvd, Culver City, CA 90230, USA\",\"neighborhood\":\"Clarkdale\",\"lat\":34.0111894,\"lng\":-118.4162464,\"zipcode\":\"90230\"},{\"location\":\"Edemar center\",\"address\":\"2437 main st Santa Monica, \",\"formattedAddress\":\"2437 Main St, Santa Monica, CA 90405, USA\",\"lat\":34.0035616,\"lng\":-118.4847408,\"zipcode\":\"90405\",\"city\":\"Santa Monica\",\"neighborhood\":\"Ocean Park\"},{\"location\":\"Artists and Fleas\",\"address\":\"647 Mateo St. Los Angeles, \",\"formattedAddress\":\"647 Mateo St, Los Angeles, CA 90021, USA\",\"lat\":34.0364202,\"lng\":-118.2328638,\"zipcode\":\"90021\",\"city\":\"Los Angeles\",\"neighborhood\":\"Downtown\"},{\"location\":\"Kulak's Woodshed\",\"address\":\"5230 1/2 Laurel Canyon Blvd. Studio City, \",\"formattedAddress\":\"4249 1/2 Laurel Canyon Blvd, Studio City, CA 91604, USA\",\"neighborhood\":\"Studio City\",\"lat\":34.1482267,\"lng\":-118.3965899,\"zipcode\":\"91604\"},{\"location\":\"W Hotel Hollywood\",\"address\":\"6250 Hollywood Blvd Hollywood, California 90028 323-798-1300\",\"formattedAddress\":\"6250 Hollywood Blvd, Los Angeles, CA 90028, USA\",\"neighborhood\":\"Hollywood\",\"lat\":34.1010195,\"lng\":-118.3254155,\"zipcode\":\"90028\"},{\"location\":\"AMC Orange 30 (AMC Block 30)\",\"address\":\"20 City Blvd. W. Orange, \",\"formattedAddress\":\"20 City Blvd W, Orange, CA 92868, USA\",\"neighborhood\":\"Anaheim Resort\",\"lat\":33.7848294,\"lng\":-117.8935314,\"zipcode\":\"92868\"},{\"location\":\"The Down & Out\",\"address\":\"501 S. Spring St. Los Angeles, \",\"formattedAddress\":\"501 S Spring St, Los Angeles, CA 90013, USA\",\"neighborhood\":\"Downtown\",\"lat\":34.0472554,\"lng\":-118.2500328,\"zipcode\":\"90013\"},{\"location\":\"The Copper Still\",\"address\":\"4493 Beverly Blvd. Los Angeles, \",\"formattedAddress\":\"4493 Beverly Blvd, Los Angeles, CA 90004, USA\",\"neighborhood\":\"Hollywood\",\"lat\":34.0764323,\"lng\":-118.3066935,\"zipcode\":\"90004\"},{\"location\":\"Metro Green Meds\",\"address\":\"1616 S Los Angeles St. Los Angeles, \",\"formattedAddress\":\"1616 S Los Angeles St, Los Angeles, CA 90015, USA\",\"neighborhood\":\"Downtown\",\"lat\":34.032437,\"lng\":-118.2617022,\"zipcode\":\"90015\"},{\"location\":\"Sur Restaurant & Grill\",\"address\":\"606 N. Robertson Blvd. West Hollywood, \",\"formattedAddress\":\"606 N Robertson Blvd, West Hollywood, CA 90069, USA\",\"neighborhood\":\"Central LA\",\"lat\":34.0812107,\"lng\":-118.3852167,\"zipcode\":\"90069\"},{\"location\":\"Velveteria: The Museum of Velvet Paintings\",\"address\":\"711 New High St. Los Angeles, \",\"formattedAddress\":\"711 New High St, Los Angeles, CA 90012, USA\",\"neighborhood\":\"Central LA\",\"lat\":34.0604764,\"lng\":-118.2387822,\"zipcode\":\"90012\"},{\"location\":\"Online Contest\",\"address\":\"1215 Cushman Ave. San Diego, California 92110 619-234-0345\",\"formattedAddress\":\"1215 Cushman Ave, San Diego, CA 92110, USA\",\"lat\":32.7683292,\"lng\":-117.1986237,\"zipcode\":\"92110\",\"city\":\"San Diego\",\"neighborhood\":\"Morena\"},{\"location\":\"Skylight Books\",\"address\":\"1818 N. Vermont Ave. Los Angeles, \",\"formattedAddress\":\"1818 N Vermont Ave, Los Angeles, CA 90027, USA\",\"lat\":34.104216,\"lng\":-118.291488,\"zipcode\":\"90027\",\"city\":\"Los Angeles\",\"neighborhood\":\"Central LA\"},{\"location\":\"PIPS Pizza Pasta Salads\",\"address\":\"1356 S. La Brea Ave. Los Angeles, \",\"formattedAddress\":\"1356 S La Brea Ave, Los Angeles, CA 90019, USA\",\"neighborhood\":\"Mid-Wilshire\",\"lat\":34.0484744,\"lng\":-118.3441902,\"zipcode\":\"90019\"},{\"location\":\"Harvard & Stone\",\"address\":\"5221 Hollywood Blvd. Los Angeles, \",\"formattedAddress\":\"5221 Hollywood Blvd, Los Angeles, CA 90027, USA\",\"lat\":34.1019041,\"lng\":-118.3042997,\"zipcode\":\"90027\",\"city\":\"Los Angeles\",\"neighborhood\":\"Los Feliz\"},{\"location\":\"Busby's East\",\"address\":\"5364 Wilshire Blvd. Los Angeles, \",\"formattedAddress\":\"5364 Wilshire Blvd, Los Angeles, CA 90036, USA\",\"lat\":34.0619906,\"lng\":-118.3458395,\"zipcode\":\"90036\",\"city\":\"Los Angeles\",\"neighborhood\":\"Central LA\"},{\"location\":\"The Automobile Driving Museum\",\"address\":\"610 Lairport St. El Segundo, \",\"formattedAddress\":\"610 Lairport St, El Segundo, CA 90245, USA\",\"neighborhood\":null,\"lat\":33.9247131,\"lng\":-118.3922325,\"zipcode\":\"90245\"},{\"location\":\"Ireland's 32\",\"address\":\"13721 Burbank Blvd. Van Nuys, \",\"formattedAddress\":\"13721 Burbank Blvd, Van Nuys, CA 91401, USA\",\"neighborhood\":\"Van Nuys\",\"lat\":34.1723929,\"lng\":-118.4321711,\"zipcode\":\"91401\"},{\"location\":\"FM Fine Art Gallery\",\"address\":\"834 N. La Brea Ave. Los Angeles, \",\"formattedAddress\":\"834 N La Brea Ave, Los Angeles, CA 90038, USA\",\"neighborhood\":\"Central LA\",\"lat\":34.0862389,\"lng\":-118.3437364,\"zipcode\":\"90038\"},{\"location\":\"Homibing\",\"address\":\"3300 W. Sixth St. Los Angeles, \",\"formattedAddress\":\"3300 W 6th St, Los Angeles, CA 90020, USA\",\"lat\":34.06341099999999,\"lng\":-118.2943457,\"zipcode\":\"90020\",\"city\":\"Los Angeles\",\"neighborhood\":\"Central LA\"},{\"location\":\"Hotel Angeleno\",\"address\":\"170 N. Church Lane Los Angeles, \",\"formattedAddress\":\"170 N Church Ln, Los Angeles, CA 90049, USA\",\"neighborhood\":\"Brentwood\",\"lat\":34.0737485,\"lng\":-118.4682112,\"zipcode\":\"90049\"},{\"location\":\"Astroetic Studios\",\"address\":\"224 E. 11th St, #700A Los Angeles, \",\"formattedAddress\":\"224 E 11th St #700a, Los Angeles, CA 90015, USA\",\"neighborhood\":\"Central LA\",\"lat\":34.0378048,\"lng\":-118.2565453,\"zipcode\":\"90015\"},{\"location\":\"The Pack Theater\",\"address\":\"6470 Santa Monica Blvd. Hollywood, California 90038\",\"formattedAddress\":\"6470 Santa Monica Blvd, Los Angeles, CA 90038, USA\",\"neighborhood\":\"Hollywood\",\"lat\":34.0905344,\"lng\":-118.3306225,\"zipcode\":\"90038\"},{\"location\":\"San Luis Obispo Museum of Art\",\"address\":\"1010 Broad St. San Luis Obispo, \",\"formattedAddress\":\"1010 Broad St, San Luis Obispo, CA 93401, USA\",\"lat\":35.2795805,\"lng\":-120.6649827,\"zipcode\":\"93401\",\"city\":\"San Luis Obispo\",\"neighborhood\":\"Downtown\"},{\"location\":\"Flight Theatre at The Complex\",\"address\":\"6472 Santa Monica Blvd. Los Angeles, \",\"formattedAddress\":\"6472 Santa Monica Blvd, Los Angeles, CA 90038, USA\",\"neighborhood\":\"Hollywood\",\"lat\":34.0905339,\"lng\":-118.3306436,\"zipcode\":\"90038\"},{\"location\":\"The Kibitz Room\",\"address\":\"419 N. Fairfax Ave. Los Angeles, \",\"formattedAddress\":\"419 N Fairfax Ave, Los Angeles, CA 90036, USA\",\"neighborhood\":\"Central LA\",\"lat\":34.0789742,\"lng\":-118.361875,\"zipcode\":\"90036\"},{\"location\":\"Cana Rum Bar\",\"address\":\"714 W. Olympic Blvd. Los Angeles, \",\"formattedAddress\":\"714 W Olympic Blvd, Los Angeles, CA 90015, USA\",\"neighborhood\":\"Downtown\",\"lat\":34.0443748,\"lng\":-118.2633425,\"zipcode\":\"90015\"},{\"location\":\"Los Angeles Marriott Burbank Airport\",\"address\":\"2500 Hollywood Way Burbank, \",\"formattedAddress\":\"2500 N Hollywood Way, Burbank, CA 91505, USA\",\"neighborhood\":\"North Hollywood\",\"lat\":34.1939677,\"lng\":-118.3482738,\"zipcode\":\"91505\"},{\"location\":\"Seven Grand\",\"address\":\"515 W. Seventh St. Los Angeles, \",\"formattedAddress\":\"515 W 7th St, Los Angeles, CA 90014, USA\",\"neighborhood\":\"Downtown\",\"lat\":34.047132,\"lng\":-118.2558135,\"zipcode\":\"90014\"},{\"location\":\"Escape Room LA\",\"address\":\"120 E. 8th St Los Angeles, \",\"formattedAddress\":\"120 E 8th St, Los Angeles, CA 90014, USA\",\"neighborhood\":\"Downtown\",\"lat\":34.0420721,\"lng\":-118.2528292,\"zipcode\":\"90014\"},{\"location\":\"The Help Group Autism Center Theater\",\"address\":\"13164 Burbank Blvd. Van Nuys, \",\"formattedAddress\":\"13164 Burbank Blvd, Van Nuys, CA 91401, USA\",\"neighborhood\":\"Van Nuys\",\"lat\":34.1716122,\"lng\":-118.4203441,\"zipcode\":\"91401\"},{\"location\":\"Los Angeles Convention Center\",\"address\":\"1201 S. Figueroa St. Los Angeles, \",\"formattedAddress\":\"1201 S Figueroa St, Los Angeles, CA 90015, USA\",\"neighborhood\":\"Central LA\",\"lat\":34.0413606,\"lng\":-118.2697771,\"zipcode\":\"90015\"},{\"location\":\"New Wight Gallery\",\"address\":\"1100 Broad Art Center Los Angeles, \",\"formattedAddress\":\"Broad Art Center, 240 Charles E Young Dr N, Los Angeles, CA 90095, USA\",\"neighborhood\":\"Westwood\",\"lat\":34.075885,\"lng\":-118.4409969,\"zipcode\":\"90095\"},{\"location\":\"Lora Schlesinger Gallery\",\"address\":\"2525 Michigan Ave., B5b Santa Monica, \",\"formattedAddress\":\"2525 Michigan Ave, Santa Monica, CA 90404, USA\",\"neighborhood\":\"Pico\",\"lat\":34.028222,\"lng\":-118.467641,\"zipcode\":\"90404\"},{\"location\":\"Piccolo's Thrift Store\",\"address\":\"1859 W. Gage Ave. Los Angeles, \",\"formattedAddress\":\"1859 W Gage Ave, Los Angeles, CA 90047, USA\",\"neighborhood\":\"South Los Angeles\",\"lat\":33.9820911,\"lng\":-118.3110949,\"zipcode\":\"90047\"},{\"location\":\"The Paley Center for Media\",\"address\":\"465 N. Beverly Dr. Beverly Hills, \",\"formattedAddress\":\"465 N Beverly Dr, Beverly Hills, CA 90210, USA\",\"neighborhood\":null,\"lat\":34.0708996,\"lng\":-118.4033802,\"zipcode\":\"90210\"},{\"location\":\"Harvelle's Santa Monica\",\"address\":\"1432 Fourth St. Santa Monica, \",\"formattedAddress\":\"1432 4th St, Santa Monica, CA 90401, USA\",\"neighborhood\":\"Downtown\",\"lat\":34.0156047,\"lng\":-118.4944879,\"zipcode\":\"90401\"},{\"location\":\"Backstage Bar & Grill\",\"address\":\"10400 Culver Blvd. Culver City, \",\"formattedAddress\":\"10400 Culver Blvd, Culver City, CA 90232, USA\",\"neighborhood\":\"Carlson Park\",\"lat\":34.0162779,\"lng\":-118.4001275,\"zipcode\":\"90232\"},{\"location\":\"El Rey Theatre\",\"address\":\"5515 Wilshire Blvd. Los Angeles, \",\"formattedAddress\":\"5515 Wilshire Blvd, Los Angeles, CA 90036, USA\",\"neighborhood\":\"Mid-Wilshire\",\"lat\":34.0626988,\"lng\":-118.3489004,\"zipcode\":\"90036\"},{\"location\":\"The Federal Bar\",\"address\":\"102 Pine Ave. Long Beach, \",\"formattedAddress\":\"102 Pine Ave, Long Beach, CA 90802, USA\",\"neighborhood\":\"Downtown\",\"lat\":33.7682406,\"lng\":-118.1920563,\"zipcode\":\"90802\"},{\"location\":\"The Lighthouse Cafe\",\"address\":\"30 Pier Ave. Hermosa Beach, \",\"formattedAddress\":\"30 Pier Ave, Hermosa Beach, CA 90254, USA\",\"neighborhood\":null,\"lat\":33.8617548,\"lng\":-118.4010031,\"zipcode\":\"90254\"},{\"location\":\"The Forum\",\"address\":\"3900 W. Manchester Blvd. Inglewood, \",\"formattedAddress\":\"3900 W Manchester Blvd, Inglewood, CA 90305, USA\",\"neighborhood\":\"South Los Angeles\",\"lat\":33.9581667,\"lng\":-118.3418158,\"zipcode\":\"90305\"},{\"location\":\"Vibrato Grill & Jazz\",\"address\":\"2930 Beverly Glen Circle Bel-Air, \",\"formattedAddress\":\"2930 Beverly Glen Cir, Los Angeles, CA 90077, USA\",\"neighborhood\":null,\"lat\":34.1272598,\"lng\":-118.4445141,\"zipcode\":\"90077\"},{\"location\":\"Glendale City Seventh-Day Adventist Church\",\"address\":\"610 E. California Ave. Los Angeles, \",\"formattedAddress\":\"610 E California Ave, Glendale, CA 91206, USA\",\"neighborhood\":\"Downtown\",\"lat\":34.1497453,\"lng\":-118.2484602,\"zipcode\":\"91206\"},{\"location\":\"The Roxy\",\"address\":\"9009 W. Sunset Blvd. West Hollywood, \",\"formattedAddress\":\"9009 Sunset Blvd, West Hollywood, CA 90069, USA\",\"neighborhood\":\"Sunset Strip\",\"lat\":34.0909001,\"lng\":-118.3879395,\"zipcode\":\"90069\"},{\"location\":\"The Townhouse\",\"address\":\"52 Windward Ave. Venice, \",\"formattedAddress\":\"52 Windward Ave, Venice, CA 90291, USA\",\"neighborhood\":\"Venice\",\"lat\":33.9871768,\"lng\":-118.4726295,\"zipcode\":\"90291\"},{\"location\":\"The Community Center of La Canada Flintridge\",\"address\":\"4469 Chevy Chase Dr. La Canada Flintridge, \",\"formattedAddress\":\"4469 Chevy Chase Dr, La Cañada Flintridge, CA 91011, USA\",\"neighborhood\":null,\"lat\":34.2041598,\"lng\":-118.2014764,\"zipcode\":\"91011\"},{\"location\":\"Hornblower Cruises & Events\",\"address\":\"13755 Fiji Way Marina Del Rey \",\"formattedAddress\":\"13755 Fiji Way, Marina Del Rey, CA 90292, USA\",\"lat\":33.9725614,\"lng\":-118.4462468,\"zipcode\":\"90292\",\"city\":\"Marina del Rey\"},{\"location\":\"Starboard Attitude\",\"address\":\"202 The Pier Redondo Beach, \",\"formattedAddress\":\"202 Pier Ave, Hermosa Beach, CA 90254, USA\",\"lat\":33.86309320000001,\"lng\":-118.3990998,\"zipcode\":\"90254\",\"city\":\"Hermosa Beach\"},{\"location\":\"Vintage Grocers\",\"address\":\"140 Promenade Way Westlake Village, California 91362 805-230-0010\",\"formattedAddress\":\"140 Promenade Way, Thousand Oaks, CA 91362, USA\",\"neighborhood\":null,\"lat\":34.1587765,\"lng\":-118.8208825,\"zipcode\":\"91362\"},{\"location\":\"Hyperion Tavern\",\"address\":\"1941 Hyperion Ave. Los Angeles, \",\"formattedAddress\":\"1941 Hyperion Ave, Los Angeles, CA 90027, USA\",\"neighborhood\":\"Los Feliz\",\"lat\":34.0982695,\"lng\":-118.2750725,\"zipcode\":\"90027\"},{\"location\":\"Au Fudge\",\"address\":\"9010 Melrose Ave West Hollywood, California 90069 424-288-4268\",\"formattedAddress\":\"9010 Melrose Ave, West Hollywood, CA 90069, USA\",\"neighborhood\":\"Central LA\",\"lat\":34.0805544,\"lng\":-118.3882164,\"zipcode\":\"90069\"},{\"location\":\"Blitzstein Museum of Art\",\"address\":\"428 N. Fairfax Ave. Los Angeles, \",\"formattedAddress\":\"428 N Fairfax Ave, Los Angeles, CA 90036, USA\",\"lat\":34.0790993,\"lng\":-118.3611352,\"zipcode\":\"90036\",\"city\":\"Los Angeles\",\"neighborhood\":\"Central LA\"},{\"location\":\"The Barkley Restaurant & Bar\",\"address\":\"1400 Huntington Dr. South Pasadena, \",\"formattedAddress\":\"1400 Huntington Dr, South Pasadena, CA 91030, USA\",\"lat\":34.1044402,\"lng\":-118.152313,\"zipcode\":\"91030\",\"city\":\"South Pasadena\"},{\"location\":\"Westwood Village\",\"address\":\"1031 Broxton Ave Los Angeles, CA California 90024 310-470-1812\",\"formattedAddress\":\"1031 Broxton Ave, Los Angeles, CA 90024, USA\",\"neighborhood\":\"Westwood\",\"lat\":34.0618175,\"lng\":-118.4465493,\"zipcode\":\"90024\"},{\"location\":\"Art Theatre of Long Beach\",\"address\":\"2025 E. Fourth St. Long Beach, \",\"formattedAddress\":\"2025 E 4th St, Long Beach, CA 90814, USA\",\"lat\":33.77192369999999,\"lng\":-118.1669997,\"zipcode\":\"90814\",\"city\":\"Long Beach\",\"neighborhood\":\"Eastside\"},{\"location\":\"The Fonda Theatre\",\"address\":\"6126 Hollywood Blvd. Los Angeles, \",\"formattedAddress\":\"6126 Hollywood Blvd, Los Angeles, CA 90028, USA\",\"neighborhood\":\"Hollywood\",\"lat\":34.1012695,\"lng\":-118.3232478,\"zipcode\":\"90028\"},{\"location\":\"Molly Malone's\",\"address\":\"575 S. Fairfax Ave. Los Angeles, \",\"formattedAddress\":\"575 S Fairfax Ave, Los Angeles, CA 90036, USA\",\"neighborhood\":\"Carthay Circle\",\"lat\":34.065287,\"lng\":-118.361697,\"zipcode\":\"90036\"},{\"location\":\"OHM Nightclub\",\"address\":\"6801 Hollywood Blvd. Los Angeles, \",\"formattedAddress\":\"6801 Hollywood Blvd, Los Angeles, CA 90028, USA\",\"neighborhood\":\"Hollywood\",\"lat\":34.1025903,\"lng\":-118.3400444,\"zipcode\":\"90028\"},{\"location\":\"Lemon Twist Lounge\",\"address\":\"2822 W.Ball Rd Anaheim, Ca 92804 562-688-3786\",\"formattedAddress\":\"2822 W Ball Rd, Anaheim, CA 92804, USA\",\"neighborhood\":\"Southwest Anaheim\",\"lat\":33.8174924,\"lng\":-117.9860654,\"zipcode\":\"92804\"},{\"location\":\"Fred Kavli Theatre, Thousand Oaks Civic Arts Plaza\",\"address\":\"2100 E. Thousand Oaks Blvd. Thousand Oaks, \",\"formattedAddress\":\"2100 Thousand Oaks Blvd, Thousand Oaks, CA 91362, USA\",\"neighborhood\":null,\"lat\":34.1746462,\"lng\":-118.848904,\"zipcode\":\"91362\"},{\"location\":\"McCabe's Guitar Shop\",\"address\":\"3101 Pico Blvd. Santa Monica, \",\"formattedAddress\":\"3101 Pico Blvd, Santa Monica, CA 90405, USA\",\"neighborhood\":\"Pico\",\"lat\":34.026043,\"lng\":-118.457612,\"zipcode\":\"90405\"},{\"location\":\"Angel Stadium of Anaheim\",\"address\":\"2000 Gene Autry Way Anaheim, \",\"formattedAddress\":\"2000 E Gene Autry Way, Anaheim, CA 92806, USA\",\"neighborhood\":\"Platinum Triangle\",\"lat\":33.8002902,\"lng\":-117.8827493,\"zipcode\":\"92806\"},{\"location\":\"Maui Sugar Mill Saloon\",\"address\":\"18389 Ventura Blvd. Tarzana, \",\"formattedAddress\":\"18389 Ventura Blvd, Tarzana, CA 91356, USA\",\"neighborhood\":\"Tarzana\",\"lat\":34.168675,\"lng\":-118.5327741,\"zipcode\":\"91356\"},{\"location\":\"The Wiltern\",\"address\":\"3790 Wilshire Blvd. Los Angeles, \",\"formattedAddress\":\"3790 Wilshire Blvd, Los Angeles, CA 90010, USA\",\"neighborhood\":\"Koreatown\",\"lat\":34.0614896,\"lng\":-118.3087587,\"zipcode\":\"90010\"},{\"location\":\"The Redwood Bar & Grill\",\"address\":\"316 W. Second St. Los Angeles, \",\"formattedAddress\":\"316 W 2nd St, Los Angeles, CA 90012, USA\",\"neighborhood\":\"Downtown\",\"lat\":34.0526005,\"lng\":-118.2474909,\"zipcode\":\"90012\"},{\"location\":\"LA Plaza de Cultura y Artes\",\"address\":\"501 N. Main St. Los Angeles, \",\"formattedAddress\":\"501 N Main St, Los Angeles, CA 90012, USA\",\"lat\":34.0564554,\"lng\":-118.2398448,\"zipcode\":\"90012\",\"city\":\"Los Angeles\",\"neighborhood\":\"Central LA\"},{\"location\":\"The Good Luck Gallery\",\"address\":\"945 Chung King Rd. Los Angeles, \",\"formattedAddress\":\"945 Chung King Rd, Los Angeles, CA 90012, USA\",\"neighborhood\":\"Central LA\",\"lat\":34.0659286,\"lng\":-118.2385978,\"zipcode\":\"90012\"},{\"location\":\"R Bar\",\"address\":\"3331 W. Eighth St. Los Angeles, \",\"formattedAddress\":\"3331 W 8th St, Los Angeles, CA 90005, USA\",\"neighborhood\":\"Central LA\",\"lat\":34.0578538,\"lng\":-118.301083,\"zipcode\":\"90005\"},{\"location\":\"Boulevard Music\",\"address\":\"4316 Sepulveda Blvd. Culver City, \",\"formattedAddress\":\"4316 Sepulveda Blvd, Culver City, CA 90230, USA\",\"lat\":34.0045754,\"lng\":-118.4092156,\"zipcode\":\"90230\",\"city\":\"Culver City\",\"neighborhood\":\"Park West\"},{\"location\":\"Flappers Comedy Club Burbank\",\"address\":\"102 E. Magnolia Blvd. Burbank, \",\"formattedAddress\":\"102 E Magnolia Blvd, Burbank, CA 91502, USA\",\"lat\":34.181928,\"lng\":-118.3125083,\"zipcode\":\"91502\",\"city\":\"Burbank\"},{\"location\":\"L.A. County Arboretum & Botanic Garden\",\"address\":\"301 N. Baldwin Ave. Arcadia, \",\"formattedAddress\":\"301 N Baldwin Ave, Arcadia, CA 91007, USA\",\"lat\":34.1448279,\"lng\":-118.0508813,\"zipcode\":\"91007\",\"city\":\"Arcadia\"},{\"location\":\"Civic Center Studios\",\"address\":\"207 S. Broadway, Los Angeles, CA, Torrance, \",\"formattedAddress\":\"S Broadway, Los Angeles, CA, USA\",\"neighborhood\":null,\"lat\":33.9778632,\"lng\":-118.2783254},{\"location\":\"The Cinema Bar\",\"address\":\"3967 Sepulveda Blvd. Culver City, \",\"formattedAddress\":\"3967 Sepulveda Blvd, Culver City, CA 90230, USA\",\"neighborhood\":\"Clarkdale\",\"lat\":34.0094096,\"lng\":-118.4146843,\"zipcode\":\"90230\"},{\"location\":\"Ambassador Auditorium\",\"address\":\"131 S. St. John Ave. Pasadena, \",\"formattedAddress\":\"131 S St John Ave, Pasadena, CA 91123, USA\",\"neighborhood\":\"Northeast Los Angeles\",\"lat\":34.1433765,\"lng\":-118.1565116,\"zipcode\":\"91123\"},{\"location\":\"San Gabriel Mission Playhouse\",\"address\":\"320 Mission Dr. San Gabriel, \",\"formattedAddress\":\"320 N Mission Dr, San Gabriel, CA 91775, USA\",\"neighborhood\":null,\"lat\":34.1068399,\"lng\":-118.1112117,\"zipcode\":\"91775\"},{\"location\":\"Edendale Library\",\"address\":\"2011 W. Sunset Blvd. Los Angeles, \",\"formattedAddress\":\"2011 Sunset Blvd, Los Angeles, CA 90026, USA\",\"lat\":34.07817,\"lng\":-118.262319,\"zipcode\":\"90026\",\"city\":\"Los Angeles\",\"neighborhood\":\"Echo Park\"},{\"location\":\"The Reef\",\"address\":\"1933 S. Broadway Ave. Los Angeles, Downtown / LA Metro 90007\",\"formattedAddress\":\"1933 S Broadway Suite 6, Los Angeles, CA 90007, USA\",\"lat\":34.0312543,\"lng\":-118.2665804,\"zipcode\":\"90007\",\"city\":\"Los Angeles\",\"neighborhood\":\"South Los Angeles\"},{\"location\":\"Forest Lawn Memorial Park\",\"address\":\"1712 S. Glendale Ave. Glendale, \",\"formattedAddress\":\"1712 S Glendale Ave, Glendale, CA 91205, USA\",\"neighborhood\":\"Adams Hill\",\"lat\":34.1247166,\"lng\":-118.2515038,\"zipcode\":\"91205\"},{\"location\":\"Wanderlust Hollywood\",\"address\":\"1357 Highland Avenue Los Angeles \",\"formattedAddress\":\"1357 Highland Ave, Los Angeles, CA 90028, USA\",\"lat\":34.0960277,\"lng\":-118.3390188,\"zipcode\":\"90028\",\"city\":\"Los Angeles\",\"neighborhood\":\"Hollywood\"},{\"location\":\"Los Angeles Memorial Coliseum\",\"address\":\"3911 S. Figueroa St., Los Angeles 90037, us\",\"formattedAddress\":\"3911 S Figueroa St, Los Angeles, CA 90037, USA\",\"neighborhood\":\"South Los Angeles\",\"lat\":34.0128805,\"lng\":-118.2827671,\"zipcode\":\"90037\"},{\"location\":\"The Colburn School of Music, Zipper Concert Hall\",\"address\":\"200 S. Grand Ave. Los Angeles, \",\"formattedAddress\":\"200 S Grand Ave, Los Angeles, CA 90012, USA\",\"lat\":34.0540038,\"lng\":-118.2498686,\"zipcode\":\"90012\",\"city\":\"Los Angeles\",\"neighborhood\":\"Downtown\"},{\"location\":\"Rolling Hills United Methodist Church\",\"address\":\"26438 Crenshaw Blvd. Palos Verdes Peninsula, \",\"formattedAddress\":\"26438 Crenshaw Blvd, Rolling Hills, CA 90274, USA\",\"lat\":33.783095,\"lng\":-118.350654,\"zipcode\":\"90274\",\"city\":\"Rolling Hills\"},{\"location\":\"James R. Armstrong Theatre\",\"address\":\"3330 Civic Center Dr. Torrance, \",\"formattedAddress\":\"3330 Civic Center Dr, Torrance, CA 90503, USA\",\"neighborhood\":null,\"lat\":33.8393642,\"lng\":-118.3434411,\"zipcode\":\"90503\"},{\"location\":\"The OffBeat\",\"address\":\"6316 York Blvd. Highland Park, \",\"formattedAddress\":\"6316 York Blvd, Los Angeles, CA 90042, USA\",\"lat\":34.1143812,\"lng\":-118.1821261,\"zipcode\":\"90042\",\"city\":\"Los Angeles\",\"neighborhood\":\"Northeast Los Angeles\"},{\"location\":\"Rogue Machine Theatre\",\"address\":\"1089 N. Oxford Ave. Los Angeles, \",\"formattedAddress\":\"1089 N Oxford Ave, Los Angeles, CA 90029, USA\",\"neighborhood\":\"Hollywood\",\"lat\":34.0905481,\"lng\":-118.3079128,\"zipcode\":\"90029\"},{\"location\":\"UCLA Meteorite Gallery\",\"address\":\"595 Charles Young Drive East, Geology 3697 Los Angeles, \"},{\"location\":\"Melrose Trading Post\",\"address\":\"7850 Melrose Ave. Los Angeles, \",\"formattedAddress\":\"7850 Melrose Ave, Los Angeles, CA 90036, USA\",\"neighborhood\":\"Central LA\",\"lat\":34.0834007,\"lng\":-118.3597341,\"zipcode\":\"90036\"},{\"location\":\"GTC Burbank\",\"address\":\"1111-B W. Olive Ave. Burbank, \",\"formattedAddress\":\"1111 W Olive Ave, Burbank, CA 91506, USA\",\"neighborhood\":null,\"lat\":34.1721349,\"lng\":-118.3185346,\"zipcode\":\"91506\"},{\"location\":\"Twelve Two One Lounge\",\"address\":\"1221 N. San Fernando Rd. Burbank, \",\"formattedAddress\":\"1221 N San Fernando Blvd, Burbank, CA 91504, USA\",\"neighborhood\":null,\"lat\":34.1890189,\"lng\":-118.3203307,\"zipcode\":\"91504\"},{\"location\":\"Drake Stadium\",\"address\":\"340 Charles E. Young Drive North Los Angeles, \",\"formattedAddress\":\"340 Charles E Young Dr N, Los Angeles, CA 90024, USA\",\"lat\":34.0754045,\"lng\":-118.4444107,\"zipcode\":\"90024\",\"city\":\"Los Angeles\",\"neighborhood\":\"Westwood\"},{\"location\":\"Shomrei Torah Synagogue\",\"address\":\"7353 Valley Circle Blvd. West Hills, \",\"formattedAddress\":\"7353 Valley Cir Blvd, West Hills, CA 91304, USA\",\"lat\":34.2061873,\"lng\":-118.6544053,\"zipcode\":\"91304\",\"city\":\"Los Angeles\",\"neighborhood\":\"West Hills\"},{\"location\":\"Little Joy Cocktail Lounge\",\"address\":\"1477 Sunset Blvd. Los Angeles, \",\"formattedAddress\":\"1477 Sunset Blvd, Los Angeles, CA 90026, USA\",\"neighborhood\":\"Echo Park\",\"lat\":34.0758033,\"lng\":-118.254352,\"zipcode\":\"90026\"},{\"location\":\"Placerita Canon Nature Center Annual Holiday Craft Fair\",\"address\":\"19152 Placerita Canyon Rd. Newhall, \",\"formattedAddress\":\"19152 Placerita Canyon Rd, Newhall, CA 91321, USA\",\"neighborhood\":\"Newhall\",\"lat\":34.3773744,\"lng\":-118.4701246,\"zipcode\":\"91321\"},{\"location\":\"Veterans Memorial Building\",\"address\":\"4117 Overland Ave. Culver City, \",\"formattedAddress\":\"4117 Overland Ave, Culver City, CA 90230, USA\",\"neighborhood\":\"Park West\",\"lat\":34.012953,\"lng\":-118.4026083,\"zipcode\":\"90230\"},{\"location\":\"The New Townhouse\",\"address\":\"6835 La Tijera Blvd. Los Angeles, \",\"formattedAddress\":\"6835 La Tijera Blvd, Los Angeles, CA 90045, USA\",\"lat\":33.9768124,\"lng\":-118.3732336,\"zipcode\":\"90045\",\"city\":\"Los Angeles\"},{\"location\":\"Aquarium of the Pacific\",\"address\":\"100 Aquarium Way Long Beach, \",\"formattedAddress\":\"100 Aquarium Way, Long Beach, CA 90802, USA\",\"neighborhood\":\"Waterfront\",\"lat\":33.7621452,\"lng\":-118.1969144,\"zipcode\":\"90802\"},{\"location\":\"Huntington Library, Art Collections and Botanical Gardens\",\"address\":\"1151 Oxford Rd. San Marino, \",\"formattedAddress\":\"1151 Oxford Rd, San Marino, CA 91108, USA\",\"neighborhood\":null,\"lat\":34.1278618,\"lng\":-118.1094516,\"zipcode\":\"91108\"},{\"location\":\"Eric Buterbaugh Gallery\",\"address\":\"8271 Beverly Blvd Los Angeles, California 90048 323-651-9844\",\"formattedAddress\":\"8271 Beverly Blvd, Los Angeles, CA 90048, USA\",\"neighborhood\":\"Beverly Grove\",\"lat\":34.0763457,\"lng\":-118.3697214,\"zipcode\":\"90048\"},{\"location\":\"Vespaio\",\"address\":\"225 S Grand Ave Los Angeles, \",\"formattedAddress\":\"225 S Grand Ave, Los Angeles, CA 90012, USA\",\"neighborhood\":\"Downtown\",\"lat\":34.054058,\"lng\":-118.251161,\"zipcode\":\"90012\"},{\"location\":\"The Theatre at Ace Hotel\",\"address\":\"929 S. Broadway Los Angeles, \",\"formattedAddress\":\"929 S Broadway, Los Angeles, CA 90015, USA\",\"neighborhood\":\"Downtown\",\"lat\":34.0418769,\"lng\":-118.2570341,\"zipcode\":\"90015\"},{\"location\":\"The Comedy Store\",\"address\":\"8433 W. Sunset Blvd. Los Angeles, \",\"formattedAddress\":\"8433 Sunset Blvd, West Hollywood, CA 90069, USA\",\"neighborhood\":\"Sunset Strip\",\"lat\":34.095169,\"lng\":-118.3740423,\"zipcode\":\"90069\"},{\"location\":\"Westfield Valencia Town Center\",\"address\":\"24201 Valencia Blvd. Valencia, \",\"formattedAddress\":\"24201 Valencia Blvd, Valencia, CA 91355, USA\",\"neighborhood\":\"Valencia\",\"lat\":34.4176299,\"lng\":-118.5608039,\"zipcode\":\"91355\"},{\"location\":\"Sol Venue\",\"address\":\"313 E. Carson St. Carson, \",\"formattedAddress\":\"313 E Carson St, Carson, CA 90745, USA\",\"neighborhood\":null,\"lat\":33.8318947,\"lng\":-118.2717347,\"zipcode\":\"90745\"},{\"location\":\"John Wooden Center\",\"address\":\"221 Westwood Plaza Los Angeles, \",\"formattedAddress\":\"221 Westwood Plaza, Los Angeles, CA 90077, USA\",\"neighborhood\":\"Westwood\",\"lat\":34.071726,\"lng\":-118.445317,\"zipcode\":\"90077\"},{\"location\":\"MODA Hollywood, Museum of Digital Art\",\"address\":\"7190 Sunset Blvd. Los Angeles, \",\"formattedAddress\":\"7190 Sunset Blvd, Los Angeles, CA 90046, USA\",\"neighborhood\":\"Central LA\",\"lat\":34.0977169,\"lng\":-118.3468353,\"zipcode\":\"90046\"},{\"location\":\"The Airliner\",\"address\":\"2419 N. Broadway Los Angeles, \",\"formattedAddress\":\"2419 N Broadway, Los Angeles, CA 90031, USA\",\"neighborhood\":\"Montecito Heights\",\"lat\":34.0738696,\"lng\":-118.2162469,\"zipcode\":\"90031\"},{\"location\":\"Hollywood Playhouse at the Zephyr Theatre\",\"address\":\"7456 Melrose Ave Los Angeles, \",\"formattedAddress\":\"7456 Melrose Ave, West Hollywood, CA 90046, USA\",\"neighborhood\":\"Central LA\",\"lat\":34.0833229,\"lng\":-118.3525757,\"zipcode\":\"90046\"},{\"location\":\"The Attic\",\"address\":\"14633 Ventura Blvd. Sherman Oaks, California 91403 818-485-2200\",\"formattedAddress\":\"14633 Ventura Blvd, Sherman Oaks, CA 91403, USA\",\"neighborhood\":\"Sherman Oaks\",\"lat\":34.1514925,\"lng\":-118.4521178,\"zipcode\":\"91403\"},{\"location\":\"Staples Center\",\"address\":\"1111 S. Figueroa St. Los Angeles, \",\"formattedAddress\":\"1111 S Figueroa St, Los Angeles, CA 90015, USA\",\"neighborhood\":\"Downtown\",\"lat\":34.043125,\"lng\":-118.267118,\"zipcode\":\"90015\"},{\"location\":\"Il Piccolo Verde\",\"address\":\"140 S. Barrington Pl. Los Angeles, \",\"formattedAddress\":\"140 S Barrington Pl, Los Angeles, CA 90049, USA\",\"neighborhood\":null,\"lat\":34.0662676,\"lng\":-118.4688297,\"zipcode\":\"90049\"},{\"location\":\"The Three Clubs\",\"address\":\"1123 Vine St Hollywood, \",\"formattedAddress\":\"1123 Vine St, Los Angeles, CA 90038, USA\",\"neighborhood\":\"Central LA\",\"lat\":34.0914653,\"lng\":-118.3271185,\"zipcode\":\"90038\"},{\"location\":\"Spaghettini Seal Beach\",\"address\":\"3005 Old Ranch Parkway Seal Beach, \",\"formattedAddress\":\"3005 Old Ranch Pkwy, Seal Beach, CA 90740, USA\",\"neighborhood\":null,\"lat\":33.7765033,\"lng\":-118.0736813,\"zipcode\":\"90740\"},{\"location\":\"Celebration Theatre\",\"address\":\"6760 Lexington Ave. Los Angeles, \",\"formattedAddress\":\"6760 Lexington Ave, Los Angeles, CA 90038, USA\",\"neighborhood\":\"Central LA\",\"lat\":34.092476,\"lng\":-118.3377019,\"zipcode\":\"90038\"},{\"location\":\"Rockwell Table & Stage\",\"address\":\"1714 N. Vermont Ave. Los Angeles, \",\"formattedAddress\":\"1714 N Vermont Ave, Los Angeles, CA 90027, USA\",\"neighborhood\":\"Los Feliz\",\"lat\":34.1022191,\"lng\":-118.291396,\"zipcode\":\"90027\"},{\"location\":\"California Plaza\",\"address\":\"350 S. Grand Ave. Los Angeles, \",\"formattedAddress\":\"350 S Grand Ave, Los Angeles, CA 90003, USA\",\"neighborhood\":\"South Los Angeles\",\"lat\":33.9705046,\"lng\":-118.2801398,\"zipcode\":\"90003\"},{\"location\":\"Highways Performance Space\",\"address\":\"1651 18th St. Santa Monica \",\"formattedAddress\":\"1651 18th St, Santa Monica, CA 90404, USA\",\"neighborhood\":null,\"lat\":34.0236722,\"lng\":-118.4772538,\"zipcode\":\"90404\"},{\"location\":\"L.A. Workers Center\",\"address\":\"1251 S. St. Andrews Place, Los Angeles, \",\"formattedAddress\":\"1251 S St Andrews Pl, Los Angeles, CA 90019, USA\",\"neighborhood\":\"Central LA\",\"lat\":34.0475834,\"lng\":-118.3120182,\"zipcode\":\"90019\"},{\"location\":\"Tia Chucha's Centro Cultural & Bookstore\",\"address\":\"13197-A Gladstone Ave. Sylmar, \",\"formattedAddress\":\"13197 Gladstone Ave, Sylmar, CA 91342, USA\",\"neighborhood\":\"Sylmar\",\"lat\":34.310469,\"lng\":-118.4282789,\"zipcode\":\"91342\"},{\"location\":\"Alex Theatre\",\"address\":\"216 N. Brand Blvd. Glendale, \",\"formattedAddress\":\"216 N Brand Blvd, Glendale, CA 91203, USA\",\"neighborhood\":\"Downtown\",\"lat\":34.1488644,\"lng\":-118.2548412,\"zipcode\":\"91203\"},{\"location\":\"Union Station\",\"address\":\"800 N. Alameda St. Los Angeles, \",\"formattedAddress\":\"800 North Alameda Street, Los Angeles, CA 90012, USA\",\"lat\":34.0561193,\"lng\":-118.2375219,\"zipcode\":\"90012\",\"city\":\"Los Angeles\",\"neighborhood\":\"Central LA\"},{\"location\":\"Brand Library & Art Center\",\"address\":\"1601 W. Mountain St. Glendale, \",\"formattedAddress\":\"1601 W Mountain St, Glendale, CA 91201, USA\",\"neighborhood\":\"Verdugo Mountains\",\"lat\":34.1826353,\"lng\":-118.2764402,\"zipcode\":\"91201\"},{\"location\":\"National Orange Show Events Center\",\"address\":\"689 S. \\\"E\\\" St. San Bernardino, \",\"formattedAddress\":\"689 S E St, San Bernardino, CA 92408, USA\",\"neighborhood\":\"Show Place\",\"lat\":34.088185,\"lng\":-117.2920614,\"zipcode\":\"92408\"},{\"location\":\"Pershing Square\",\"address\":\"532 S. Olive St. Los Angeles, \",\"formattedAddress\":\"532 S Olive St, Los Angeles, CA 90013, USA\",\"lat\":34.0485099,\"lng\":-118.2532776,\"zipcode\":\"90013\",\"city\":\"Los Angeles\",\"neighborhood\":\"Downtown\"},{\"location\":\"The Orpheum Theatre\",\"address\":\"842 S. Broadway Los Angeles, \",\"formattedAddress\":\"842 S Broadway, Los Angeles, CA 90014, USA\",\"neighborhood\":\"Downtown\",\"lat\":34.0426926,\"lng\":-118.2552867,\"zipcode\":\"90014\"},{\"location\":\"Grand Annex\",\"address\":\"434 W 6th St, San Pedro, \",\"formattedAddress\":\"434 W 6th St, San Pedro, CA 90731, USA\",\"neighborhood\":\"San Pedro\",\"lat\":33.7390242,\"lng\":-118.2865292,\"zipcode\":\"90731\"},{\"location\":\"Alvas Showroom\",\"address\":\"1417 West 8th Street San Pedro \",\"formattedAddress\":\"1417 W 8th St, San Pedro, CA 90732, USA\",\"lat\":33.7368203,\"lng\":-118.308436,\"zipcode\":\"90732\",\"city\":\"Los Angeles\",\"neighborhood\":\"San Pedro\"},{\"location\":\"StubHub Center\",\"address\":\"18400 S. Avalon Blvd., Carson, CA, us\",\"formattedAddress\":\"18400 S Avalon Blvd, Carson, CA 90746, USA\",\"neighborhood\":null,\"lat\":33.8639438,\"lng\":-118.2660058,\"zipcode\":\"90746\"},{\"location\":\"Largo at the Coronet\",\"address\":\"366 N. La Cienega Blvd. Los Angeles, \",\"formattedAddress\":\"366 N La Cienega Blvd, Los Angeles, CA 90048, USA\",\"neighborhood\":\"Central LA\",\"lat\":34.0778713,\"lng\":-118.3763218,\"zipcode\":\"90048\"},{\"location\":\"Gender Free Arts\",\"address\":\"1732 Aviation Blvd. Redondo Beach, \",\"formattedAddress\":\"1732 Aviation Blvd, Redondo Beach, CA 90278, USA\",\"lat\":33.8716714,\"lng\":-118.3812209,\"zipcode\":\"90278\",\"city\":\"Redondo Beach\",\"neighborhood\":\"North Redondo\"},{\"location\":\"The Granada LA\",\"address\":\"17 S. First St. Alhambra, \",\"formattedAddress\":\"17 S 1st St, Alhambra, CA 91801, USA\",\"neighborhood\":null,\"lat\":34.0940231,\"lng\":-118.1276389,\"zipcode\":\"91801\"},{\"location\":\"Palm Tree L.A.\",\"address\":\"3240 Wilshire Blvd. Los Angeles, \",\"formattedAddress\":\"3240 Wilshire Blvd, Los Angeles, CA 90010, USA\",\"neighborhood\":\"Koreatown\",\"lat\":34.0614383,\"lng\":-118.2925458,\"zipcode\":\"90010\"},{\"location\":\"Good Shepherd School\",\"address\":\"6338 N Figueroa St. Los Angeles, \",\"formattedAddress\":\"6338 N Figueroa St, Los Angeles, CA 90042, USA\",\"neighborhood\":\"Northeast Los Angeles\",\"lat\":34.11658200000001,\"lng\":-118.182717,\"zipcode\":\"90042\"},{\"location\":\"The Lincoln\",\"address\":\"2536 Lincoln Blvd Venice, \",\"formattedAddress\":\"2536 Lincoln Blvd, Venice, CA 90291, USA\",\"lat\":33.9915689,\"lng\":-118.4483632,\"zipcode\":\"90291\",\"city\":\"Los Angeles\",\"neighborhood\":\"Venice\"},{\"location\":\"Klat Cafe\",\"address\":\"621 S. Western Ave. #101 Los Angeles, \",\"formattedAddress\":\"621 S Western Ave #101, Los Angeles, CA 90005, USA\",\"neighborhood\":\"Wilshire Center\",\"lat\":34.0626976,\"lng\":-118.3096133,\"zipcode\":\"90005\"},{\"location\":\"Sassafras Saloon\",\"address\":\"1233 Vine St. Los Angeles, \",\"formattedAddress\":\"1233 Vine St, Los Angeles, CA 90038, USA\",\"neighborhood\":\"Hollywood\",\"lat\":34.0935264,\"lng\":-118.3272668,\"zipcode\":\"90038\"},{\"location\":\"Milkmade\",\"address\":\"1413 Abbot Kinney Blvd. Venice, \",\"formattedAddress\":\"1413 Abbot Kinney Blvd, Venice, CA 90291, USA\",\"neighborhood\":\"Venice\",\"lat\":33.99070450000001,\"lng\":-118.4655091,\"zipcode\":\"90291\"},{\"location\":\"Rafa's Lounge\",\"address\":\"1836 W. Sunset Blvd. Los Angeles, \",\"formattedAddress\":\"1836 Sunset Blvd, Los Angeles, CA 90026, USA\",\"neighborhood\":\"Echo Park\",\"lat\":34.0778325,\"lng\":-118.2603935,\"zipcode\":\"90026\"},{\"location\":\"Pauley Pavilion\",\"address\":\"301 Westwood Plaza, Los Angeles, \",\"formattedAddress\":\"301 Westwood Plaza, Los Angeles, CA 90095, USA\",\"neighborhood\":\"Westwood\",\"lat\":34.0702949,\"lng\":-118.4467667,\"zipcode\":\"90095\"},{\"location\":\"The Little Easy\",\"address\":\"216 W. Fifth St. Los Angeles, \",\"formattedAddress\":\"216 W 5th St, Los Angeles, CA 90013, USA\",\"neighborhood\":\"Downtown\",\"lat\":34.0475465,\"lng\":-118.2502559,\"zipcode\":\"90013\"},{\"location\":\"Shrine Auditorium & Expo Hall\",\"address\":\"665 W. Jefferson Blvd. Los Angeles, \",\"formattedAddress\":\"665 W Jefferson Blvd, Los Angeles, CA 90007, USA\",\"neighborhood\":\"South Los Angeles\",\"lat\":34.0236612,\"lng\":-118.2812202,\"zipcode\":\"90007\"},{\"location\":\"Art Share L.A.\",\"address\":\"801 E 4th Pl., Los Angeles 90013, us\",\"formattedAddress\":\"801 E 4th Pl, Los Angeles, CA 90013, USA\",\"neighborhood\":\"Downtown\",\"lat\":34.0445952,\"lng\":-118.2364072,\"zipcode\":\"90013\"},{\"location\":\"One Roof\",\"address\":\"1333 6th Ave Venice Ave, \",\"formattedAddress\":\"California WB & 6th Ave (Venice) NS, Los Angeles, CA 90291, USA\",\"neighborhood\":\"Venice\",\"lat\":33.991424,\"lng\":-118.465568,\"zipcode\":\"90291\"},{\"location\":\"Griffins of Kinsale\",\"address\":\"1007 Mission St. South Pasadena, CA 626-799-0926\",\"formattedAddress\":\"1007 Mission St, South Pasadena, CA 91030, USA\",\"neighborhood\":null,\"lat\":34.1155694,\"lng\":-118.1568061,\"zipcode\":\"91030\"},{\"location\":\"KM Fine Arts\",\"address\":\"814 N. La Cienega Blvd. Los Angeles, \",\"formattedAddress\":\"814 N La Cienega Blvd, Los Angeles, CA 90069, USA\",\"neighborhood\":\"Central LA\",\"lat\":34.0858048,\"lng\":-118.3761705,\"zipcode\":\"90069\"},{\"location\":\"Hammer Museum\",\"address\":\"10899 Wilshire Blvd, Los Angeles, \",\"formattedAddress\":\"10899 Wilshire Blvd, Los Angeles, CA 90024, USA\",\"neighborhood\":\"Westwood\",\"lat\":34.0591217,\"lng\":-118.4436674,\"zipcode\":\"90024\"},{\"location\":\"Ann & Jerry Moss Theater, New Roads School\",\"address\":\"3131 Olympic Blvd. Santa Monica, \",\"formattedAddress\":\"3131 Olympic Blvd, Santa Monica, CA 90404, USA\",\"lat\":34.0312851,\"lng\":-118.4612321,\"zipcode\":\"90404\",\"city\":\"Santa Monica\"},{\"location\":\"Que Sera\",\"address\":\"1923 E. Seventh St. Long Beach, \",\"formattedAddress\":\"1923 E 7th St, Long Beach, CA 90813, USA\",\"lat\":33.77560250000001,\"lng\":-118.168074,\"zipcode\":\"90813\",\"city\":\"Long Beach\",\"neighborhood\":\"Hellman Street\"},{\"location\":\"The TAPPAN Atelier\",\"address\":\"1008 Maple Ave. Los Angeles, \",\"formattedAddress\":\"1008 Maple Ave, Los Angeles, CA 90015, USA\",\"lat\":34.037774,\"lng\":-118.254117,\"zipcode\":\"90015\",\"city\":\"Los Angeles\",\"neighborhood\":\"Central LA\"},{\"location\":\"Regal Inn\",\"address\":\"6753 E. Carson St. Lakewood, \",\"formattedAddress\":\"6753 E Carson St, Lakewood, CA 90713, USA\",\"lat\":33.832746,\"lng\":-118.099656,\"zipcode\":\"90713\",\"city\":\"Lakewood\"},{\"location\":\"Walt Disney Concert Hall\",\"address\":\"111 S. Grand Ave. Los Angeles, \",\"formattedAddress\":\"111 S Grand Ave, Los Angeles, CA 90012, USA\",\"neighborhood\":\"Downtown\",\"lat\":34.0553871,\"lng\":-118.2498281,\"zipcode\":\"90012\"},{\"location\":\"Glendale Civic Auditorium\",\"address\":\"1401 N. Verdugo Rd. Glendale, \",\"formattedAddress\":\"1401 N Verdugo Rd, Glendale, CA 91208, USA\",\"neighborhood\":\"Greenbriar\",\"lat\":34.1664413,\"lng\":-118.2316706,\"zipcode\":\"91208\"},{\"location\":\"California Institute of Abnormal Arts (C.I.A.)\",\"address\":\"11334 Burbank Blvd. North Hollywood, \",\"formattedAddress\":\"11334 Burbank Blvd, North Hollywood, CA 91601, USA\",\"neighborhood\":\"North Hollywood\",\"lat\":34.1719873,\"lng\":-118.3774298,\"zipcode\":\"91601\"},{\"location\":\"UCLA, Royce Hall\",\"address\":\"340 Royce Dr. Westwood, \",\"formattedAddress\":\"340 Royce Dr, Los Angeles, CA 90095, USA\",\"neighborhood\":\"Westwood\",\"lat\":34.0728242,\"lng\":-118.4421682,\"zipcode\":\"90095\"},{\"location\":\"Pierce College, Parking Lot 7\",\"address\":\"Victory Boulevard at Mason Ave. Woodland Hills, California 91306 310-422-1844\",\"formattedAddress\":\"Victory Blvd & Mason Ave, Winnetka, CA 91306, USA\",\"neighborhood\":\"Winnetka\",\"lat\":34.1884094,\"lng\":-118.5797186,\"zipcode\":\"91306\"},{\"location\":\"Lewis Family Playhouse\",\"address\":\"12505 Cultural Center Dr. Rancho Cucamonga, \",\"formattedAddress\":\"12505 Cultural Center Dr, Rancho Cucamonga, CA 91739, USA\",\"neighborhood\":null,\"lat\":34.112922,\"lng\":-117.532576,\"zipcode\":\"91739\"},{\"location\":\"The Cowboy Palace Saloon\",\"address\":\"21635 Devonshire St. Chatsworth, \",\"formattedAddress\":\"21635 Devonshire St, Chatsworth, CA 91311, USA\",\"lat\":34.2574868,\"lng\":-118.6014886,\"zipcode\":\"91311\",\"city\":\"Los Angeles\",\"neighborhood\":\"Chatsworth\"},{\"location\":\"Oeno Vino Wine Shop & Bar\",\"address\":\"3111 Glendale Blvd. #2 Los Angeles (Atwater Village), \",\"formattedAddress\":\"3111 Glendale Blvd #2, Los Angeles, CA 90039, USA\",\"lat\":34.1162782,\"lng\":-118.2628216,\"zipcode\":\"90039\",\"city\":\"Los Angeles\",\"neighborhood\":\"Northeast Los Angeles\"},{\"location\":\"Zan Beer\",\"address\":\"3377 Wilshire Blvd., #200 Los Angeles, \",\"formattedAddress\":\"3377 Wilshire Blvd #200, Los Angeles, CA 90010, USA\",\"neighborhood\":\"Koreatown\",\"lat\":34.0622606,\"lng\":-118.2975594,\"zipcode\":\"90010\"},{\"location\":\"Club Fais Do-Do\",\"address\":\"5257 W. Adams Blvd. Los Angeles, \",\"formattedAddress\":\"5257 W Adams Blvd, Los Angeles, CA 90016, USA\",\"neighborhood\":null,\"lat\":34.0327355,\"lng\":-118.3571064,\"zipcode\":\"90016\"},{\"location\":\"The Mayan\",\"address\":\"1038 S. Hill St. Los Angeles, \",\"formattedAddress\":\"1038 Hill St, Los Angeles, CA 90015, USA\",\"lat\":34.0405255,\"lng\":-118.2591274,\"zipcode\":\"90015\",\"city\":\"Los Angeles\",\"neighborhood\":\"Downtown\"},{\"location\":\"Los Angeles Athletic Club\",\"address\":\"431 W. Seventh St. Los Angeles, \",\"formattedAddress\":\"431 W 7th St, Los Angeles, CA 90014, USA\",\"neighborhood\":\"Central LA\",\"lat\":34.0465967,\"lng\":-118.2550311,\"zipcode\":\"90014\"},{\"location\":\"Hollywood Forever Cemetery\",\"address\":\"6000 Santa Monica Blvd. Los Angeles, \",\"formattedAddress\":\"6000 Santa Monica Blvd, Los Angeles, CA 90038, USA\",\"neighborhood\":\"Hollywood\",\"lat\":34.0904912,\"lng\":-118.3198111,\"zipcode\":\"90038\"},{\"location\":\"Los Angeles State Historic Park\",\"address\":\"1245 N Spring St Los Angeles CA\",\"formattedAddress\":\"1245 N Spring St, Los Angeles, CA 90012, USA\",\"lat\":34.0661743,\"lng\":-118.2342881,\"zipcode\":\"90012\",\"city\":\"Los Angeles\",\"neighborhood\":\"Central LA\"},{\"location\":\"Immanuel Presbyterian Church\",\"address\":\"3300 Wilshire Blvd. Los Angeles, \",\"formattedAddress\":\"3300 Wilshire Blvd, Los Angeles, CA 90010, USA\",\"lat\":34.0614542,\"lng\":-118.294485,\"zipcode\":\"90010\",\"city\":\"Los Angeles\",\"neighborhood\":\"Koreatown\"},{\"location\":\"The Second Stage at Sacred Fools Theatre\",\"address\":\"6320 Santa Monica Blvd., Hollywood, CA Hollywood \",\"formattedAddress\":\"6320 Santa Monica Blvd, Los Angeles, CA 90038, USA\",\"neighborhood\":\"Hollywood\",\"lat\":34.0905418,\"lng\":-118.3276065,\"zipcode\":\"90038\"},{\"location\":\"Warner Center Park\",\"address\":\"5800 Topanga Canyon Blvd. Woodland Hills, \",\"formattedAddress\":\"5800 Topanga Canyon Blvd, Woodland Hills, CA 91367, USA\",\"lat\":34.1753396,\"lng\":-118.6057517,\"zipcode\":\"91367\",\"city\":\"Los Angeles\",\"neighborhood\":\"Woodland Hills\"},{\"location\":\"GRAMMY Museum\",\"address\":\"A245, 800 West Olympic Boulevard Los Angeles CA\",\"formattedAddress\":\"800 W Olympic Blvd, Los Angeles, CA 90015, USA\",\"neighborhood\":\"Downtown\",\"lat\":34.0449376,\"lng\":-118.2654979,\"zipcode\":\"90015\"},{\"location\":\"Santa Anita Park\",\"address\":\"285 W. Huntington Dr. Arcadia, \",\"formattedAddress\":\"285 W Huntington Dr, Arcadia, CA 91007, USA\",\"lat\":34.1365782,\"lng\":-118.0408645,\"zipcode\":\"91007\",\"city\":\"Arcadia\"},{\"location\":\"Abbot Kinney Blvd.\",\"address\":\"Abbot Kinney Blvd. and California St. Los Angeles CA\",\"formattedAddress\":\"Abbot Kinney Blvd & California Ave, Venice, CA 90291, USA\",\"lat\":33.9906424,\"lng\":-118.4659828,\"zipcode\":\"90291\",\"city\":\"Los Angeles\",\"neighborhood\":\"Venice\"},{\"location\":\"Book Soup\",\"address\":\"8818 Sunset Boulevard, \",\"formattedAddress\":\"8818 Sunset Blvd, West Hollywood, CA 90069, USA\",\"neighborhood\":\"Norma Triangle\",\"lat\":34.0904056,\"lng\":-118.38372,\"zipcode\":\"90069\"},{\"location\":\"First Fridays Long Beach Art Walk\",\"address\":\"4313 Atlantic Avenue Long Beach \",\"formattedAddress\":\"4313 Atlantic Ave, Long Beach, CA 90807, USA\",\"lat\":33.8347837,\"lng\":-118.1852911,\"zipcode\":\"90807\",\"city\":\"Long Beach\",\"neighborhood\":\"Bixby Knolls\"},{\"location\":\"Grand Park\",\"address\":\"200 N. Grand Ave. Los Angeles, \",\"formattedAddress\":\"200 N Grand Ave, Los Angeles, CA 90012, USA\",\"lat\":34.0562797,\"lng\":-118.2467434,\"zipcode\":\"90012\",\"city\":\"Los Angeles\",\"neighborhood\":\"Central LA\"},{\"location\":\"Escape Room LA\",\"address\":\"120 E. 8th St Los Angeles, \",\"formattedAddress\":\"120 E 8th St, Los Angeles, CA 90014, USA\",\"neighborhood\":\"Downtown\",\"lat\":34.0420721,\"lng\":-118.2528292,\"zipcode\":\"90014\"},{\"location\":\"LA Plaza de Cultura y Artes\",\"address\":\"501 N. Main St. Los Angeles, \",\"formattedAddress\":\"501 N Main St, Los Angeles, CA 90012, USA\",\"lat\":34.0564554,\"lng\":-118.2398448,\"zipcode\":\"90012\",\"city\":\"Los Angeles\",\"neighborhood\":\"Central LA\"},{\"location\":\"Melrose Trading Post\",\"address\":\"7850 Melrose Ave. Los Angeles, \",\"formattedAddress\":\"7850 Melrose Ave, Los Angeles, CA 90036, USA\",\"neighborhood\":\"Central LA\",\"lat\":34.0834007,\"lng\":-118.3597341,\"zipcode\":\"90036\"},{\"location\":\"Theatricum Botanicum\",\"address\":\"1419 N. Topanga Cyn Blvd. Topanga \",\"formattedAddress\":\"1419 N Topanga Canyon Blvd, Topanga, CA 90290, USA\",\"lat\":34.1108513,\"lng\":-118.5928551,\"zipcode\":\"90290\",\"city\":\"Topanga\"},{\"location\":\"LAND\",\"address\":\"6775 California Route 2 Los Angeles \",\"formattedAddress\":\"6775 California Route 2, Los Angeles, CA 90038, USA\",\"lat\":34.091071,\"lng\":-118.3382475,\"zipcode\":\"90038\",\"city\":\"Los Angeles\",\"neighborhood\":\"Hollywood\"},{\"location\":\"Chinese American Museum\",\"address\":\"425 N. Los Angeles St. Los Angeles, \",\"formattedAddress\":\"425 N Los Angeles St, Los Angeles, CA 90012, USA\",\"neighborhood\":\"Central LA\",\"lat\":34.0558393,\"lng\":-118.23909,\"zipcode\":\"90012\"},{\"location\":\"Edgemar Center for the Arts\",\"address\":\"2437 Main St. Santa Monica, \",\"formattedAddress\":\"2437 Main St, Santa Monica, CA 90405, USA\",\"neighborhood\":\"Ocean Park\",\"lat\":34.0035616,\"lng\":-118.4847408,\"zipcode\":\"90405\"},{\"location\":\"The Gilb Museum of Arcadia Heritage\",\"address\":\"380 West Huntington Drive, Arcadia 91007, us\",\"formattedAddress\":\"380 W Huntington Dr, Arcadia, CA 91007, USA\",\"neighborhood\":null,\"lat\":34.1318927,\"lng\":-118.0429425,\"zipcode\":\"91007\"},{\"location\":\"Center for Land Use Interpretation\",\"address\":\"9331 Venice Blvd. Culver City, \",\"formattedAddress\":\"9331 Venice Blvd, Culver City, CA 90232, USA\",\"neighborhood\":\"Palms\",\"lat\":34.0259925,\"lng\":-118.3948444,\"zipcode\":\"90232\"},{\"location\":\"Santa Monica Playhouse\",\"address\":\"1211 4th St Santa Monica CA\",\"formattedAddress\":\"1211 4th St, Santa Monica, CA 90401, USA\",\"lat\":34.0189556,\"lng\":-118.4977074,\"zipcode\":\"90401\",\"city\":\"Santa Monica\",\"neighborhood\":\"Downtown\"},{\"location\":\"Tagalog Kids Main Office\",\"address\":\"626 Milan Ave,South Pasadena,CA South Pasadena \",\"formattedAddress\":\"626 Milan Ave, South Pasadena, CA 91030, USA\",\"lat\":34.117902,\"lng\":-118.14383,\"zipcode\":\"91030\",\"city\":\"South Pasadena\"},{\"location\":\"Quest Learning Center\",\"address\":\"11976 Artesia Blvd., Artesia, CA Cerritos \",\"formattedAddress\":\"11976 Artesia Blvd, Artesia, CA 90701, USA\",\"lat\":33.8727865,\"lng\":-118.0771803,\"zipcode\":\"90701\",\"city\":\"Artesia\"},{\"location\":\"The Lexington\",\"address\":\"129 E. Third St. Los Angeles, \",\"formattedAddress\":\"129 E 3rd St, Los Angeles, CA 90013, USA\",\"lat\":34.0489489,\"lng\":-118.2450565,\"zipcode\":\"90013\",\"city\":\"Los Angeles\",\"neighborhood\":\"Central LA\"},{\"location\":\"Ahmanson Theatre\",\"address\":\"135 N. Grand Ave. Los Angeles, \",\"formattedAddress\":\"135 N Grand Ave, Los Angeles, CA 90012, USA\",\"neighborhood\":\"Downtown\",\"lat\":34.0566067,\"lng\":-118.2489325,\"zipcode\":\"90012\"},{\"location\":\"Little Fish Theatre\",\"address\":\"777 S. Centre St. San Pedro \",\"formattedAddress\":\"777 S Centre St, San Pedro, CA 90731, USA\",\"neighborhood\":\"San Pedro\",\"lat\":33.7372675,\"lng\":-118.2837083,\"zipcode\":\"90731\"},{\"location\":\"International City Theatre  Long Beach Performing Arts Center\",\"address\":\"300 East Ocean Blvd. Long Beach \",\"formattedAddress\":\"300 E Ocean Blvd, Long Beach, CA 90802, USA\",\"lat\":33.76520350000001,\"lng\":-118.1893341,\"zipcode\":\"90802\",\"city\":\"Long Beach\",\"neighborhood\":\"Waterfront\"},{\"location\":\"Los Angeles Zoo & Botanical Gardens\",\"address\":\"5333 Zoo Dr. Los Angeles, \",\"formattedAddress\":\"5333 Zoo Dr, Los Angeles, CA 90027, USA\",\"lat\":34.1490401,\"lng\":-118.2840485,\"zipcode\":\"90027\",\"city\":\"Los Angeles\"},{\"location\":\"Pasadena Museum of California Art\",\"address\":\"490 East Union Street, Pasadena, \",\"formattedAddress\":\"490 E Union St, Pasadena, CA 91101, USA\",\"neighborhood\":null,\"lat\":34.1468743,\"lng\":-118.1401975,\"zipcode\":\"91101\"},{\"location\":\"The Dome Arclight Entertainment Center\",\"address\":\"6360 W. Sunset Blvd. Hollywood, CA Hollywood \",\"formattedAddress\":\"6360 Sunset Blvd, Los Angeles, CA 90028, USA\",\"lat\":34.0973718,\"lng\":-118.3278725,\"zipcode\":\"90028\",\"city\":\"Los Angeles\",\"neighborhood\":\"Hollywood\"},{\"location\":\"Whisky A Go Go\",\"address\":\"8901 sunset blvd, West Hollywood, \",\"formattedAddress\":\"8901 Sunset Blvd, West Hollywood, CA 90069, USA\",\"neighborhood\":\"Sunset Strip\",\"lat\":34.0908403,\"lng\":-118.3857013,\"zipcode\":\"90069\"},{\"location\":\"STAPLES Center\",\"address\":\"1111 S. Figueroa St., Los Angeles, \",\"formattedAddress\":\"1111 S Figueroa St, Los Angeles, CA 90015, USA\",\"neighborhood\":\"Downtown\",\"lat\":34.043125,\"lng\":-118.267118,\"zipcode\":\"90015\"},{\"location\":\"Hollywood Bowl\",\"address\":\"2301 N. Highland Ave. Los Angeles, \",\"formattedAddress\":\"2301 Highland Ave, Los Angeles, CA 90068, USA\",\"lat\":34.1127392,\"lng\":-118.3388562,\"zipcode\":\"90068\",\"city\":\"Los Angeles\",\"neighborhood\":\"Central LA\"},{\"location\":\"The Novo by Microsoft\",\"address\":\"800 W. Olympic Blvd. Los Angeles, \",\"formattedAddress\":\"800 W Olympic Blvd, Los Angeles, CA 90015, USA\",\"neighborhood\":\"Downtown\",\"lat\":34.0449376,\"lng\":-118.2654979,\"zipcode\":\"90015\"},{\"location\":\"Hollywood Pantages Theatre\",\"address\":\"6233 Hollywood Blvd., Los Angeles 90028, us\",\"formattedAddress\":\"6233 Hollywood Blvd, Los Angeles, CA 90028, USA\",\"neighborhood\":\"Hollywood\",\"lat\":34.102001,\"lng\":-118.325867,\"zipcode\":\"90028\"},{\"location\":\"Beverly O'Neill Theater - Long Beach Conv and Entertainment Ctr\",\"address\":\"300 E Ocean BL Long Beach CA\",\"formattedAddress\":\"300 E Ocean Blvd, Long Beach, CA 90802, USA\",\"neighborhood\":\"Waterfront\",\"lat\":33.76520350000001,\"lng\":-118.1893341,\"zipcode\":\"90802\"},{\"location\":\"The Viper Room\",\"address\":\"8852 W. Sunset Blvd. West Hollywood, \",\"formattedAddress\":\"8852 Sunset Blvd, West Hollywood, CA 90069, USA\",\"neighborhood\":\"Norma Triangle\",\"lat\":34.0904329,\"lng\":-118.3850554,\"zipcode\":\"90069\"},{\"location\":\"Saban Theatre\",\"address\":\"8440 W. Wilshire Blvd. Beverly Hills, \",\"formattedAddress\":\"8440 Wilshire Blvd, Beverly Hills, CA 90211, USA\",\"neighborhood\":null,\"lat\":34.0645718,\"lng\":-118.3748496,\"zipcode\":\"90211\"},{\"location\":\"M.i. Westside Comedy Theater\",\"address\":\"1323-A Third St. Promenade (in the alley betw. Third & Fourth Sts. at Arizona Ave.) Santa Monica, \"},{\"location\":\"Teragram Ballroom\",\"address\":\"1234 W. Seventh St., Los Angeles 90017, us\",\"formattedAddress\":\"1234 W 7th St, Los Angeles, CA 90017, USA\",\"neighborhood\":\"Central LA\",\"lat\":34.0518639,\"lng\":-118.2670623,\"zipcode\":\"90017\"},{\"location\":\"The Canyon\",\"address\":\"28912 Roadside Dr., Agoura Hills, \",\"formattedAddress\":\"28912 Roadside Dr, Agoura Hills, CA 91301, USA\",\"neighborhood\":null,\"lat\":34.144004,\"lng\":-118.7551541,\"zipcode\":\"91301\"},{\"location\":\"The Rose\",\"address\":\"245 E. Green St. Pasadena, \",\"formattedAddress\":\"245 E Green St, Pasadena, CA 91101, USA\",\"neighborhood\":null,\"lat\":34.1445579,\"lng\":-118.1450515,\"zipcode\":\"91101\"},{\"location\":\"Hermosa Beach Pier\",\"address\":\"Pier Ave. and Hermosa Ave. Hermosa Beach CA\",\"formattedAddress\":\"Hermosa Ave & Pier Ave, Hermosa Beach, CA 90254, USA\",\"lat\":33.8622063,\"lng\":-118.3999372,\"zipcode\":\"90254\",\"city\":\"Hermosa Beach\"},{\"location\":\"The Good Luck Gallery\",\"address\":\"945 Chung King Rd. Los Angeles, \",\"formattedAddress\":\"945 Chung King Rd, Los Angeles, CA 90012, USA\",\"neighborhood\":\"Central LA\",\"lat\":34.0659286,\"lng\":-118.2385978,\"zipcode\":\"90012\"},{\"location\":\"Los Angeles Memorial Coliseum\",\"address\":\"3911 S. Figueroa St., Los Angeles 90037, us\",\"formattedAddress\":\"3911 S Figueroa St, Los Angeles, CA 90037, USA\",\"neighborhood\":\"South Los Angeles\",\"lat\":34.0128805,\"lng\":-118.2827671,\"zipcode\":\"90037\"},{\"location\":\"Autry Museum at Griffith Park\",\"address\":\"4700 Western Heritage Way Los Angeles \",\"formattedAddress\":\"4700 Western Heritage Way, Los Angeles, CA 90027, USA\",\"lat\":34.1486203,\"lng\":-118.2812131,\"zipcode\":\"90027\",\"city\":\"Los Angeles\"},{\"location\":\"The Greek Theatre\",\"address\":\"2700 N. Vermont Ave. Los Angeles, \",\"formattedAddress\":\"2700 N Vermont Ave, Los Angeles, CA 90027, USA\",\"neighborhood\":null,\"lat\":34.1205588,\"lng\":-118.2963915,\"zipcode\":\"90027\"},{\"location\":\"StubHub Center\",\"address\":\"18400 S. Avalon Blvd., Carson, CA, us\",\"formattedAddress\":\"18400 S Avalon Blvd, Carson, CA 90746, USA\",\"neighborhood\":null,\"lat\":33.8639438,\"lng\":-118.2660058,\"zipcode\":\"90746\"},{\"location\":\"Lineage Performing Arts Center\",\"address\":\"89 S. Fair Oaks Avenue Pasadena \",\"formattedAddress\":\"89 S Fair Oaks Ave, Pasadena, CA 91105, USA\",\"neighborhood\":\"Northeast Los Angeles\",\"lat\":34.1441498,\"lng\":-118.15071,\"zipcode\":\"91105\"},{\"location\":\"Atwater Village Theater\",\"address\":\"3269 Casitas Ave. Los Angeles \",\"formattedAddress\":\"3269 Casitas Ave, Los Angeles, CA 90039, USA\",\"lat\":34.1164165,\"lng\":-118.2518773,\"zipcode\":\"90039\",\"city\":\"Los Angeles\",\"neighborhood\":\"Northeast Los Angeles\"},{\"location\":\"Beverly O'Neill Theater - Long Beach Conv and Entertainment Ctr\",\"address\":\"300 E Ocean BL Long Beach CA\",\"formattedAddress\":\"300 E Ocean Blvd, Long Beach, CA 90802, USA\",\"neighborhood\":\"Waterfront\",\"lat\":33.76520350000001,\"lng\":-118.1893341,\"zipcode\":\"90802\"},{\"location\":\"The Rose\",\"address\":\"245 E. Green St. Pasadena, \",\"formattedAddress\":\"245 E Green St, Pasadena, CA 91101, USA\",\"neighborhood\":null,\"lat\":34.1445579,\"lng\":-118.1450515,\"zipcode\":\"91101\"},{\"location\":\"A Noise Within\",\"address\":\"3352 E. Foothill Blvd. Pasadena, \",\"formattedAddress\":\"3352 E Foothill Blvd, Pasadena, CA 91107, USA\",\"lat\":34.1495943,\"lng\":-118.0811409,\"zipcode\":\"91107\",\"city\":\"Pasadena\",\"neighborhood\":\"Hastings Ranch\"},{\"location\":\"Book Soup\",\"address\":\"8818 Sunset Boulevard, \",\"formattedAddress\":\"8818 Sunset Blvd, West Hollywood, CA 90069, USA\",\"neighborhood\":\"Norma Triangle\",\"lat\":34.0904056,\"lng\":-118.38372,\"zipcode\":\"90069\"},{\"location\":\"Aero Theatre\",\"address\":\"1328 Montana Ave., Santa Monica, \",\"formattedAddress\":\"1328 Montana Ave, Santa Monica, CA 90403, USA\",\"neighborhood\":\"Wilshire Montana\",\"lat\":34.0318921,\"lng\":-118.4952572,\"zipcode\":\"90403\"},{\"location\":\"Dome Arclight Entertainment Center\",\"address\":\"6360 W. Sunset Blvd. Hollywood, CA  Hollywood \",\"formattedAddress\":\"6360 Sunset Blvd, Los Angeles, CA 90028, USA\",\"lat\":34.0973718,\"lng\":-118.3278725,\"zipcode\":\"90028\",\"city\":\"Los Angeles\",\"neighborhood\":\"Hollywood\"},{\"location\":\"Hollywood Palladium\",\"address\":\"6215 W. Sunset Blvd. Los Angeles, \",\"formattedAddress\":\"6215 Sunset Blvd, Los Angeles, CA 90028, USA\",\"neighborhood\":\"Hollywood\",\"lat\":34.0984783,\"lng\":-118.3243046,\"zipcode\":\"90028\"},{\"location\":\"The Bunny Museum\",\"address\":\"2605 Lake Ave. Altadena, \",\"formattedAddress\":\"2605 Lake Ave, Altadena, CA 91001, USA\",\"neighborhood\":null,\"lat\":34.1904702,\"lng\":-118.1316075,\"zipcode\":\"91001\"},{\"location\":\"Dodger Stadium\",\"address\":\"1000 Vin Scully Ave., Los Angeles, \",\"formattedAddress\":\"1000 Vin Scully Ave, Los Angeles, CA 90026, USA\",\"neighborhood\":\"Echo Park\",\"lat\":34.0724463,\"lng\":-118.2482212,\"zipcode\":\"90026\"},{\"location\":\"Whisky A Go Go\",\"address\":\"8901 sunset blvd, West Hollywood, \",\"formattedAddress\":\"8901 Sunset Blvd, West Hollywood, CA 90069, USA\",\"neighborhood\":\"Sunset Strip\",\"lat\":34.0908403,\"lng\":-118.3857013,\"zipcode\":\"90069\"},{\"location\":\"New Beverly Cinema\",\"address\":\"7165 Beverly Blvd. Los Angeles, \",\"formattedAddress\":\"7165 Beverly Blvd, Los Angeles, CA 90036, USA\",\"lat\":34.0764408,\"lng\":-118.3457564,\"zipcode\":\"90036\",\"city\":\"Los Angeles\",\"neighborhood\":\"Central LA\"},{\"location\":\"The Mint\",\"address\":\"6010 W. Pico Blvd. Los Angeles, \",\"formattedAddress\":\"6010 W Pico Blvd, Los Angeles, CA 90035, USA\",\"neighborhood\":\"Mid City\",\"lat\":34.0521634,\"lng\":-118.3716095,\"zipcode\":\"90035\"},{\"location\":\"Hollywood Improv (The Main Room)\",\"address\":\"8162 Melrose Ave. Hollywood, \",\"formattedAddress\":\"8162 Melrose Ave, Los Angeles, CA 90048, USA\",\"neighborhood\":\"Beverly Grove\",\"lat\":34.0834368,\"lng\":-118.3672735,\"zipcode\":\"90048\"},{\"location\":\"Molly Malones\",\"address\":\"575 S. Fairfax Ave., Los Angeles, \",\"formattedAddress\":\"575 S Fairfax Ave, Los Angeles, CA 90036, USA\",\"neighborhood\":\"Carthay Circle\",\"lat\":34.065287,\"lng\":-118.361697,\"zipcode\":\"90036\"},{\"location\":\"Vroman's Bookstore\",\"address\":\"695 E Colorado Blvd Pasadena \",\"formattedAddress\":\"695 E Colorado Blvd, Pasadena, CA 91101, USA\",\"lat\":34.14628150000001,\"lng\":-118.1361812,\"zipcode\":\"91101\",\"city\":\"Pasadena\"},{\"location\":\"Otium\",\"address\":\"222 S Hope St Los Angeles CA\",\"formattedAddress\":\"222 S Hope St, Los Angeles, CA 90012, USA\",\"lat\":34.0543753,\"lng\":-118.2512758,\"zipcode\":\"90012\",\"city\":\"Los Angeles\",\"neighborhood\":\"Downtown\"},{\"location\":\"Hollywood Improv (The Main Room)\",\"address\":\"8162 Melrose Ave. Hollywood, \",\"formattedAddress\":\"8162 Melrose Ave, Los Angeles, CA 90048, USA\",\"neighborhood\":\"Beverly Grove\",\"lat\":34.0834368,\"lng\":-118.3672735,\"zipcode\":\"90048\"},{\"location\":\"Genghis Cohen\",\"address\":\"740 N. Fairfax Ave. Los Angeles, \",\"formattedAddress\":\"740 N Fairfax Ave, Los Angeles, CA 90046, USA\",\"neighborhood\":\"Fairfax\",\"lat\":34.0850767,\"lng\":-118.3611139,\"zipcode\":\"90046\"},{\"location\":\"Resident\",\"address\":\"428 S. Hewitt St. Los Angeles, \",\"formattedAddress\":\"428 S Hewitt St, Los Angeles, CA 90013, USA\",\"neighborhood\":\"Downtown\",\"lat\":34.042668,\"lng\":-118.234922,\"zipcode\":\"90013\"},{\"location\":\"The Open Space\",\"address\":\"457 N. Fairfax Ave. Los Angeles, CA\",\"formattedAddress\":\"457 N Fairfax Ave, Los Angeles, CA 90048, USA\",\"neighborhood\":\"Beverly Grove\",\"lat\":34.0798347,\"lng\":-118.3617254,\"zipcode\":\"90048\"},{\"location\":\"The Peppermint Club\",\"address\":\"8713 Beverly Blvd. West Hollywood, \",\"formattedAddress\":\"8713 Beverly Blvd, West Hollywood, CA 90048, USA\",\"lat\":34.0771589,\"lng\":-118.3809607,\"zipcode\":\"90048\",\"city\":\"West Hollywood\",\"neighborhood\":\"Central LA\"},{\"location\":\"The Paley Center for Media\",\"address\":\"465 N. Beverly Dr. Beverly Hills, \",\"formattedAddress\":\"465 N Beverly Dr, Beverly Hills, CA 90210, USA\",\"neighborhood\":null,\"lat\":34.0708996,\"lng\":-118.4033802,\"zipcode\":\"90210\"},{\"location\":\"Goethe-Institut Los Angeles\",\"address\":\"5750 Wilshire Blvd. Suite 100 Los Angeles \",\"formattedAddress\":\"5750 Wilshire Blvd #100, Los Angeles, CA 90036, USA\",\"lat\":34.0615968,\"lng\":-118.3547725,\"zipcode\":\"90036\",\"city\":\"Los Angeles\",\"neighborhood\":\"Central LA\"},{\"location\":\"Hollywood Bowl\",\"address\":\"2301 N. Highland Ave. Los Angeles, \",\"formattedAddress\":\"2301 Highland Ave, Los Angeles, CA 90068, USA\",\"lat\":34.1127392,\"lng\":-118.3388562,\"zipcode\":\"90068\",\"city\":\"Los Angeles\",\"neighborhood\":\"Central LA\"},{\"location\":\"El Rey Theatre\",\"address\":\"5515 Wilshire Blvd. Los Angeles, \",\"formattedAddress\":\"5515 Wilshire Blvd, Los Angeles, CA 90036, USA\",\"neighborhood\":\"Mid-Wilshire\",\"lat\":34.0626988,\"lng\":-118.3489004,\"zipcode\":\"90036\"},{\"location\":\"The Paley Center for Media\",\"address\":\"465 N. Beverly Dr. Beverly Hills, \",\"formattedAddress\":\"465 N Beverly Dr, Beverly Hills, CA 90210, USA\",\"neighborhood\":null,\"lat\":34.0708996,\"lng\":-118.4033802,\"zipcode\":\"90210\"},{\"location\":\"The Roxy\",\"address\":\"9009 W. Sunset Blvd. West Hollywood, \",\"formattedAddress\":\"9009 Sunset Blvd, West Hollywood, CA 90069, USA\",\"neighborhood\":\"Sunset Strip\",\"lat\":34.0909001,\"lng\":-118.3879395,\"zipcode\":\"90069\"},{\"location\":\"The Hotel Cafe\",\"address\":\"1623 1/2 N. Cahuenga Blvd. Los Angeles, \",\"formattedAddress\":\"1623 N Cahuenga Blvd, Los Angeles, CA 90028, USA\",\"neighborhood\":\"Hollywood\",\"lat\":34.1004371,\"lng\":-118.329829,\"zipcode\":\"90028\"},{\"location\":\"Amoeba Hollywood\",\"address\":\"6400 Sunset Blvd, Los Angeles 90028, us\",\"formattedAddress\":\"6400 Sunset Blvd, Los Angeles, CA 90028, USA\",\"neighborhood\":\"Hollywood\",\"lat\":34.0977683,\"lng\":-118.3290738,\"zipcode\":\"90028\"},{\"location\":\"Downtown San Pedro\",\"address\":\"398 W. 6th Street San Pedro \",\"formattedAddress\":\"398 W 6th St, San Pedro, CA 90731, USA\",\"lat\":33.7387602,\"lng\":-118.2857012,\"zipcode\":\"90731\",\"city\":\"Los Angeles\",\"neighborhood\":\"San Pedro\"},{\"location\":\"The Theatre at Ace Hotel\",\"address\":\"929 S. Broadway Los Angeles, \",\"formattedAddress\":\"929 S Broadway, Los Angeles, CA 90015, USA\",\"neighborhood\":\"Downtown\",\"lat\":34.0418769,\"lng\":-118.2570341,\"zipcode\":\"90015\"},{\"location\":\"The Roxy\",\"address\":\"9009 W. Sunset Blvd. West Hollywood, \",\"formattedAddress\":\"9009 Sunset Blvd, West Hollywood, CA 90069, USA\",\"neighborhood\":\"Sunset Strip\",\"lat\":34.0909001,\"lng\":-118.3879395,\"zipcode\":\"90069\"},{\"location\":\"Crowell Public Library\",\"address\":\"1890 Huntington Drive, CA, \",\"formattedAddress\":\"1890 Huntington Dr, Pasadena, CA 91108, USA\",\"neighborhood\":null,\"lat\":34.1190091,\"lng\":-118.1126926,\"zipcode\":\"91108\"},{\"location\":\"Fonda Theatre\",\"address\":\"6126 Hollywood Blvd., Los Angeles, \",\"formattedAddress\":\"6126 Hollywood Blvd, Los Angeles, CA 90028, USA\",\"neighborhood\":\"Hollywood\",\"lat\":34.1012695,\"lng\":-118.3232478,\"zipcode\":\"90028\"},{\"location\":\"Dome Arclight Entertainment Center\",\"address\":\"6360 W. Sunset Blvd. Hollywood, CA  Hollywood \",\"formattedAddress\":\"6360 Sunset Blvd, Los Angeles, CA 90028, USA\",\"lat\":34.0973718,\"lng\":-118.3278725,\"zipcode\":\"90028\",\"city\":\"Los Angeles\",\"neighborhood\":\"Hollywood\"},{\"location\":\"The Wiltern\",\"address\":\"3790 Wilshire Blvd. Los Angeles, \",\"formattedAddress\":\"3790 Wilshire Blvd, Los Angeles, CA 90010, USA\",\"neighborhood\":\"Koreatown\",\"lat\":34.0614896,\"lng\":-118.3087587,\"zipcode\":\"90010\"},{\"location\":\"The Wiltern\",\"address\":\"3790 Wilshire Blvd. Los Angeles, \",\"formattedAddress\":\"3790 Wilshire Blvd, Los Angeles, CA 90010, USA\",\"neighborhood\":\"Koreatown\",\"lat\":34.0614896,\"lng\":-118.3087587,\"zipcode\":\"90010\"},{\"location\":\"The Theatre at Ace Hotel\",\"address\":\"929 S. Broadway Los Angeles, \",\"formattedAddress\":\"929 S Broadway, Los Angeles, CA 90015, USA\",\"neighborhood\":\"Downtown\",\"lat\":34.0418769,\"lng\":-118.2570341,\"zipcode\":\"90015\"},{\"location\":\"STAPLES Center\",\"address\":\"1111 S. Figueroa St., Los Angeles, \",\"formattedAddress\":\"1111 S Figueroa St, Los Angeles, CA 90015, USA\",\"neighborhood\":\"Downtown\",\"lat\":34.043125,\"lng\":-118.267118,\"zipcode\":\"90015\"},{\"location\":\"The Canyon\",\"address\":\"28912 Roadside Dr., Agoura Hills, \",\"formattedAddress\":\"28912 Roadside Dr, Agoura Hills, CA 91301, USA\",\"neighborhood\":null,\"lat\":34.144004,\"lng\":-118.7551541,\"zipcode\":\"91301\"},{\"location\":\"Silverlake Lounge\",\"address\":\"2906 Sunset Blvd. Los Angeles, \",\"formattedAddress\":\"2906 Sunset Blvd, Los Angeles, CA 90026, USA\",\"neighborhood\":\"Silver Lake\",\"lat\":34.0828261,\"lng\":-118.2736878,\"zipcode\":\"90026\"},{\"location\":\"Art + Practice\",\"address\":\"3401 W. 43rd Place Leimert Park \",\"formattedAddress\":\"3401 W 43rd Pl, Los Angeles, CA 90008, USA\",\"neighborhood\":\"South Los Angeles\",\"lat\":34.004517,\"lng\":-118.331727,\"zipcode\":\"90008\"},{\"location\":\"Downtown Long Beach\",\"address\":\"Linden Ave. and E. Broadway Long Beach CA\",\"formattedAddress\":\"E Broadway & Linden Ave, Long Beach, CA 90802, USA\",\"neighborhood\":\"Downtown\",\"lat\":33.7692751,\"lng\":-118.1863671,\"zipcode\":\"90802\"},{\"location\":\"Durden and Ray\",\"address\":\"1923 S. Santa Fe Ave. Los Angeles, CA Downtown \",\"formattedAddress\":\"1923 S Santa Fe Ave, Los Angeles, CA 90021, USA\",\"lat\":34.0223484,\"lng\":-118.2304801,\"zipcode\":\"90021\",\"city\":\"Los Angeles\",\"neighborhood\":\"Boyle Heights\"},{\"location\":\"Highland Park and surrounding areas\",\"address\":\"York Blvd. and N. Ave. 50 Los Angeles CA\",\"formattedAddress\":\"York Blvd & N Avenue 50, Los Angeles, CA 90042, USA\",\"neighborhood\":\"Eagle Rock\",\"lat\":34.1214799,\"lng\":-118.206906,\"zipcode\":\"90042\"},{\"location\":\"18th Street Arts Center\",\"address\":\"1639 18th Street Santa Monica \",\"formattedAddress\":\"1639 18th St, Santa Monica, CA 90404, USA\",\"lat\":34.023855,\"lng\":-118.4777478,\"zipcode\":\"90404\"},{\"location\":\"Downtown Pomona\",\"address\":\"Downtown Pomona Pomona \",\"formattedAddress\":\"119 W 2nd St, Pomona, CA 91766, USA\",\"neighborhood\":\"Westmont\",\"lat\":34.0580378,\"lng\":-117.7506816,\"zipcode\":\"91766\"},{\"location\":\"Dorothy Chandler Pavilion\",\"address\":\"135 Grand Ave, Los Angeles, \",\"formattedAddress\":\"135 S Grand Ave, Los Angeles, CA 90012, USA\",\"neighborhood\":\"Downtown\",\"lat\":34.0552671,\"lng\":-118.2490979,\"zipcode\":\"90012\"},{\"location\":\"Olvera Street\",\"address\":\"845 N. Alameda St. Los Angeles, \",\"formattedAddress\":\"845 North Alameda Street, Los Angeles, CA 90012, USA\",\"lat\":34.0574412,\"lng\":-118.2376558,\"zipcode\":\"90012\",\"city\":\"Los Angeles\",\"neighborhood\":\"Central LA\"},{\"location\":\"Pershing Square\",\"address\":\"532 S. Olive St. Los Angeles, \",\"formattedAddress\":\"532 S Olive St, Los Angeles, CA 90013, USA\",\"lat\":34.0485099,\"lng\":-118.2532776,\"zipcode\":\"90013\",\"city\":\"Los Angeles\",\"neighborhood\":\"Downtown\"},{\"location\":\"The Paley Center for Media\",\"address\":\"465 N. Beverly Dr. Beverly Hills, \",\"formattedAddress\":\"465 N Beverly Dr, Beverly Hills, CA 90210, USA\",\"neighborhood\":null,\"lat\":34.0708996,\"lng\":-118.4033802,\"zipcode\":\"90210\"},{\"location\":\"Magic Box at the Reef\",\"address\":\"1933 South Broadway Los Angeles \",\"formattedAddress\":\"1933 S Broadway, Los Angeles, CA 90007, USA\",\"neighborhood\":\"South Los Angeles\",\"lat\":34.0312448,\"lng\":-118.2665321,\"zipcode\":\"90007\"},{\"location\":\"Children's Book World\",\"address\":\"10580 W. Pico Blvd. Los Angeles, \",\"formattedAddress\":\"10580 W Pico Blvd, Los Angeles, CA 90064, USA\",\"lat\":34.0435699,\"lng\":-118.4213437,\"zipcode\":\"90064\",\"city\":\"Los Angeles\",\"neighborhood\":\"Rancho Park\"},{\"location\":\"Bergamot Station I Lois Lambert Gallery I Gallery of Functional Art\",\"address\":\"2525 Michigan Avenue E-3, Santa Monica 90404, us\",\"formattedAddress\":\"2525 Michigan Ave, Santa Monica, CA 90404, USA\",\"neighborhood\":\"Pico\",\"lat\":34.02778929999999,\"lng\":-118.4684355,\"zipcode\":\"90404\"},{\"location\":\"Dorothy Chandler Pavilion\",\"address\":\"135 Grand Ave, Los Angeles, \",\"formattedAddress\":\"135 S Grand Ave, Los Angeles, CA 90012, USA\",\"neighborhood\":\"Downtown\",\"lat\":34.0552671,\"lng\":-118.2490979,\"zipcode\":\"90012\"},{\"location\":\"LA County Arboretum and Botanic Garden\",\"address\":\"301 North Baldwin Avenue Arcadia \",\"formattedAddress\":\"301 N Baldwin Ave, Arcadia, CA 91007, USA\",\"lat\":34.1448279,\"lng\":-118.0508813,\"zipcode\":\"91007\",\"city\":\"Arcadia\"},{\"location\":\"Electric Dusk Drive-In\",\"address\":\"2930 Fletcher Dr. Glendale, \",\"formattedAddress\":\"2930 Fletcher Dr, Los Angeles, CA 90065, USA\",\"neighborhood\":\"Atwater Village\",\"lat\":34.1139623,\"lng\":-118.2465748,\"zipcode\":\"90065\"},{\"location\":\"Harvard Yard\",\"address\":\"1400 S Western Ave Los Angeles \",\"formattedAddress\":\"1400 S Western Ave, Los Angeles, CA 90006, USA\",\"lat\":34.0460796,\"lng\":-118.3088764,\"zipcode\":\"90006\",\"city\":\"Los Angeles\",\"neighborhood\":\"Central LA\"},{\"location\":\"Saban Theatre\",\"address\":\"8440 W. Wilshire Blvd. Beverly Hills, \",\"formattedAddress\":\"8440 Wilshire Blvd, Beverly Hills, CA 90211, USA\",\"neighborhood\":null,\"lat\":34.0645718,\"lng\":-118.3748496,\"zipcode\":\"90211\"},{\"location\":\"Los Angeles Memorial Coliseum\",\"address\":\"3911 S. Figueroa St., Los Angeles 90037, us\",\"formattedAddress\":\"3911 S Figueroa St, Los Angeles, CA 90037, USA\",\"neighborhood\":\"South Los Angeles\",\"lat\":34.0128805,\"lng\":-118.2827671,\"zipcode\":\"90037\"},{\"location\":\"Barnsdall Art Park\",\"address\":\"4800 Hollywood Boulevard, Los Angeles 90027, us\",\"formattedAddress\":\"4800 Hollywood Blvd, Los Angeles, CA 90027, USA\",\"neighborhood\":\"Hollywood\",\"lat\":34.1015282,\"lng\":-118.2943343,\"zipcode\":\"90027\"},{\"location\":\"The Baked Potato\",\"address\":\"3787 Cahuenga Blvd. W. Studio City, \",\"formattedAddress\":\"3787 Cahuenga Blvd, Studio City, CA 91604, USA\",\"neighborhood\":\"Studio City\",\"lat\":34.1366405,\"lng\":-118.3631491,\"zipcode\":\"91604\"},{\"location\":\"Crestwood Hills Park\",\"address\":\"1000 Hanley Ave, Los Angeles Brentwood \",\"formattedAddress\":\"1000 Hanley Ave, Los Angeles, CA 90049, USA\",\"lat\":34.0768468,\"lng\":-118.4891025,\"zipcode\":\"90049\",\"city\":\"Los Angeles\",\"neighborhood\":\"Brentwood\"},{\"location\":\"Ann & Jerry Moss Theatre\",\"address\":\"3131 Olympic Blvd 3131 Olympic Blvd CA 0\",\"formattedAddress\":\"3131 Olympic Blvd, Santa Monica, CA 90404, USA\",\"lat\":34.0313088,\"lng\":-118.4613038,\"zipcode\":\"90404\",\"city\":\"Santa Monica\"},{\"location\":\"The Paley Center for Media\",\"address\":\"465 N. Beverly Dr. Beverly Hills, \",\"formattedAddress\":\"465 N Beverly Dr, Beverly Hills, CA 90210, USA\",\"neighborhood\":null,\"lat\":34.0708996,\"lng\":-118.4033802,\"zipcode\":\"90210\"},{\"location\":\"Los Globos\",\"address\":\"3040 W. Sunset Blvd. Los Angeles, \",\"formattedAddress\":\"3040 Sunset Blvd, Los Angeles, CA 90026, USA\",\"neighborhood\":\"Silver Lake\",\"lat\":34.0838215,\"lng\":-118.2743235,\"zipcode\":\"90026\"},{\"location\":\"Skylight Theater\",\"address\":\"1816 1/2 N. Vermont Ave. Los Angeles, \",\"formattedAddress\":\"1816 1/2 N Vermont Ave, Los Angeles, CA 90027, USA\",\"lat\":34.1040603,\"lng\":-118.2915836,\"zipcode\":\"90027\",\"city\":\"Los Angeles\",\"neighborhood\":\"Central LA\"},{\"location\":\"The Forum\",\"address\":\"3900 W. Manchester Blvd. Inglewood, \",\"formattedAddress\":\"3900 W Manchester Blvd, Inglewood, CA 90305, USA\",\"neighborhood\":\"South Los Angeles\",\"lat\":33.9581667,\"lng\":-118.3418158,\"zipcode\":\"90305\"},{\"location\":\"The Greek Theatre\",\"address\":\"2700 N. Vermont Ave. Los Angeles, \",\"formattedAddress\":\"2700 N Vermont Ave, Los Angeles, CA 90027, USA\",\"neighborhood\":null,\"lat\":34.1205588,\"lng\":-118.2963915,\"zipcode\":\"90027\"},{\"location\":\"Rubicon Theatre Company\",\"address\":\"1006 E. Main Street Ventura \",\"formattedAddress\":\"1006 E Main St, Ventura, CA 93001, USA\",\"neighborhood\":null,\"lat\":34.2805973,\"lng\":-119.2852082,\"zipcode\":\"93001\"},{\"location\":\"The Forum\",\"address\":\"3900 W. Manchester Blvd. Inglewood, \",\"formattedAddress\":\"3900 W Manchester Blvd, Inglewood, CA 90305, USA\",\"neighborhood\":\"South Los Angeles\",\"lat\":33.9581667,\"lng\":-118.3418158,\"zipcode\":\"90305\"},{\"location\":\"The Greek Theatre\",\"address\":\"2700 N. Vermont Ave. Los Angeles, \",\"formattedAddress\":\"2700 N Vermont Ave, Los Angeles, CA 90027, USA\",\"neighborhood\":null,\"lat\":34.1205588,\"lng\":-118.2963915,\"zipcode\":\"90027\"},{\"location\":\"Grand Park\",\"address\":\"200 N. Grand Ave. Los Angeles, \",\"formattedAddress\":\"200 N Grand Ave, Los Angeles, CA 90012, USA\",\"lat\":34.0562797,\"lng\":-118.2467434,\"zipcode\":\"90012\",\"city\":\"Los Angeles\",\"neighborhood\":\"Central LA\"},{\"location\":\"Downtown Los Angeles Historic Core\",\"address\":\"Sixth St. and Spring St. Los Angeles CA\",\"formattedAddress\":\"W 6th St & S Spring St, Los Angeles, CA 90014, USA\",\"neighborhood\":\"Downtown\",\"lat\":34.0459485,\"lng\":-118.2509641,\"zipcode\":\"90014\"},{\"location\":\"California Market Center (The CMC) - Penthouse Floor\",\"address\":\"110 East Ninth Street Los Angeles CA\",\"formattedAddress\":\"110 E 9th St, Los Angeles, CA 90079, USA\",\"lat\":34.0404559,\"lng\":-118.2553945,\"zipcode\":\"90079\",\"city\":\"Los Angeles\",\"neighborhood\":\"Central LA\"},{\"location\":\"Civic Center Studios\",\"address\":\"207 S. Broadway, Los Angeles, CA, Torrance, \",\"formattedAddress\":\"S Broadway, Los Angeles, CA, USA\",\"neighborhood\":null,\"lat\":33.9778632,\"lng\":-118.2783254},{\"location\":\"Fonda Theatre\",\"address\":\"6126 Hollywood Blvd., Los Angeles, \",\"formattedAddress\":\"6126 Hollywood Blvd, Los Angeles, CA 90028, USA\",\"neighborhood\":\"Hollywood\",\"lat\":34.1012695,\"lng\":-118.3232478,\"zipcode\":\"90028\"},{\"location\":\"StubHub Center\",\"address\":\"18400 S. Avalon Blvd., Carson, CA, us\",\"formattedAddress\":\"18400 S Avalon Blvd, Carson, CA 90746, USA\",\"neighborhood\":null,\"lat\":33.8639438,\"lng\":-118.2660058,\"zipcode\":\"90746\"},{\"location\":\"StubHub Center\",\"address\":\"18400 S. Avalon Blvd., Carson, CA, us\",\"formattedAddress\":\"18400 S Avalon Blvd, Carson, CA 90746, USA\",\"neighborhood\":null,\"lat\":33.8639438,\"lng\":-118.2660058,\"zipcode\":\"90746\"},{\"location\":\"The Old Spaghetti Factory\",\"address\":\"1431 Buena Vista St Duarte, California 91010 818-862-0002\",\"formattedAddress\":\"1431 Buena Vista St, Duarte, CA 91010, USA\",\"lat\":34.1363631,\"lng\":-117.9782606,\"zipcode\":\"91010\",\"city\":\"Duarte\"},{\"location\":\"The Novo by Microsoft\",\"address\":\"800 W. Olympic Blvd. Los Angeles, \",\"formattedAddress\":\"800 W Olympic Blvd, Los Angeles, CA 90015, USA\",\"neighborhood\":\"Downtown\",\"lat\":34.0449376,\"lng\":-118.2654979,\"zipcode\":\"90015\"},{\"location\":\"Scherr Forum-Thousand Oaks Civic Arts Plaza\",\"address\":\"Thousand Oaks 91362, us\",\"formattedAddress\":\"Thousand Oaks, CA 91362, USA\",\"neighborhood\":null,\"lat\":34.1971476,\"lng\":-118.824722,\"zipcode\":\"91362\"},{\"location\":\"Theatre Raymond Kabbaz\",\"address\":\"10361 W. Pico Blvd., Los Angeles, \",\"formattedAddress\":\"10361 W Pico Blvd, Los Angeles, CA 90064, USA\",\"neighborhood\":\"Century City\",\"lat\":34.0472142,\"lng\":-118.4160617,\"zipcode\":\"90064\"},{\"location\":\"The Forum\",\"address\":\"3900 W. Manchester Blvd. Inglewood, \",\"formattedAddress\":\"3900 W Manchester Blvd, Inglewood, CA 90305, USA\",\"neighborhood\":\"South Los Angeles\",\"lat\":33.9581667,\"lng\":-118.3418158,\"zipcode\":\"90305\"},{\"location\":\"Los Angeles State Historic Park\",\"address\":\"1245 N Spring St Los Angeles CA\",\"formattedAddress\":\"1245 N Spring St, Los Angeles, CA 90012, USA\",\"lat\":34.0661743,\"lng\":-118.2342881,\"zipcode\":\"90012\",\"city\":\"Los Angeles\",\"neighborhood\":\"Central LA\"},{\"location\":\"Century City 15\",\"address\":\"10250 Santa Monica Boulevard, Suite 200 Los Angeles, California 90067 310-277-2262\",\"formattedAddress\":\"10250 Santa Monica Blvd #200, Los Angeles, CA 90067, USA\",\"lat\":34.0599924,\"lng\":-118.4200376,\"zipcode\":\"90067\",\"city\":\"Los Angeles\",\"neighborhood\":\"Century City\"},{\"location\":\"Escape Room LA\",\"address\":\"120 E. 8th St Los Angeles, \",\"formattedAddress\":\"120 E 8th St, Los Angeles, CA 90014, USA\",\"neighborhood\":\"Downtown\",\"lat\":34.0420721,\"lng\":-118.2528292,\"zipcode\":\"90014\"},{\"location\":\"American Museum of Ceramic Art\",\"address\":\"399 N. Garey Ave Pomona, California 91767 909-865-3146\",\"formattedAddress\":\"399 N Garey Ave, Pomona, CA 91767, USA\",\"neighborhood\":\"Westmont\",\"lat\":34.0611548,\"lng\":-117.7507227,\"zipcode\":\"91767\"},{\"location\":\"Alex Theater\",\"address\":\"216 North Brand Boulevard, Glendale, CA, Glendale, \",\"formattedAddress\":\"216 N Brand Blvd, Glendale, CA 91203, USA\",\"neighborhood\":\"Downtown\",\"lat\":34.1488644,\"lng\":-118.2548412,\"zipcode\":\"91203\"},{\"location\":\"Getty Center\",\"address\":\"1200 Getty Center Drive Los Angeles \",\"formattedAddress\":\"1200 Getty Center Dr, Los Angeles, CA 90049, USA\",\"neighborhood\":\"Brentwood\",\"lat\":34.0790329,\"lng\":-118.4751057,\"zipcode\":\"90049\"},{\"location\":\"Arcadia Performing Arts Center\",\"address\":\"188 Campus Drive Arcadia \",\"formattedAddress\":\"188 Campus Dr, Arcadia, CA 91007, USA\",\"lat\":34.130465,\"lng\":-118.0403503,\"zipcode\":\"91007\",\"city\":\"Arcadia\"},{\"location\":\"Valley Performing Arts Center\",\"address\":\"18111 Nordoff St., Northridge, \",\"formattedAddress\":\"18111 Nordhoff St, Northridge, CA 91325, USA\",\"neighborhood\":\"Northridge\",\"lat\":34.2359329,\"lng\":-118.5280253,\"zipcode\":\"91325\"},{\"location\":\"Valley Performing Arts Center\",\"address\":\"18111 Nordoff St., Northridge, \",\"formattedAddress\":\"18111 Nordhoff St, Northridge, CA 91325, USA\",\"neighborhood\":\"Northridge\",\"lat\":34.2359329,\"lng\":-118.5280253,\"zipcode\":\"91325\"},{\"location\":\"Marsee Auditorium, Center for the Arts at El Camino College\",\"address\":\"16007 Crenshaw Boulevard Torrance \",\"formattedAddress\":\"16007 Crenshaw Blvd, Torrance, CA 90506, USA\",\"neighborhood\":null,\"lat\":33.8852359,\"lng\":-118.3284419,\"zipcode\":\"90506\"},{\"location\":\"Teragram Ballroom\",\"address\":\"1234 W. Seventh St., Los Angeles 90017, us\",\"formattedAddress\":\"1234 W 7th St, Los Angeles, CA 90017, USA\",\"neighborhood\":\"Central LA\",\"lat\":34.0518639,\"lng\":-118.2670623,\"zipcode\":\"90017\"},{\"location\":\"Sunset Theatre Company\",\"address\":\"1603 Aviation Blvd. #6 Redondo Beach,, \",\"formattedAddress\":\"1603 Aviation Blvd #6, Redondo Beach, CA 90278, USA\",\"lat\":33.8696503,\"lng\":-118.3828985,\"zipcode\":\"90278\",\"city\":\"Redondo Beach\",\"neighborhood\":\"North Redondo\"},{\"location\":\"Art Share L.A.\",\"address\":\"801 E 4th Pl., Los Angeles 90013, us\",\"formattedAddress\":\"801 E 4th Pl, Los Angeles, CA 90013, USA\",\"neighborhood\":\"Downtown\",\"lat\":34.0445952,\"lng\":-118.2364072,\"zipcode\":\"90013\"},{\"location\":\"San Gabriel Mission Playhouse\",\"address\":\"320 Mission Dr. San Gabriel, \",\"formattedAddress\":\"320 N Mission Dr, San Gabriel, CA 91775, USA\",\"neighborhood\":null,\"lat\":34.1068399,\"lng\":-118.1112117,\"zipcode\":\"91775\"},{\"location\":\"Scherr Forum-Thousand Oaks Civic Arts Plaza\",\"address\":\"Thousand Oaks 91362, us\",\"formattedAddress\":\"Thousand Oaks, CA 91362, USA\",\"neighborhood\":null,\"lat\":34.1971476,\"lng\":-118.824722,\"zipcode\":\"91362\"},{\"location\":\"The Orpheum Theatre\",\"address\":\"842 S. Broadway Los Angeles, \",\"formattedAddress\":\"842 S Broadway, Los Angeles, CA 90014, USA\",\"neighborhood\":\"Downtown\",\"lat\":34.0426926,\"lng\":-118.2552867,\"zipcode\":\"90014\"},{\"location\":\"Hollywood Bowl\",\"address\":\"2301 N. Highland Ave. Los Angeles, \",\"formattedAddress\":\"2301 Highland Ave, Los Angeles, CA 90068, USA\",\"lat\":34.1127392,\"lng\":-118.3388562,\"zipcode\":\"90068\",\"city\":\"Los Angeles\",\"neighborhood\":\"Central LA\"},{\"location\":\"Plaza de la Raza\",\"address\":\"3540 N. Mission Rd. Los Angeles, \",\"formattedAddress\":\"3540 N Mission Rd, Los Angeles, CA 90031, USA\",\"lat\":34.0672034,\"lng\":-118.2034603,\"zipcode\":\"90031\",\"city\":\"Los Angeles\",\"neighborhood\":\"Northeast Los Angeles\"},{\"location\":\"Downtown Culver City\",\"address\":\"9718 Washington Blvd, Culver City, \",\"formattedAddress\":\"9718 Washington Blvd, Culver City, CA 90232, USA\",\"neighborhood\":\"Downtown\",\"lat\":34.0221879,\"lng\":-118.3961479,\"zipcode\":\"90232\"},{\"location\":\"Molly Malones\",\"address\":\"575 S. Fairfax Ave., Los Angeles, \",\"formattedAddress\":\"575 S Fairfax Ave, Los Angeles, CA 90036, USA\",\"neighborhood\":\"Carthay Circle\",\"lat\":34.065287,\"lng\":-118.361697,\"zipcode\":\"90036\"},{\"location\":\"Microsoft Theater\",\"address\":\"777 Chick Hearn Court Los Angeles, \",\"formattedAddress\":\"777 Chick Hearn Ct, Los Angeles, CA 90015, USA\",\"neighborhood\":\"Downtown\",\"lat\":34.044489,\"lng\":-118.2670519,\"zipcode\":\"90015\"},{\"location\":\"Petersen Automotive Museum\",\"address\":\"6060 Wilshire Blvd., Los Angeles, \",\"formattedAddress\":\"6060 Wilshire Blvd, Los Angeles, CA 90036, USA\",\"neighborhood\":\"Mid-Wilshire\",\"lat\":34.0619358,\"lng\":-118.3614346,\"zipcode\":\"90036\"},{\"location\":\"Shrine Auditorium\",\"address\":\"665 W Jefferson Blvd., Los Angeles, \",\"formattedAddress\":\"665 W Jefferson Blvd, Los Angeles, CA 90007, USA\",\"neighborhood\":\"South Los Angeles\",\"lat\":34.0236612,\"lng\":-118.2812202,\"zipcode\":\"90007\"},{\"location\":\"The Federal Underground\",\"address\":\"102 Pine Ave, Long Beach 90802, us\",\"formattedAddress\":\"102 Pine Ave, Long Beach, CA 90802, USA\",\"neighborhood\":\"Downtown\",\"lat\":33.7682406,\"lng\":-118.1920563,\"zipcode\":\"90802\"},{\"location\":\"Soka Performing Arts Center\",\"address\":\"1 University Drive, Aliso Viejo, \",\"formattedAddress\":\"1 University Cir, Aliso Viejo, CA 92656, USA\",\"neighborhood\":null,\"lat\":33.55587,\"lng\":-117.7335121,\"zipcode\":\"92656\"},{\"location\":\"Torrance Cultural Arts Center\",\"address\":\"3330 Civic Center Dr. Torrance, \",\"formattedAddress\":\"3330 Civic Center Dr, Torrance, CA 90503, USA\",\"lat\":33.8393642,\"lng\":-118.3434411,\"zipcode\":\"90503\",\"city\":\"Torrance\"},{\"location\":\"California Plaza\",\"address\":\"350 S. Grand Ave. Los Angeles, \",\"formattedAddress\":\"350 S Grand Ave, Los Angeles, CA 90003, USA\",\"neighborhood\":\"South Los Angeles\",\"lat\":33.9705046,\"lng\":-118.2801398,\"zipcode\":\"90003\"},{\"location\":\"Citadel Outlets\",\"address\":\"100 Citadel Drive, Suite 480 Los Angeles \",\"formattedAddress\":\"100 Citadel Dr #480, Commerce, CA 90040, USA\",\"neighborhood\":\"South Montebello\",\"lat\":34.006156,\"lng\":-118.1516239,\"zipcode\":\"90040\"},{\"location\":\"Promenade Playhouse\",\"address\":\"1404 Third Street Promenade Santa Monica \",\"formattedAddress\":\"1404 3rd Street Promenade, Santa Monica, CA 90401, USA\",\"neighborhood\":\"Downtown\",\"lat\":34.0154063,\"lng\":-118.4958936,\"zipcode\":\"90401\"},{\"location\":\"Agoura Hills/Calabasas Community Center\",\"address\":\"27040 Malibu Hills Road Calabasas \",\"formattedAddress\":\"27040 Malibu Hills Rd, Agoura Hills, CA 91301, USA\",\"lat\":34.1361783,\"lng\":-118.7130797,\"zipcode\":\"91301\",\"city\":\"Agoura Hills\"},{\"location\":\"Santa Monica Pier\",\"address\":\"200 Santa Monica Pier Santa Monica \",\"formattedAddress\":\"200 Santa Monica Pier, Santa Monica, CA 90401, USA\",\"neighborhood\":null,\"lat\":34.0098476,\"lng\":-118.4964629,\"zipcode\":\"90401\"},{\"location\":\"Exposition Park\",\"address\":\"Los Angeles \",\"formattedAddress\":\"Los Angeles, CA, USA\",\"neighborhood\":null,\"lat\":34.0522342,\"lng\":-118.2436849},{\"location\":\"Los Angeles Memorial Coliseum\",\"address\":\"3911 S. Figueroa St., Los Angeles 90037, us\",\"formattedAddress\":\"3911 S Figueroa St, Los Angeles, CA 90037, USA\",\"neighborhood\":\"South Los Angeles\",\"lat\":34.0128805,\"lng\":-118.2827671,\"zipcode\":\"90037\"},{\"location\":\"Leimert Park\",\"address\":\"4343 Degnan Blvd., Los Angeles, CA, us\",\"formattedAddress\":\"4343 Degnan Blvd, Los Angeles, CA 90008, USA\",\"neighborhood\":\"South Los Angeles\",\"lat\":34.0047135,\"lng\":-118.3314832,\"zipcode\":\"90008\"},{\"location\":\"LA Plaza de Cultura y Artes\",\"address\":\"501 N. Main St. Los Angeles, \",\"formattedAddress\":\"501 N Main St, Los Angeles, CA 90012, USA\",\"lat\":34.0564554,\"lng\":-118.2398448,\"zipcode\":\"90012\",\"city\":\"Los Angeles\",\"neighborhood\":\"Central LA\"},{\"location\":\"Saban Theatre\",\"address\":\"8440 W. Wilshire Blvd. Beverly Hills, \",\"formattedAddress\":\"8440 Wilshire Blvd, Beverly Hills, CA 90211, USA\",\"neighborhood\":null,\"lat\":34.0645718,\"lng\":-118.3748496,\"zipcode\":\"90211\"},{\"location\":\"Blue Whale Jazz Club\",\"address\":\"123 Astronaut E S Onizuka Street, Los Angeles 90012, us\",\"formattedAddress\":\"123 Astronaut E S Onizuka St, Los Angeles, CA 90012, USA\",\"neighborhood\":\"Downtown\",\"lat\":34.0501009,\"lng\":-118.2421794,\"zipcode\":\"90012\"},{\"location\":\"The Other Door\",\"address\":\"10437 Burbank Blvd. Los Angeles, \",\"formattedAddress\":\"10437 Burbank Blvd, North Hollywood, CA 91601, USA\",\"lat\":34.1724515,\"lng\":-118.3591396,\"zipcode\":\"91601\",\"city\":\"Los Angeles\",\"neighborhood\":\"North Hollywood\"},{\"location\":\"LA Convention Center\",\"address\":\"1201 South Figueroa Street Los Angeles \",\"formattedAddress\":\"1201 S Figueroa St, Los Angeles, CA 90015, USA\",\"lat\":34.0413606,\"lng\":-118.2697771,\"zipcode\":\"90015\",\"city\":\"Los Angeles\",\"neighborhood\":\"Downtown\"},{\"location\":\"Dolby Theatre\",\"address\":\"6801 Hollywood Blvd. Los Angeles, \",\"formattedAddress\":\"6801 Hollywood Blvd, Los Angeles, CA 90028, USA\",\"neighborhood\":\"Hollywood\",\"lat\":34.1025903,\"lng\":-118.3400444,\"zipcode\":\"90028\"},{\"location\":\"Richard and Karen Carpenter Center\",\"address\":\"6200 E Atherton St, Long Beach 90815, us\",\"formattedAddress\":\"6200 E Atherton St, Long Beach, CA 90815, USA\",\"neighborhood\":null,\"lat\":33.788396,\"lng\":-118.1126051,\"zipcode\":\"90815\"},{\"location\":\"The Beverly Hilton\",\"address\":\"9876 Wilshire Blvd, Beverly Hills, CA   \",\"formattedAddress\":\"9876 Wilshire Blvd, Beverly Hills, CA 90210, USA\",\"lat\":34.0668695,\"lng\":-118.4135112,\"zipcode\":\"90210\",\"city\":\"Beverly Hills\",\"neighborhood\":\"Century City\"},{\"location\":\"Club Bahia\",\"address\":\"1130 W. Sunset Blvd. Los Angeles, \",\"formattedAddress\":\"1130 Sunset Blvd, Los Angeles, CA 90012, USA\",\"lat\":34.0663088,\"lng\":-118.2498753,\"zipcode\":\"90012\",\"city\":\"Los Angeles\",\"neighborhood\":\"Echo Park\"},{\"location\":\"Mayan Theater\",\"address\":\"1038 S. Hill St. Los Angeles CA\"},{\"location\":\"The Edye  The Broad Stage\",\"address\":\"1310 11th St Santa Monica, CA, \",\"formattedAddress\":\"1310 11th St, Santa Monica, CA 90401, USA\",\"neighborhood\":\"Downtown\",\"lat\":34.022176,\"lng\":-118.4898567,\"zipcode\":\"90401\"}]"]