[{"location":"East L.A. Civic Center","address":"4801 E. 3rd St. Los Angeles, ","formattedAddress":"4801 E 3rd St, East Los Angeles, CA 90022, USA","lat":34.0338737,"lng":-118.1606291,"zipcode":"90022","city":"East Los Angeles"},{"location":"IMAX THEATER, CALIFORNIA SCIENCE CENTER","address":"700 Exposition Los Angeles, ","formattedAddress":"700 Exposition Blvd, Los Angeles, CA 90037, USA","lat":34.0181226,"lng":-118.2869634,"zipcode":"90037","city":"Los Angeles","neighborhood":"South Los Angeles"},{"location":"Glen Helen Amphitheater","address":"2575 Glen Helen Parkway San Bernardino, ","formattedAddress":"2575 Glen Helen Pkwy, San Bernardino, CA 92407, USA","lat":34.2041727,"lng":-117.4018768,"zipcode":"92407","city":"San Bernardino"},{"location":"Ham & Eggs Tavern","address":"433 W. Eighth St. Los Angeles, ","formattedAddress":"433 W 8th St, Los Angeles, CA 90014, USA","lat":34.0452285,"lng":-118.2565429,"zipcode":"90014","city":"Los Angeles","neighborhood":"Central LA"},{"location":"Hard Rock Cafe Hollywood","address":"6801 Hollywood Blvd. Los Angeles, ","formattedAddress":"6801 Hollywood Blvd, Los Angeles, CA 90028, USA","lat":34.1025489,"lng":-118.3401051,"zipcode":"90028","city":"Los Angeles","neighborhood":"Hollywood"},{"location":"Redondo Beach Pier","address":"100 Fisherman's Wharf Redondo Beach, ","formattedAddress":"100 Fishermans Wharf, Redondo Beach, CA 90277, USA","lat":33.8390803,"lng":-118.3909962,"zipcode":"90277","city":"Redondo Beach","neighborhood":"South Redondo"},{"location":"Catalina Classic Cruises","address":"1046 Queens Highway Long Beach, ","formattedAddress":"1046 Queens Hwy, Long Beach, CA 90802, USA","lat":33.7533395,"lng":-118.1929024,"zipcode":"90802","city":"Long Beach","neighborhood":"Queensway Bay"},{"location":"Levitt Pavilion at MacArthur Park","address":"2230 W. Sixth St. Los Angeles, ","formattedAddress":"2230 W 6th St, Los Angeles, CA 90057, USA","lat":34.060205,"lng":-118.2770517,"zipcode":"90057","city":"Los Angeles","neighborhood":"Central LA"},{"location":"Rialto Theatre","address":"1023 Fair Oaks Ave. South Pasadena, ","formattedAddress":"1023 Fair Oaks Ave, South Pasadena, CA 91030, USA","lat":34.1139989,"lng":-118.1505842,"zipcode":"91030","city":"South Pasadena"},{"location":"Space Gallery","address":"250 W. Second St. Pomona, ","formattedAddress":"250 W 2nd St, Pomona, CA 91766, USA","lat":34.0576002,"lng":-117.7518573,"zipcode":"91766","city":"Pomona","neighborhood":"Westmont"},{"location":"Rusty's Surf Ranch","address":"256 Santa Monica Pier Santa Monica, ","formattedAddress":"256 Santa Monica Pier, Santa Monica, CA 90401, USA","lat":34.009825,"lng":-118.4964852,"zipcode":"90401","city":"Santa Monica"},{"location":"Montalban Theatre","address":"1615 Vine St. Los Angeles, ","formattedAddress":"1615 Vine St, Los Angeles, CA 90028, USA","lat":34.1002972,"lng":-118.3271407,"zipcode":"90028","city":"Los Angeles","neighborhood":"Central LA"},{"location":"Courtyard by Marriott Los Angeles Westside","address":"6333 Bristol Parkway Culver City, ","formattedAddress":"6333 Bristol Pkwy, Culver City, CA 90230, USA","lat":33.9817278,"lng":-118.3923922,"zipcode":"90230","city":"Culver City","neighborhood":"Fox Hills"},{"location":"The Marke","address":"3311 S. Main St. Los Angeles, ","formattedAddress":"3311 S Main St, Los Angeles, CA 90007, USA","lat":34.0191706,"lng":-118.2727069,"zipcode":"90007","city":"Los Angeles","neighborhood":"South Los Angeles"},{"location":"Eagle Rock Recreation Center","address":"1100 Eagle Vista Dr. Eagle Rock, California 90041 323-254-5068","formattedAddress":"1100 Eagle Vista Dr, Los Angeles, CA 90041, USA","lat":34.1426646,"lng":-118.1891838,"zipcode":"90041","city":"Los Angeles","neighborhood":"Northeast Los Angeles"},{"location":"Levitt Pavilion Pasadena","address":"85 E. Holly St. Pasadena, ","formattedAddress":"85 E Holly St, Pasadena, CA 91103, USA","lat":34.1478774,"lng":-118.1486,"zipcode":"91103","city":"Pasadena"},{"location":"St. Andrews Park","address":"8701 S. St. Andrews Place Los Angeles, ","formattedAddress":"8701 S St Andrews Pl, Los Angeles, CA 90047, USA","lat":33.9590948,"lng":-118.3114844,"zipcode":"90047","city":"Los Angeles","neighborhood":"South Los Angeles"},{"location":"Ochi Projects","address":"3301 W Washington Blvd Los Angeles, ","formattedAddress":"3301 W Washington Blvd, Los Angeles, CA 90018, USA","lat":34.0400848,"lng":-118.3202208,"zipcode":"90018","city":"Los Angeles","neighborhood":"Central LA"},{"location":"Myriam Despujoulets Frankel","address":"7547 Melrose Ave. Los Angeles, ","formattedAddress":"7547 Melrose Ave, Los Angeles, CA 90046, USA","lat":34.0838354,"lng":-118.3544044,"zipcode":"90046","city":"Los Angeles","neighborhood":"Central LA"},{"location":"jessie koch","address":"thailand, bangkok Blackwell, Arkansas 72823 702-508-5200"},{"location":"Clara Jane","address":"Holiday Inn Bangkok Silom Bangkok, Thailand Bangkok, Thailand, Thailand 17611 702-508-5200","formattedAddress":"981 Silom Rd, Khwaeng Silom, Khet Bang Rak, Krung Thep Maha Nakhon 10500, Thailand","lat":13.722845,"lng":100.519658,"zipcode":"10500","neighborhood":"Khwaeng Silom"},{"location":"The Standard Downtown","address":"550 S. Flower St. Los Angeles, ","formattedAddress":"550 S Flower St, Los Angeles, CA 90071, USA","lat":34.0501654,"lng":-118.2569631,"zipcode":"90071","city":"Los Angeles","neighborhood":"Central LA"},{"location":"Andrea Montoya","address":"1773 W. San Bernardino Road C 31 West Covina, California 91790 626-856-3889","formattedAddress":"1773 W San Bernardino Rd, West Covina, CA 91790, USA","lat":34.0907859,"lng":-117.9402235,"zipcode":"91790","city":"West Covina","neighborhood":"Walnut Valley"},{"location":"The Connection Of Everything","address":"7547 Melrose Ave LA, ","formattedAddress":"7547 Melrose Ave, Los Angeles, CA 90046, USA","lat":34.0838354,"lng":-118.3544044,"zipcode":"90046","city":"Los Angeles","neighborhood":"Central LA"},{"location":"Stoner Recreation Center","address":"1835 Stoner Ave. Los Angeles, ","formattedAddress":"1835 Stoner Ave, Los Angeles, CA 90025, USA","lat":34.0384978,"lng":-118.453568,"zipcode":"90025","city":"Los Angeles","neighborhood":"Sawtelle"},{"location":"Knott's Berry Farm","address":"8039 Beach Blvd. Buena Park, ","formattedAddress":"8039 Beach Blvd, Buena Park, CA 90620, USA","lat":33.843854,"lng":-118.0001748,"zipcode":"90620","city":"Buena Park"},{"location":"Pacific Palisades Americanism Parade","address":"15120-15140 Sunset Blvd. Los Angeles, CA","formattedAddress":"15140 Sunset Blvd, Pacific Palisades, CA 90272, USA","lat":34.0456266,"lng":-118.5243142,"zipcode":"90272","city":"Los Angeles","neighborhood":"Pacific Palisades"},{"location":"Laemmle's NoHo 7","address":"5240 Lankershim Blvd North Hollywood, ","formattedAddress":"5240 Lankershim Blvd, North Hollywood, CA 91601, USA","lat":34.1661289,"lng":-118.3749957,"zipcode":"91601","city":"Los Angeles","neighborhood":"North Hollywood"},{"location":"Pacific Amphitheatre","address":"100 Fair Dr. Costa Mesa, ","formattedAddress":"100 Fair Dr, Costa Mesa, CA 92626, USA","lat":33.6658039,"lng":-117.9047929,"zipcode":"92626","city":"Costa Mesa"},{"location":"Village Runner","address":"1811 S. Catalina Ave. Redondo Beach, ","formattedAddress":"1811 S Catalina Ave, Redondo Beach, CA 90277, USA","lat":33.8165253,"lng":-118.3874705,"zipcode":"90277","city":"Redondo Beach","neighborhood":"South Redondo"},{"location":"Riviera Village","address":"1811 S. Catalina Ave. Redondo Beach, California 90277 310-375-2626","formattedAddress":"1811 S Catalina Ave, Redondo Beach, CA 90277, USA","lat":33.8165253,"lng":-118.3874705,"zipcode":"90277","city":"Redondo Beach","neighborhood":"South Redondo"},{"location":"Visual Artists Group","address":"5239 Melrose Ave. Los Angeles, ","formattedAddress":"5239 Melrose Ave, Los Angeles, CA 90038, USA","lat":34.0836907,"lng":-118.3149579,"zipcode":"90038","city":"Los Angeles","neighborhood":"Central LA"},{"location":"Pomona Fairplex","address":"1101 W. McKinley Ave. Pomona, ","formattedAddress":"1101 W McKinley Ave, Pomona, CA 91768, USA","lat":34.0809612,"lng":-117.7651993,"zipcode":"91768","city":"Pomona","neighborhood":"Westmont"},{"location":"Mama Shelter","address":"6500 Selma Ave. Los Angeles, ","formattedAddress":"6500 Selma Ave, Los Angeles, CA 90028, USA","lat":34.0996404,"lng":-118.3311583,"zipcode":"90028","city":"Los Angeles","neighborhood":"Central LA"},{"location":"Tom Bergin's Tavern","address":"840 S. Fairfax Ave. Los Angeles, ","formattedAddress":"840 S Fairfax Ave, Los Angeles, CA 90036, USA","lat":34.0599981,"lng":-118.3625727,"zipcode":"90036","city":"Los Angeles","neighborhood":"Central LA"},{"location":"Girls Who Code","address":"Los Angeles Los Angeles, California 90001 646-629-9735","formattedAddress":"629 S Los Angeles St, Los Angeles, CA 90014, USA","lat":34.0440653,"lng":-118.2498969,"zipcode":"90014","city":"Los Angeles","neighborhood":"Central LA"},{"location":"LEVEL","address":"888 S. Olive St. Los Angeles, ","formattedAddress":"888 S Olive St, Los Angeles, CA 90014, USA","lat":34.04386,"lng":-118.2577227,"zipcode":"90014","city":"Los Angeles","neighborhood":"Downtown"},{"location":"Echo Park Film Center","address":"1200 N. Alvarado St. Los Angeles, ","formattedAddress":"1200 N Alvarado St, Los Angeles, CA 90026, USA","lat":34.078137,"lng":-118.262864,"zipcode":"90026","city":"Los Angeles","neighborhood":"Echo Park"},{"location":"Culver City City Hall Courtyard","address":"9770 Culver Blvd. Culver City, ","formattedAddress":"9770 Culver Blvd, Culver City, CA 90232, USA","lat":34.0213325,"lng":-118.3955343,"zipcode":"90232","city":"Culver City","neighborhood":"Lucerne - Higuera"},{"location":"Seventy7 North","address":"12514 Ventura Blvd. Studio City, ","formattedAddress":"12514 Ventura Blvd, Studio City, CA 91604, USA","lat":34.1425426,"lng":-118.4058007,"zipcode":"91604","city":"Los Angeles","neighborhood":"Studio City"},{"location":"Grand Romance River Boat","address":"200 Aquarium Way, Dock Long Beach, ","formattedAddress":"The Lions Lighthouse for Sight, 200 Aquarium Way, Long Beach, CA 90802, USA","lat":33.7602049,"lng":-118.1941098,"zipcode":"90802","city":"Long Beach","neighborhood":"Downtown"},{"location":"Santa Barbara Bowl","address":"1122 N. Milpas St. Santa Barbara, ","formattedAddress":"1122 N Milpas St, Santa Barbara, CA 93103, USA","lat":34.4326564,"lng":-119.6938129,"zipcode":"93103","city":"Santa Barbara","neighborhood":"Lower Riviera"},{"location":"94th Aero Squadron","address":"16320 Raymer Ave. Van Nuys, ","formattedAddress":"16320 Raymer St, Van Nuys, CA 91406, USA","lat":34.218635,"lng":-118.487894,"zipcode":"91406","city":"Los Angeles","neighborhood":"Van Nuys"},{"location":"Adventure 16 Outdoor & Travel Outfitters","address":"11161 W. Pico Blvd. Los Angeles, ","formattedAddress":"11161 W Pico Blvd, Los Angeles, CA 90064, USA","lat":34.0368375,"lng":-118.4364073,"zipcode":"90064","city":"Los Angeles","neighborhood":"West Los Angeles"},{"location":"The Center at Blessed Sacrament","address":"6636 Selma Ave. Los Angeles, ","formattedAddress":"6636 Selma Ave, Los Angeles, CA 90028, USA","lat":34.0994167,"lng":-118.3344595,"zipcode":"90028","city":"Los Angeles","neighborhood":"Central LA"},{"location":"La Luz de Jesus Gallery","address":"4633 Hollywood Blvd. Los Angeles, ","formattedAddress":"4633 Hollywood Blvd, Los Angeles, CA 90027, USA","lat":34.1004237,"lng":-118.2899669,"zipcode":"90027","city":"Los Angeles","neighborhood":"Central LA"},{"location":"The Pico Union Project","address":"1153 Valencia St. Los Angeles, ","formattedAddress":"1153 Valencia St, Los Angeles, CA 90015, USA","lat":34.045717,"lng":-118.2743074,"zipcode":"90015","city":"Los Angeles","neighborhood":"Central LA"},{"location":"Munson Recital Hall","address":"901 E. Alosta Ave. Azusa, ","formattedAddress":"901 E Alosta Ave, Azusa, CA 91702, USA","lat":34.1291939,"lng":-117.8890242,"zipcode":"91702","city":"Azusa"},{"location":"W Hollywood, The Loft","address":"6250 Hollywood Blvd Los Angeles, California 90028 323-798-1300","formattedAddress":"6250 Hollywood Blvd, Los Angeles, CA 90028, USA","lat":34.1010195,"lng":-118.3254155,"zipcode":"90028","city":"Los Angeles","neighborhood":"Hollywood"},{"location":"Kalye Hits Bar & Restaurant","address":"4161 Beverly Blvd. Los Angeles, ","formattedAddress":"4161 Beverly Blvd, Los Angeles, CA 90004, USA","lat":34.0764425,"lng":-118.2998689,"zipcode":"90004","city":"Los Angeles","neighborhood":"Hollywood"},{"location":"FD Studios Rooftop","address":"1048 Santee St. Los Angeles, ","formattedAddress":"1048 Santee St, Los Angeles, CA 90015, USA","lat":34.0378478,"lng":-118.2558627,"zipcode":"90015","city":"Los Angeles","neighborhood":"Central LA"},{"location":"Everything But Water","address":"22333 Pacific Coast Highway, Suite 170 Malibu, ","formattedAddress":"22333 Pacific Coast Hwy #170, Malibu, CA 90265, USA","lat":34.0396757,"lng":-118.66086,"zipcode":"90265","city":"Malibu","neighborhood":"Eastern Malibu"},{"location":"Everything But Water","address":"220 26th St. Santa Monica, California 90402 424-280-7896","formattedAddress":"220 26th St, Santa Monica, CA 90402, USA","lat":34.0476963,"lng":-118.4915163,"zipcode":"90402","city":"Santa Monica","neighborhood":"North of Montana"},{"location":"Rainbow Lagoon Park","address":"400 E. Shoreline Village Dr. Long Beach, ","formattedAddress":"400 Shoreline Village Dr, Long Beach, CA 90802, USA","lat":33.7636937,"lng":-118.1881779,"zipcode":"90802","city":"Long Beach","neighborhood":"Waterfront"},{"location":"DiPiazza's Restaurant & Lounge","address":"5205 E. Pacific Coast Highway Long Beach, ","formattedAddress":"5205 E Pacific Coast Hwy, Long Beach, CA 90815, USA","lat":33.7827075,"lng":-118.131961,"zipcode":"90804","city":"Long Beach","neighborhood":"Park Estates"},{"location":"Handbag Factory","address":"1336 S. Grand Ave. Los Angeles, ","formattedAddress":"1336 S Grand Ave, Los Angeles, CA 90015, USA","lat":34.0379195,"lng":-118.2647791,"zipcode":"90015","city":"Los Angeles","neighborhood":"Downtown"},{"location":"JOSHUA TREE IMPROV/COMEDY FESTIVAL JULY 7-9","address":"Hi Desert Cultural Center, 61231 Highway 62 Joshua Tree, ","formattedAddress":"61231 Twentynine Palms Highway, Joshua Tree, CA 92252, USA","lat":34.1340999,"lng":-116.327492,"zipcode":"92252","city":"Joshua Tree"},{"location":"Lyric-Hyperion Theater & Cafe","address":"2106 Hyperion Ave. Los Angeles, ","formattedAddress":"2106 Hyperion Ave, Los Angeles, CA 90026, USA","lat":34.0988601,"lng":-118.273745,"zipcode":"90026","city":"Los Angeles","neighborhood":"Central LA"},{"location":"Drew Barnett","address":"1288 S. La Brea Ave. Los Angeles, California 90019 714-615-1272","formattedAddress":"1288 South La Brea Ave, Los Angeles, CA 90019, USA","lat":34.050674,"lng":-118.343833,"zipcode":"90019","city":"Los Angeles","neighborhood":"Central LA"},{"location":"Shape Up LA","address":"19564 Ventura Blvd Tarzana, ","formattedAddress":"19564 Ventura Blvd, Tarzana, CA 91356, USA","lat":34.1727814,"lng":-118.5593711,"zipcode":"91356","city":"Los Angeles","neighborhood":"Tarzana"},{"location":"Laemmle's NoHo 7","address":"5240 Lankershim Blvd. Los Angeles, ","formattedAddress":"5240 Lankershim Blvd, North Hollywood, CA 91601, USA","lat":34.1661289,"lng":-118.3749957,"zipcode":"91601","city":"Los Angeles","neighborhood":"North Hollywood"},{"location":"Alamitos Beach","address":"386 E. Shoreline Dr. Long Beach, ","formattedAddress":"386 E Shoreline Dr, Long Beach, CA 90802, USA","lat":33.7614113,"lng":-118.1867081,"zipcode":"90802","city":"Long Beach","neighborhood":"Downtown"},{"location":"Beverly Hills Presbyterian Church","address":"505 N. Rodeo Beverly Hills, ","formattedAddress":"505 N Rodeo Dr, Beverly Hills, CA 90210, USA","lat":34.0711053,"lng":-118.4054536,"zipcode":"90210","city":"Beverly Hills","neighborhood":"The Flats"},{"location":"41 Ocean","address":"1541 Ocean Ave. Santa Monica, ","formattedAddress":"1541 Ocean Ave, Santa Monica, CA 90401, USA","lat":34.0120232,"lng":-118.4950328,"zipcode":"90401","city":"Santa Monica"},{"location":"WeVillage","address":"13335 Ventura Blvd. Sherman Oaks, ","formattedAddress":"13335 Ventura Blvd, Sherman Oaks, CA 91423, USA","lat":34.1470662,"lng":-118.4237508,"zipcode":"91423","city":"Los Angeles","neighborhood":"Sherman Oaks"},{"location":"Warner Brothers Studios","address":"199 S Cordova St. Burbank, ","formattedAddress":"199 S Cordova St, Burbank, CA 91505, USA","lat":34.1510259,"lng":-118.3376646,"zipcode":"91505","city":"Burbank","neighborhood":"Warner Bros. Studios"},{"location":"Coaxial Arts","address":"1815 S. Main St. Los Angeles, ","formattedAddress":"1815 S Main St, Los Angeles, CA 90015, USA","lat":34.0318646,"lng":-118.2642787,"zipcode":"90015","city":"Los Angeles","neighborhood":"South Los Angeles"},{"location":"Downtown Denver","address":"1701 WYNKOOP Denver, Colorado 80202 303-913-9203","formattedAddress":"1701 Wynkoop St, Denver, CO 80202, USA","lat":39.7531224,"lng":-105.0001446,"zipcode":"80202","city":"Denver","neighborhood":"Central"},{"location":"Community Woodshop","address":"2558 N. San Fernando Rd. Los Angeles, ","formattedAddress":"2558 N San Fernando Rd, Los Angeles, CA 90065, USA","lat":34.1080112,"lng":-118.2417234,"zipcode":"90065","city":"Los Angeles","neighborhood":"Northeast Los Angeles"},{"location":"Huntington Beach Library Theater","address":"7111 Talbert Ave. Huntington Beach, ","formattedAddress":"7111 Talbert Ave, Huntington Beach, CA 92648, USA","lat":33.7018176,"lng":-118.0045577,"zipcode":"92648","city":"Huntington Beach"},{"location":"DENK Gallery","address":"749 E. Temple St. Los Angeles, ","formattedAddress":"749 E Temple St, Los Angeles, CA 90012, USA","lat":34.0502609,"lng":-118.2318875,"zipcode":"90012","city":"Los Angeles","neighborhood":"Central LA"},{"location":"Gregorio Escalante Gallery","address":"978 Chung King Rd. Los Angeles, California 90012 323-697-8727","formattedAddress":"978 Chung King Rd, Los Angeles, CA 90012, USA","lat":34.0667686,"lng":-118.237959,"zipcode":"90012","city":"Los Angeles","neighborhood":"Central LA"},{"location":"Ann and Jerry Moss Theater","address":"131 Olympic Blvd Santa Monica, California 90404 310-828-5582","formattedAddress":"131 Olympic Blvd, Santa Monica, CA 90401, USA","lat":34.0123909,"lng":-118.4893125,"zipcode":"90401","city":"Santa Monica"},{"location":"Steckel Park","address":"8080 Mistletoe Rd., off Hwy. 150 Santa Paula, ","formattedAddress":"Steckel Park, Santa Paula, CA 93060, USA","lat":34.4101489,"lng":-119.0816284,"zipcode":"93060","city":"Santa Paula"},{"location":"Pasadena Towers Parking Structure","address":"55 S. Lake Ave. Pasadena, ","formattedAddress":"55 S Lake Ave, Pasadena, CA 91101, USA","lat":34.1449613,"lng":-118.1330977,"zipcode":"91101","city":"Pasadena"},{"location":"The Grove","address":"189 The Grove Dr. Los Angeles, ","formattedAddress":"189 The Grove Dr, Los Angeles, CA 90036, USA","lat":34.0719465,"lng":-118.3565836,"zipcode":"90036","city":"Los Angeles","neighborhood":"Central LA"},{"location":"Pierpont Beach","address":"Seaward Ave. Ventura, ","formattedAddress":"N Seaward Ave, Ventura, CA 93001, USA","lat":34.2776325,"lng":-119.2645006,"zipcode":"93001","city":"Ventura"},{"location":"Soul Balance Yoga","address":"10502 W Magnolia Blvd Los Angeles, ","formattedAddress":"10502 W Magnolia Blvd, North Hollywood, CA 91601, USA","lat":34.1647746,"lng":-118.3595996,"zipcode":"91601","city":"Los Angeles","neighborhood":"North Hollywood"},{"location":"Paseo Colorado","address":"280 E. Colorado Blvd. Pasadena, ","formattedAddress":"280 E Colorado Blvd, Pasadena, CA 91101, USA","lat":34.1441936,"lng":-118.142166,"zipcode":"91101","city":"Pasadena"},{"location":"Wallspace","address":"607 N. La Brea Los Angeles, Ca 90036 323-930-0471","formattedAddress":"607 N La Brea Ave, Los Angeles, CA 90036, USA","lat":34.0821626,"lng":-118.344389,"zipcode":"90036","city":"Los Angeles","neighborhood":"Central LA"},{"location":"Shoreline Aquatic Park","address":"100 Aquarium Way Long Beach, California 90802 888-245-9455","formattedAddress":"100 Aquarium Way, Long Beach, CA 90802, USA","lat":33.7621452,"lng":-118.1969144,"zipcode":"90802","city":"Long Beach","neighborhood":"Waterfront"},{"location":"Alamitos Beach","address":"700 E Shoreline Dr. Long Beach, California 90802 310-906-3800","formattedAddress":"700 E Shoreline Dr, Long Beach, CA 90802, USA","lat":33.7636517,"lng":-118.1833089,"zipcode":"90802","city":"Long Beach","neighborhood":"Downtown"},{"location":"Irvine Barclay Theatre","address":"4242 Campus Dr. Irvine, ","formattedAddress":"Irvine Barclay Theater, 4242 Campus Dr, Irvine, CA 92697, USA","lat":33.6491845,"lng":-117.8408089,"zipcode":"92697","city":"Irvine"},{"location":"Frozen Fruit Co","address":"729 Montana Avenue, Suite 2 Santa Monica, ","formattedAddress":"729 Montana Ave #2, Santa Monica, CA 90403, USA","lat":34.0275582,"lng":-118.5011988,"zipcode":"90403","city":"Santa Monica","neighborhood":"North of Montana"},{"location":"Oak Park","address":"300 W. Alamar Santa Barbara, ","formattedAddress":"300 Alamar Avenue, Santa Barbara, CA 93105, USA","lat":34.43315279999999,"lng":-119.7262592,"zipcode":"93105","city":"Santa Barbara","neighborhood":"Oak Park"},{"location":"Morgan-Wixson Theatre","address":"2627 Pico Blvd. Santa Monica, ","formattedAddress":"2627 Pico Blvd, Santa Monica, CA 90405, USA","lat":34.0237571,"lng":-118.4619338,"zipcode":"90405","city":"Santa Monica","neighborhood":"Pico"},{"location":"David Richard","address":"Lisbon, Portugal Lisbon, Maine 44432 702-508-5200","formattedAddress":"Rua Coelho da Rocha N113 4DTO, 1350-077 Lisboa, Portugal","lat":38.716468,"lng":-9.168790999999999,"zipcode":"1350-077","city":"Lisboa"},{"location":"Matt Denny's Ale House","address":"145 E. Huntington Dr. Arcadia, ","formattedAddress":"145 E Huntington Dr, Arcadia, CA 91006, USA","lat":34.1403916,"lng":-118.0263792,"zipcode":"91006","city":"Arcadia"},{"location":"Sheraton Grand Hotel","address":"711 S. Hope St. Los Angeles, ","formattedAddress":"711 S Hope St, Los Angeles, CA 90017, USA","lat":34.047875,"lng":-118.2584711,"zipcode":"90017","city":"Los Angeles","neighborhood":"Downtown"},{"location":"Sofitel L.A.","address":"8555 Beverly Blvd. Los Angeles, ","formattedAddress":"8555 Beverly Blvd, Los Angeles, CA 90048, USA","lat":34.0763464,"lng":-118.3774857,"zipcode":"90048","city":"Los Angeles","neighborhood":"Central LA"},{"location":"Tradesy","address":"1217 2nd St Santa Monica, ","formattedAddress":"1217 2nd St, Santa Monica, CA 90401, USA","lat":34.0173569,"lng":-118.499406,"zipcode":"90401","city":"Santa Monica","neighborhood":"Downtown"},{"location":"Hotel Indigo Los Angeles Downtown","address":"899 Francisco St Los Angeles, ","formattedAddress":"899 Francisco St, Los Angeles, CA 90017, USA","lat":34.0469756,"lng":-118.2643616,"zipcode":"90017","city":"Los Angeles","neighborhood":"Central LA"},{"location":"Figueroa at Wilshire","address":"601 S. Figueroa St. Los Angeles, ","formattedAddress":"Figueroa at Wilshire, 601 S Figueroa St, Los Angeles, CA 90017, USA","lat":34.0508105,"lng":-118.2592862,"zipcode":"90017","city":"Los Angeles","neighborhood":"Central LA"},{"location":"Munich, Germany","address":"2360 Corporate Circle, Suite 400 Henderson, NV 89074-7722, USA Munich, WA 09111 650-268-9744"},{"location":"kevin proy","address":"2360 Corporate Circle, Suite 400 Henderson, NV 89074-7722, USA Munich, berlin 09111 165-026-8974"},{"location":"kevin proy","address":"http://syntheticbiology.conferenceseries.com/ Munich, Georgia 09111 702-508-5200"},{"location":"Australian Consulate- General of Los Angeles","address":"2029 Century Park E Ste 3150 Los Angeles, ","formattedAddress":"2029 Century Park E #3150, Los Angeles, CA 90067, USA","lat":34.0594689,"lng":-118.413944,"zipcode":"90067","city":"Los Angeles","neighborhood":"Century City"},{"location":"DoubleTree Hotel Seattle Airport","address":"18740 International Blvd. Seattle, WA 98188 206-246-8600","formattedAddress":"18740 International Blvd, Seattle, WA 98188, USA","lat":47.4357674,"lng":-122.2946712,"zipcode":"98188","city":"Seattle"},{"location":"Mothers Beach","address":"5825 E. Appian Way Long Beach, ","formattedAddress":"5825 Appian Way, Long Beach, CA 90803, USA","lat":33.7574942,"lng":-118.120274,"zipcode":"90803","city":"Long Beach","neighborhood":"Naples"},{"location":"Atwater Village Theatre","address":"3269 Casitas Ave. Los Angeles, ","formattedAddress":"3269 Casitas Ave, Los Angeles, CA 90039, USA","lat":34.1164165,"lng":-118.2518773,"zipcode":"90039","city":"Los Angeles","neighborhood":"Northeast Los Angeles"},{"location":"El Rey Cantina","address":"2302 Ventura Blvd. Camarillo, ","formattedAddress":"2302 Ventura Blvd, Camarillo, CA 93010, USA","lat":34.2162836,"lng":-119.0391717,"zipcode":"93010","city":"Camarillo"},{"location":"SoulCycle Culver City","address":"8820 Washington Blvd Culver City, ","formattedAddress":"8820 Washington Blvd, Culver City, CA 90232, USA","lat":34.0276943,"lng":-118.3873962,"zipcode":"90232","city":"Culver City","neighborhood":"Lucerne - Higuera"},{"location":"Sgt. Steve Owen Memorial Park (formerly Lancaster City Park)/Big 8 Softball Complex","address":"43063 10th St. West Lancaster, ","formattedAddress":"43063 10th St W, Lancaster, CA 93534, USA","lat":34.6650247,"lng":-118.1506026,"zipcode":"93534","city":"Lancaster"},{"location":"Lobero Theatre","address":"33 E. Canon Perdido St. Santa Barbara, ","formattedAddress":"33 E Canon Perdido St, Santa Barbara, CA 93101, USA","lat":34.4217153,"lng":-119.6999758,"zipcode":"93101","city":"Santa Barbara","neighborhood":"Santa Barbara Downtown"},{"location":"Burton W. Chace Park","address":"13650 Mindanao Way Marina del Rey, ","formattedAddress":"13650 Mindanao Way, Marina Del Rey, CA 90292, USA","lat":33.9773354,"lng":-118.4449661,"zipcode":"90292","city":"Marina del Rey"},{"location":"Mountain Gate Country Club","address":"12445 Mountaingate Dr. Los Angeles, ","formattedAddress":"12445 Mountaingate Dr, Los Angeles, CA 90049, USA","lat":34.1111549,"lng":-118.4891159,"zipcode":"90049","city":"Los Angeles"},{"location":"Pasadena Playhouse","address":"39 S. El Molino Ave. Pasadena, ","formattedAddress":"39 S El Molino Ave, Pasadena, CA 91101, USA","lat":34.1451149,"lng":-118.137375,"zipcode":"91101","city":"Pasadena"},{"location":"Joxer Daly's","address":"11168 Washington Blvd. Culver City, ","formattedAddress":"11168 Washington Blvd, Culver City, CA 90232, USA","lat":34.0077893,"lng":-118.4123399,"zipcode":"90232","city":"Culver City","neighborhood":"Clarkdale"},{"location":"UCLA, Powell Library Building","address":"405 Hilgard Ave. Westwood, ","formattedAddress":"Fowler Museum, 405 Hilgard Ave, Los Angeles, CA 90095, USA","lat":34.0729274,"lng":-118.442983,"zipcode":"90095","city":"Los Angeles","neighborhood":"Westwood"},{"location":"National Intern Day","address":"Los Angeles Los Angeles, Los Angeles 90001 646-842-1951","formattedAddress":"1951 S Los Angeles St, Los Angeles, CA 90011, USA","lat":34.0292484,"lng":-118.2647904,"zipcode":"90011","city":"Los Angeles","neighborhood":"South Los Angeles"},{"location":"Royal High School","address":"1402 Royal Ave. Simi Valley, California 93065 805-306-4875","formattedAddress":"1402 Royal Ave, Simi Valley, CA 93065, USA","lat":34.2641147,"lng":-118.7717782,"zipcode":"93065","city":"Simi Valley"},{"location":"Cisco Grove Campground","address":"48415 Hampshire Rocks Rd Emigrant Gap, ","formattedAddress":"48415 Hampshire Rocks Rd, Emigrant Gap, CA 95715, USA","lat":39.313956,"lng":-120.545861,"zipcode":"95715","city":"Emigrant Gap"},{"location":"PUBLIC Bikes Santa Monica","address":"2714 Main St. Santa Monica, California 90405 424-221-5209","formattedAddress":"2714 Main St, Santa Monica, CA 90405, USA","lat":34.0004663,"lng":-118.482453,"zipcode":"90405","city":"Santa Monica","neighborhood":"Ocean Park"},{"location":"Beach Coders Academy","address":"615 N. Nash St. El Segundo, ","formattedAddress":"615 N Nash St, El Segundo, CA 90245, USA","lat":33.92535040000001,"lng":-118.3881438,"zipcode":"90245","city":"El Segundo"},{"location":"Gnomon School of Visual Effects","address":"1015 N. Cahuenga Blvd. Los Angeles, ","formattedAddress":"1015 N Cahuenga Blvd, Los Angeles, CA 90038, USA","lat":34.0895706,"lng":-118.3291896,"zipcode":"90038","city":"Los Angeles","neighborhood":"Central LA"},{"location":"The Blue Rooster","address":"4661 Hollywood Blvd Los Angeles, California 90027 323-302-5613","formattedAddress":"4661 Hollywood Blvd, Los Angeles, CA 90027, USA","lat":34.1008666,"lng":-118.2907646,"zipcode":"90027","city":"Los Angeles","neighborhood":"Central LA"},{"location":"Gold Diggers","address":"5632 Santa Monica Blvd. Los Angeles, ","formattedAddress":"5632 Santa Monica Blvd, Los Angeles, CA 90038, USA","lat":34.09058720000001,"lng":-118.31256,"zipcode":"90038","city":"Los Angeles","neighborhood":"Hollywood"},{"location":"First Presbyterian Church of Santa Monica","address":"1220 Second St Santa Monica, ","formattedAddress":"1220 2nd St, Santa Monica, CA 90401, USA","lat":34.0167641,"lng":-118.4999258,"zipcode":"90401","city":"Santa Monica"},{"location":"The Groundlings School","address":"7280 Melrose Ave. Los Angeles, California 90046 323-934-4747","formattedAddress":"7280 Melrose Ave, Los Angeles, CA 90046, USA","lat":34.0833445,"lng":-118.3484788,"zipcode":"90046","city":"Los Angeles","neighborhood":"Central LA"},{"location":"Hansen Dam Soccer Complex","address":"11480 Foothill Blvd. Sylmar, ","formattedAddress":"11480 Foothill Blvd, Sylmar, CA 91342, USA","lat":34.2743493,"lng":-118.3815085,"zipcode":"91342","city":"Los Angeles","neighborhood":"Sylmar"},{"location":"CTRL Collective - Downtown Los Angeles","address":"833 S. Spring St, Floor 4 Los Angeles, California 90014 213-239-0086","formattedAddress":"833 S Spring St, Los Angeles, CA 90014, USA","lat":34.042507,"lng":-118.2546976,"zipcode":"90014","city":"Los Angeles","neighborhood":"Downtown"},{"location":"La Plaza de Culturas Y Artes","address":"501 N. Main St. Los Angeles, California 90012 213-542-6200","formattedAddress":"501 N Main St, Los Angeles, CA 90012, USA","lat":34.0564554,"lng":-118.2398448,"zipcode":"90012","city":"Los Angeles","neighborhood":"Central LA"},{"location":"El Condor","address":"3701 Sunset Blvd. Los Angeles, ","formattedAddress":"3701 Sunset Blvd, Los Angeles, CA 90026, USA","lat":34.0908123,"lng":-118.2777042,"zipcode":"90026","city":"Los Angeles","neighborhood":"Silver Lake"},{"location":"Fairmont Miramar Hotel & Bungalows","address":"101 Wilshire Blvd. Santa Monica, ","formattedAddress":"101 Wilshire Blvd, Santa Monica, CA 90401, USA","lat":34.017845,"lng":-118.5014962,"zipcode":"90401","city":"Santa Monica","neighborhood":"Wilshire Montana"},{"location":"La Playa Stadium, Santa Barbara City College","address":"721 Cliff Dr. Santa Barbara, ","formattedAddress":"721 Cliff Dr, Santa Barbara, CA 93109, USA","lat":34.4060713,"lng":-119.6990924,"zipcode":"93109","city":"Santa Barbara","neighborhood":"West Beach"},{"location":"Whitefire Theater","address":"13500 Ventura Blvd. Sherman Oaks, ","formattedAddress":"13500 Ventura Blvd, Sherman Oaks, CA 91423, USA","lat":34.1471717,"lng":-118.4273501,"zipcode":"91423","city":"Los Angeles","neighborhood":"Sherman Oaks"},{"location":"Hollywood Forever Cemetary","address":"6000 Santa Monica Blvd Los Angeles ","formattedAddress":"6000 Santa Monica Blvd, Los Angeles, CA 90038, USA","lat":34.0904912,"lng":-118.3198111,"zipcode":"90038","city":"Los Angeles","neighborhood":"Hollywood"},{"location":"The Edgemar Center for the Arts","address":"2437 Main St., Santa Monica, CA  ","formattedAddress":"2437 Main St, Santa Monica, CA 90405, USA","lat":34.0035616,"lng":-118.4847408,"zipcode":"90405","city":"Santa Monica","neighborhood":"Ocean Park"},{"location":"Montalban Theater","address":"1615 Vine Street Los Angeles, CA  Hollywood ","formattedAddress":"1615 Vine St, Los Angeles, CA 90028, USA","lat":34.1002972,"lng":-118.3271407,"zipcode":"90028","city":"Los Angeles","neighborhood":"Central LA"},{"location":"dublab","address":"4519 Santa Monica Boulevard 4519 Santa Monica Boulevard CA Los Angeles","formattedAddress":"4519 Santa Monica Blvd, Los Angeles, CA 90029, USA","lat":34.0909885,"lng":-118.2870572,"zipcode":"90029","city":"Los Angeles","neighborhood":"Hollywood"},{"location":"The Performing Arts Educational Center","address":"22855 West Mulholland Highway Calabasas ","formattedAddress":"22855 Mulholland Hwy, Calabasas, CA 91302, USA","lat":34.1383023,"lng":-118.6276061,"zipcode":"91302","city":"Calabasas","neighborhood":"Greater Mulwood"},{"location":"344 , Dhula Garden","address":"344 , Dhula Garden Miami CA 33114"},{"location":"Hollywood and Vine St.","address":"Hollywood Blvd &amp; Vine St, Los Angeles, CA Hollywood ","formattedAddress":"Hollywood Blvd & Vine St, Los Angeles, CA 90028, USA","lat":34.1016345,"lng":-118.3267051,"zipcode":"90028","city":"Los Angeles","neighborhood":"Hollywood"},{"location":"St. Charles Borromeo School","address":"10850 Moorpark Street  North Hollywood ","formattedAddress":"10850 Moorpark St, North Hollywood, CA 91602, USA","lat":34.1500286,"lng":-118.3673907,"zipcode":"91602","city":"Los Angeles","neighborhood":"North Hollywood"},{"location":"Groundlings Theatre","address":"7307 Melrose Avenue Los Angeles, California ","formattedAddress":"7307 Melrose Ave, Los Angeles, CA 90046, USA","lat":34.0838002,"lng":-118.3490097,"zipcode":"90046","city":"Los Angeles","neighborhood":"Central LA"},{"location":"ARTifact Forum & Gallery","address":"3827 W. Rosecrans Ave Hawthorne ","formattedAddress":"3827 W Rosecrans Ave, Hawthorne, CA 90250, USA","lat":33.9021849,"lng":-118.3402676,"zipcode":"90250","city":"Hawthorne"},{"location":"Davey's Locker","address":"400 Main Street Newport Beach CA","formattedAddress":"400 Main St, Newport Beach, CA 92661, USA","lat":33.6027472,"lng":-117.8988851,"zipcode":"92661","city":"Newport Beach","neighborhood":"Balboa Peninsula"},{"location":"Boneyard Bistro","address":"13539 Ventura Blvd., Sherman Oaks, CA Sherman Oaks ","formattedAddress":"13539 Ventura Blvd, Sherman Oaks, CA 91423, USA","lat":34.147709,"lng":-118.428398,"zipcode":"91423","city":"Los Angeles","neighborhood":"Sherman Oaks"},{"location":"California Museum of Art Thousand Oaks (CMATO)","address":"1948 Thousand Oaks Blvd Westlake Village ","formattedAddress":"1948 Thousand Oaks Blvd, Thousand Oaks, CA 91362, USA","lat":34.1759445,"lng":-118.8491312,"zipcode":"91362","city":"Thousand Oaks"},{"location":"Kinfolks Country Store","address":"16737 Bell Flower Blvd., Bell Flower, CA. Bellflower ","formattedAddress":"16737 Bellflower Blvd, Bellflower, CA 90706, USA","lat":33.8823105,"lng":-118.1253625,"zipcode":"90706","city":"Bellflower"},{"location":"Hornblower Cruises","address":"13755 Fiji Way 13755 Fiji Way CA 0","formattedAddress":"13755 Fiji Way, Marina Del Rey, CA 90292, USA","lat":33.9725614,"lng":-118.4462468,"zipcode":"90292","city":"Marina del Rey"},{"location":"Atwater Village Theatre","address":"3269 Casitas Ave Los Angeles ","formattedAddress":"3269 Casitas Ave, Los Angeles, CA 90039, USA","lat":34.1164165,"lng":-118.2518773,"zipcode":"90039","city":"Los Angeles","neighborhood":"Northeast Los Angeles"},{"location":"El Segundo Museum of Art (ESMoA)","address":"208 Main St. El Segundo ","formattedAddress":"208 Main St, El Segundo, CA 90245, USA","lat":33.9181864,"lng":-118.4156457,"zipcode":"90245","city":"El Segundo"},{"location":"Protection of the Holy Virgin Russian Orthodox Church Russian Hall","address":"2041 Argyle Ave Los Angeles CA Hollywood ","formattedAddress":"2041 Argyle Ave, Los Angeles, CA 90068, USA","lat":34.1081498,"lng":-118.3255768,"zipcode":"90068","city":"Los Angeles","neighborhood":"Hollywood Hills"},{"location":"Westfield UTC Shopping Center","address":"4545 La Jolla Village Drive, Suite E-25 San Diego, CA ","formattedAddress":"4545 La Jolla Village Dr e, San Diego, CA 92122, USA","lat":32.8706894,"lng":-117.2110084,"zipcode":"92122","city":"San Diego","neighborhood":"University City"},{"location":"Heal the Bay’s Santa Monica Pier Aquarium","address":"1600 Ocean Front Walk  ","formattedAddress":"1600 Ocean Front Walk, Santa Monica, CA 90401, USA","lat":34.010005,"lng":-118.4959934,"zipcode":"90401","city":"Santa Monica"},{"location":"El Camp","address":"2150 Park Place, El Segundo, CA El Segundo ","formattedAddress":"2150 E El Segundo Blvd, El Segundo, CA 90245, USA","lat":33.9162775,"lng":-118.3874744,"zipcode":"90245","city":"El Segundo"},{"location":"Impro Studio","address":"1727 N. Vermont Ave. Los Feliz ","formattedAddress":"1727 N Vermont Ave, Los Angeles, CA 90027, USA","lat":34.1025544,"lng":-118.292196,"zipcode":"90027","city":"Los Angeles","neighborhood":"Central LA"},{"location":"START Los Angeles","address":"2272 Venice Blvd.  Historic West Adams ","formattedAddress":"1500 W Washington Blvd, Los Angeles, CA 90007, USA","lat":34.03954,"lng":-118.290149,"zipcode":"90007","city":"Los Angeles","neighborhood":"Mid City"},{"location":"Chinatown","address":"943 N. Broadway  Los Angeles ","formattedAddress":"943 N Broadway, Los Angeles, CA 90012, USA","lat":34.0652074,"lng":-118.237149,"zipcode":"90012","city":"Los Angeles","neighborhood":"Central LA"},{"location":"Unita","address":"215 ARENA STREET EL SEGUNDO, CA  El Segundo ","formattedAddress":"215 Arena St, El Segundo, CA 90245, USA","lat":33.9184163,"lng":-118.4123651,"zipcode":"90245","city":"El Segundo"},{"location":"The Whale and Ale","address":"327 w 7th San Pedro ","formattedAddress":"327 W 7th St, San Pedro, CA 90731, USA","lat":33.737576,"lng":-118.284183,"zipcode":"90731","city":"Los Angeles","neighborhood":"San Pedro"},{"location":"Angel City Brewery","address":"216 Alameda Street Los Angeles ","formattedAddress":"216 Alameda St, Los Angeles, CA 90012, USA","lat":34.0465361,"lng":-118.2378194,"zipcode":"90012","city":"Los Angeles","neighborhood":"Central LA"},{"location":"Canyon Theatre Guild","address":"24242 Main Street Newhall ","formattedAddress":"24242 Main St, Santa Clarita, CA 91321, USA","lat":34.377909,"lng":-118.5269187,"zipcode":"91321","city":"Santa Clarita","neighborhood":"Newhall"},{"location":"The Community Center of La Cañada Flintridge","address":"4469 Chevy Chase Drive La Canada Flintridge ","formattedAddress":"4469 Chevy Chase Dr, La Cañada Flintridge, CA 91011, USA","lat":34.2041598,"lng":-118.2014764,"zipcode":"91011","city":"La Cañada Flintridge"},{"location":"W Hotel Station Bar","address":"6250 Hollywood Blvd Hollywood ","formattedAddress":"6250 Hollywood Blvd, Los Angeles, CA 90028, USA","lat":34.1009777,"lng":-118.3259236,"zipcode":"90028","city":"Los Angeles","neighborhood":"Hollywood"},{"location":"Riviera Village","address":"1811 S. Catalina Ave., Redondo Beach, CA  Redondo Beach ","formattedAddress":"1811 S Catalina Ave, Redondo Beach, CA 90277, USA","lat":33.8165253,"lng":-118.3874705,"zipcode":"90277","city":"Redondo Beach","neighborhood":"South Redondo"},{"location":"Street","address":"Santa Monica Blvd &amp; Century Park East, Los Angeles  ","formattedAddress":"California Route 2 & Century Park E, Los Angeles, CA 90024, USA","lat":34.063217,"lng":-118.4159655,"zipcode":"90024","city":"Los Angeles","neighborhood":"Century City"},{"location":"KOA at Fairplex","address":"2200 N. White Ave Pomona ","formattedAddress":"2200 N White Ave, Pomona, CA 91768, USA","lat":34.0894572,"lng":-117.7638875,"zipcode":"91768","city":"Pomona","neighborhood":"Westmont"},{"location":"LEVEL","address":"888 S. Olive Street Los Angeles, CA  Downtown ","formattedAddress":"888 S Olive St, Los Angeles, CA 90014, USA","lat":34.04386,"lng":-118.2577227,"zipcode":"90014","city":"Los Angeles","neighborhood":"Downtown"},{"location":"Faultline Bar","address":"4216 Melrose Ave Mid-Wilshire ","formattedAddress":"4216 Melrose Ave, Los Angeles, CA 90029, USA","lat":34.083439,"lng":-118.292403,"zipcode":"90029","city":"Los Angeles","neighborhood":"Central LA"},{"location":"La Brea Bakery","address":"468 S La Brea Ave La Brea ","formattedAddress":"468 South La Brea Ave, Los Angeles, CA 90036, USA","lat":34.0650629,"lng":-118.3436925,"zipcode":"90036","city":"Los Angeles","neighborhood":"Central LA"},{"location":"Pacific Avenue Senior Arts Colony","address":"303 So. Pacific Avenue San Pedro ","formattedAddress":"303 S Pacific Ave, San Pedro, CA 90731, USA","lat":33.7411443,"lng":-118.2881367,"zipcode":"90731","city":"Los Angeles","neighborhood":"San Pedro"},{"location":"QPWZL - Test Facility","address":"Los Angeles - NTL ","formattedAddress":"2999 Overland Ave #118, Los Angeles, CA 90064, USA","lat":34.0326466,"lng":-118.4184096,"zipcode":"90064","city":"Los Angeles","neighborhood":"West Los Angeles"},{"location":"Everything But Water","address":"220 26th Street Santa Monica, CA  ","formattedAddress":"220 26th St, Santa Monica, CA 90402, USA","lat":34.0476963,"lng":-118.4915163,"zipcode":"90402","city":"Santa Monica","neighborhood":"North of Montana"},{"location":"Whittier Narrows Recreation Area","address":"750 Santa Anita Ave., South El Monte, CA South El Monte ","formattedAddress":"750 Santa Anita Ave, South El Monte, CA 91733, USA","lat":34.0371544,"lng":-118.0553561,"zipcode":"91733","city":"South El Monte"},{"location":"The USS Battleship Iowa","address":"250 S. Harbor Blvd 250 S. Harbor Blvd CA 0","formattedAddress":"250 S Harbor Blvd, Los Angeles, CA 90731, USA","lat":33.7422615,"lng":-118.2772823,"zipcode":"90731","city":"Los Angeles","neighborhood":"San Pedro"},{"location":"Culver City Veteran's Auditorium","address":"4117 Overland Ave Culver City CA","formattedAddress":"4117 Overland Ave, Culver City, CA 90230, USA","lat":34.012953,"lng":-118.4026083,"zipcode":"90230","city":"Culver City","neighborhood":"Park West"},{"location":"Skirball Center","address":"2701 N Sepulveda Blvd Los Angeles, CA ","formattedAddress":"2701 N Sepulveda Blvd, Los Angeles, CA 90049, USA","lat":34.124832,"lng":-118.4791916,"zipcode":"90049","city":"Los Angeles"},{"location":"Nishi Honganji Buddhist Temple","address":"815 East First St. Los Angeles Downtown ","formattedAddress":"815 E 1st St, Los Angeles, CA 90012, USA","lat":34.0489847,"lng":-118.2344929,"zipcode":"90012","city":"Los Angeles","neighborhood":"Central LA"},{"location":"Highways Performance Space & Gallery","address":"1651 18th St. Santa Monica ","formattedAddress":"1651 18th St, Santa Monica, CA 90404, USA","lat":34.0236722,"lng":-118.4772538,"zipcode":"90404","city":"Santa Monica"},{"location":"The Secret Rose theatre","address":"11246 Magnolia Blvd. North Hollywood ","formattedAddress":"11246 W Magnolia Blvd, North Hollywood, CA 91601, USA","lat":34.1646919,"lng":-118.3761702,"zipcode":"91601","city":"Los Angeles","neighborhood":"North Hollywood"},{"location":"Edye Second Space at the Broad Stage","address":"1310 11th Street 1310 11th Street CA Santa Monica","formattedAddress":"1310 11th St, Santa Monica, CA 90401, USA","lat":34.0221916,"lng":-118.4900042,"zipcode":"90401","city":"Santa Monica","neighborhood":"Mid-City"},{"location":"Hesse Park","address":"29301 Hawthorne Blvd Rancho Palos Verdes ","formattedAddress":"29301 Hawthorne Blvd, Rancho Palos Verdes, CA 90275, USA","lat":33.7677885,"lng":-118.3926558,"zipcode":"90275","city":"Rancho Palos Verdes"},{"location":"Viper Room","address":"8852 W Sunset Blvd West Hollywood CA","formattedAddress":"8852 Sunset Blvd, West Hollywood, CA 90069, USA","lat":34.0904329,"lng":-118.3850555,"zipcode":"90069","city":"West Hollywood","neighborhood":"Central LA"},{"location":"Belasco","address":"1050 S. Hill Sit  Downtown ","formattedAddress":"1050 Hill St, Los Angeles, CA 90015, USA","lat":34.0402556,"lng":-118.2592519,"zipcode":"90015","city":"Los Angeles","neighborhood":"Downtown"},{"location":"Go For Broke National Education Center in Little Tokyo","address":"355 E. 1st Street Los Angeles ","formattedAddress":"355 E 1st St, Los Angeles, CA 90012, USA","lat":34.0494891,"lng":-118.2396109,"zipcode":"90012","city":"Los Angeles","neighborhood":"Central LA"},{"location":"The Independence","address":"205 Broadway  ","formattedAddress":"205 Broadway, Everett, MA 02149, USA","lat":42.4002492,"lng":-71.0616436,"zipcode":"02149","city":"Everett"},{"location":"Mark Taper Auditorium, Los Angeles Central Library","address":"630 W. 5th Street Los Angeles ","formattedAddress":"630 W 5th St, Los Angeles, CA 90071, USA","lat":34.0506708,"lng":-118.2551963,"zipcode":"90071","city":"Los Angeles","neighborhood":"Central LA"},{"location":"Microsoft Square L.A. LIVE","address":"800 West Olympic Blvd Los Angeles ","formattedAddress":"Lucky Strike Bowling - Los Angeles, 800 W Olympic Blvd, Los Angeles, CA 90015, USA","lat":34.0447954,"lng":-118.2652703,"zipcode":"90015","city":"Los Angeles","neighborhood":"Central LA"},{"location":"CTRL Collective","address":"833 S Spring St, Floor 4 Los Angeles, CA Downtown ","formattedAddress":"833 S Spring St, Los Angeles, CA 90014, USA","lat":34.042507,"lng":-118.2546976,"zipcode":"90014","city":"Los Angeles","neighborhood":"Downtown"},{"location":"Valley Park - Hermosa Beach","address":"2521 Valley Dr Hermosa Beach ","formattedAddress":"2521 Valley Dr, Hermosa Beach, CA 90254, USA","lat":33.873279,"lng":-118.3996948,"zipcode":"90254","city":"Hermosa Beach"},{"location":"Valley Park","address":"Valley &amp; Gould Hermosa Beach ","formattedAddress":"Valley Dr & Gould Ave, Hermosa Beach, CA 90254, USA","lat":33.8745187,"lng":-118.4008471,"zipcode":"90254","city":"Hermosa Beach"},{"location":"The GRAMMY Museum","address":"800 W Olympic BLVD Downtown ","formattedAddress":"Lucky Strike Bowling - Los Angeles, 800 W Olympic Blvd, Los Angeles, CA 90015, USA","lat":34.0447954,"lng":-118.2652703,"zipcode":"90015","city":"Los Angeles","neighborhood":"Central LA"},{"location":"Valley Park - Hermosa Beach","address":"4626 Shadeway Road Hermosa Beach "},{"location":"Alamitos Beach","address":"700 East Shoreline Drive Long Beach ","formattedAddress":"700 E Shoreline Dr, Long Beach, CA 90802, USA","lat":33.7636517,"lng":-118.1833089,"zipcode":"90802","city":"Long Beach","neighborhood":"Downtown"},{"location":"Downtown Women's Center","address":"442 S. San Pedro Street Los Angeles CA 10013","formattedAddress":"442 S San Pedro St, Los Angeles, CA 90011, USA","lat":34.044603,"lng":-118.2434199,"zipcode":"90011","city":"Los Angeles","neighborhood":"Central LA"},{"location":"Campus Theater at Center for the Arts, El Camino College","address":"16007 Crenshaw Boulevard Torrance ","formattedAddress":"16007 Crenshaw Blvd, Torrance, CA 90506, USA","lat":33.8852359,"lng":-118.3284419,"zipcode":"90506","city":"Torrance"},{"location":"Manhattan Beach Country Club","address":"1330 Parkview Ave Manhattan Beach ","formattedAddress":"1330 Parkview Ave, Manhattan Beach, CA 90266, USA","lat":33.9001108,"lng":-118.3900406,"zipcode":"90266","city":"Manhattan Beach"},{"location":"Los Angeles-citywide","address":"Fifth Street and Grand Avenue Los Angeles CA","formattedAddress":"S Grand Ave & W 5th St, Los Angeles, CA 90071, USA","lat":34.0502052,"lng":-118.2539452,"zipcode":"90071","city":"Los Angeles","neighborhood":"Downtown"},{"location":"Monte Verde Park","address":"4626 Shadeway Rd Lakewood ","formattedAddress":"4626 Shadeway Rd, Lakewood, CA 90713, USA","lat":33.84172,"lng":-118.097695,"zipcode":"90713","city":"Lakewood"},{"location":"The Matrix Theatre","address":"7657 Melrose Avenue Los Angeles ","formattedAddress":"7657 Melrose Ave, Los Angeles, CA 90046, USA","lat":34.0839873,"lng":-118.3566708,"zipcode":"90046","city":"Los Angeles","neighborhood":"Central LA"},{"location":"Community Woodshop","address":"3617 San Fernando Rd Glendale ","formattedAddress":"3617 San Fernando Rd, Glendale, CA 91204, USA","lat":34.1209942,"lng":-118.2524988,"zipcode":"91204","city":"Glendale","neighborhood":"Tropico"},{"location":"Warner Brothers Studios","address":"199 S Cordova St Burbank ","formattedAddress":"199 S Cordova St, Burbank, CA 91505, USA","lat":34.1510259,"lng":-118.3376646,"zipcode":"91505","city":"Burbank","neighborhood":"Warner Bros. Studios"},{"location":"Oak Park","address":"300 West Alamar Santa Barbara ","formattedAddress":"300 W Alamar Ave, Santa Barbara, CA 93105, USA","lat":34.43315279999999,"lng":-119.7262592,"zipcode":"93105","city":"Santa Barbara","neighborhood":"Oak Park"},{"location":"Soul Balance Yoga","address":"10502 Magnolia Blvd North Hollywood, California North Hollywood ","formattedAddress":"10502 W Magnolia Blvd, North Hollywood, CA 91601, USA","lat":34.1647746,"lng":-118.3595996,"zipcode":"91601","city":"Los Angeles","neighborhood":"North Hollywood"},{"location":"Fountain Valley Mile Square Sports Park (Field D)","address":"16400 Brookhurst Street Fountain Valley ","formattedAddress":"16400 Brookhurst St, Fountain Valley, CA 92708, USA","lat":33.7251695,"lng":-117.9538429,"zipcode":"92708","city":"Fountain Valley"},{"location":"Griffith Observatory","address":"2800 E. Observatory Road Los Angeles CA","formattedAddress":"Griffith Observatory, 2800 E Observatory Rd, Los Angeles, CA 90027, USA","lat":34.118407,"lng":-118.3004219,"zipcode":"90027","city":"Los Angeles"},{"location":"The Duron Gallery at SPARC (in the Old Venice Police Station)","address":"685 N. Venice Blvd Venice ","formattedAddress":"685 N Venice Blvd, Venice, CA 90291, USA","lat":33.991479,"lng":-118.4585644,"zipcode":"90291","city":"Los Angeles","neighborhood":"Venice"},{"location":"Lois Lambert Gallery- Bergamot Station","address":"2525 Michigan ave.  Santa Monica ","formattedAddress":"2525 Michigan Ave, Santa Monica, CA 90405, USA","lat":34.02778929999999,"lng":-118.4684355,"zipcode":"90405","city":"Santa Monica","neighborhood":"Pico"},{"location":"William Turner Gallery - Bergamot Station","address":"2525 Michigan Avenue Santa Monica ","formattedAddress":"2525 Michigan Ave, Santa Monica, CA 90405, USA","lat":34.02778929999999,"lng":-118.4684355,"zipcode":"90405","city":"Santa Monica","neighborhood":"Pico"},{"location":"The Venice Beach Bordwalk","address":"Ocean Front Walk ","formattedAddress":"Ocean Front Walk, Santa Monica, CA, USA","lat":34.0214523,"lng":-118.5102452,"city":"Santa Monica"},{"location":"Beyond Baroque","address":"681 Venice Blvd Venice ","formattedAddress":"681 Venice Blvd, Venice, CA 90291, USA","lat":33.9913582,"lng":-118.4588907,"zipcode":"90291","city":"Los Angeles","neighborhood":"Venice"},{"location":"Pacific Resident Theatre","address":"703 Venice Boulevard Venice ","formattedAddress":"703 Venice Blvd, Venice, CA 90291, USA","lat":33.9917092,"lng":-118.4580386,"zipcode":"90291","city":"Los Angeles","neighborhood":"Venice"},{"location":"Tarzana Community and Cultural Center","address":"19130 Ventura Blvd. Tarzana, CA  Tarzana ","formattedAddress":"19130 Ventura Blvd, Tarzana, CA 91356, USA","lat":34.1721186,"lng":-118.5497393,"zipcode":"91356","city":"Los Angeles","neighborhood":"Tarzana"},{"location":"Sozenji Buddhist Temple","address":"3020 W. Bevery Bl. Montebello, CA Montebello ","formattedAddress":"3020 W Beverly Blvd, Montebello, CA 90640, USA","lat":34.0234521,"lng":-118.1357703,"zipcode":"90640","city":"Montebello","neighborhood":"South Montebello"},{"location":"Millennium Biltmore Hotel","address":"506 S Grand Ave, Los Angeles, ","formattedAddress":"506 S Grand Ave, Los Angeles, CA 90071, USA","lat":34.0498012,"lng":-118.2539457,"zipcode":"90071","city":"Los Angeles","neighborhood":"Downtown"},{"location":"Union Swapmeet","address":"4632 Santa Monica Blvd Mid-Wilshire ","formattedAddress":"4632 Santa Monica Blvd, Los Angeles, CA 90029, USA","lat":34.090541,"lng":-118.2904536,"zipcode":"90029","city":"Los Angeles","neighborhood":"Hollywood"},{"location":"Sheraton Grand Los Angeles","address":"711 South Hope Street Downtown ","formattedAddress":"711 S Hope St, Los Angeles, CA 90017, USA","lat":34.047875,"lng":-118.2584711,"zipcode":"90017","city":"Los Angeles","neighborhood":"Downtown"},{"location":"Schabarum Regional Park - Rowland Heights","address":"17250 E Colima Rd Rowland Heights ","formattedAddress":"17250 Colima Rd, Hacienda Heights, CA 91745, USA","lat":33.9904768,"lng":-117.9302417,"zipcode":"91745","city":"Hacienda Heights"},{"location":"Cinemark 18 with XD","address":"6081 Center Dr Los Angeles ","formattedAddress":"The Promenade at Howard Hughes Center, 6081 Center Dr, Los Angeles, CA 90045, USA","lat":33.9779824,"lng":-118.3916636,"zipcode":"90045","city":"Los Angeles","neighborhood":"Westchester"},{"location":"The Open Space Theater","address":"457 N. Fairfax Ave  La Brea ","formattedAddress":"457 N Fairfax Ave, Los Angeles, CA 90048, USA","lat":34.0798347,"lng":-118.3617254,"zipcode":"90048","city":"Los Angeles","neighborhood":"Central LA"},{"location":"The Wallis Annenberg Center for the Performing Arts","address":"9390 North Santa Monica Boulevard, Beverly Hills,  ","formattedAddress":"9390 N Santa Monica Blvd, Beverly Hills, CA 90210, USA","lat":34.0722901,"lng":-118.4012055,"zipcode":"90210","city":"Beverly Hills"},{"location":"La Mirada Regional Park","address":"13701 Adelfa Dr La Mirada ","formattedAddress":"13701 Adelfa Dr, La Mirada, CA 90638, USA","lat":33.9061393,"lng":-118.0067342,"zipcode":"90638","city":"La Mirada"},{"location":"mELBOURNE","address":"Melbourne Melbourne CA 3004","formattedAddress":"Melbourne VIC 3004, Australia","lat":-37.8310628,"lng":144.9835803,"zipcode":"3004","city":"Melbourne"},{"location":"The Standard Hollywood","address":"8300 Sunset Blvd. Los Angeles ","formattedAddress":"8300 Sunset Blvd, West Hollywood, CA 90069, USA","lat":34.0958992,"lng":-118.3709743,"zipcode":"90069","city":"West Hollywood","neighborhood":"Central LA"},{"location":"Theatre 40","address":"241 S. Moreno Dr. Beverly Hills ","formattedAddress":"241 S Moreno Dr, Beverly Hills, CA 90212, USA","lat":34.0614775,"lng":-118.4104242,"zipcode":"90212","city":"Beverly Hills"},{"location":"Marine Mammal Care Center Los Angeles","address":"3601 S Gaffey St #8 San Pedro ","formattedAddress":"3601 S Gaffey St #8, San Pedro, CA 90731, USA","lat":33.7114884,"lng":-118.2945385,"zipcode":"90731","city":"Los Angeles","neighborhood":"San Pedro"},{"location":"First Baptist Church of Los Angeles","address":"760 S. Westmoreland Ave. #10 Los Angeles Mid-Wilshire ","formattedAddress":"760 S Westmoreland Ave #10, Los Angeles, CA 90005, USA","lat":34.0583189,"lng":-118.2891034,"zipcode":"90005","city":"Los Angeles","neighborhood":"Central LA"},{"location":"Rush Park","address":"3021 Blume Dr Rossmoor ","formattedAddress":"3021 Blume Dr, Rossmoor, CA 90720, USA","lat":33.783375,"lng":-118.0811275,"zipcode":"90720","city":"Rossmoor"},{"location":"Beckman Mall Lawn at Caltech","address":"332 S. Michigan Ave. Pasadena ","formattedAddress":"332 S Michigan Ave, Pasadena, CA 91106, USA","lat":34.1401365,"lng":-118.1256617,"zipcode":"91106","city":"Pasadena"},{"location":"The Sunset Theater Company","address":"1603 Aviation Blvd. #6 Redondo Beach, CA Redondo Beach ","formattedAddress":"1603 Aviation Blvd #6, Redondo Beach, CA 90278, USA","lat":33.8696523,"lng":-118.3828653,"zipcode":"90278","city":"Redondo Beach","neighborhood":"North Redondo"},{"location":"Thai Town","address":"Hollywood Blvd.  Los Angeles CA","formattedAddress":"Hollywood Blvd, Los Angeles, CA, USA","lat":34.1015885,"lng":-118.3336436,"city":"Los Angeles","neighborhood":"Central LA"},{"location":"Seabird Jazz Lounge","address":"730 E. Broadway Ave. Los Angeles ","formattedAddress":"730 E Broadway, Long Beach, CA 90802, USA","lat":33.7690682,"lng":-118.1830815,"zipcode":"90802","city":"Long Beach","neighborhood":"Downtown"},{"location":"Rosa Mexicano","address":"800 W Olympic Blvd Downtown ","formattedAddress":"Lucky Strike Bowling - Los Angeles, 800 W Olympic Blvd, Los Angeles, CA 90015, USA","lat":34.0447954,"lng":-118.2652703,"zipcode":"90015","city":"Los Angeles","neighborhood":"Central LA"},{"location":"Seabird Jazz Lounge","address":"730 E.Broadway Long Beach ","formattedAddress":"730 E Broadway, Long Beach, CA 90802, USA","lat":33.7690682,"lng":-118.1830815,"zipcode":"90802","city":"Long Beach","neighborhood":"Downtown"},{"location":"Ford Theatres","address":"2580 Cahuenga Blvd. East Hollywood ","formattedAddress":"2580 Cahuenga Blvd E, Los Angeles, CA 90068, USA","lat":34.1140558,"lng":-118.3343777,"zipcode":"90068","city":"Los Angeles","neighborhood":"Central LA"},{"location":"City Club Los Angeles","address":"555 S Flower St Los Angeles ","formattedAddress":"555 S Flower St, Los Angeles, CA 90017, USA","lat":34.0506388,"lng":-118.2575747,"zipcode":"90017","city":"Los Angeles","neighborhood":"Central LA"},{"location":"Venice Beach Recreation Center","address":"1800 Oceanfront Walk Venice ","formattedAddress":"1800 Ocean Front Walk, Venice, CA 90291, USA","lat":33.9856711,"lng":-118.472768,"zipcode":"90291","city":"Los Angeles","neighborhood":"Venice"},{"location":"International Bulk Wine and Spirits Show","address":"Conference Center 255 Boulevard South San Francisco, ","formattedAddress":"255 S Airport Blvd, South San Francisco, CA 94080, USA","lat":37.6474606,"lng":-122.4043781,"zipcode":"94080","city":"South San Francisco"},{"location":"Wilson Park","address":"2200 Crenshaw Blvd Torrance ","formattedAddress":"2200 Crenshaw Blvd, Torrance, CA 90501, USA","lat":33.82494459999999,"lng":-118.3284953,"zipcode":"90501","city":"Torrance"},{"location":"The Zephyr Theatre","address":"7456 Melrose Avenue West Hollywood ","formattedAddress":"7456 Melrose Ave, West Hollywood, CA 90046, USA","lat":34.0833229,"lng":-118.3525757,"zipcode":"90046","city":"West Hollywood","neighborhood":"Central LA"},{"location":"Hansen Dam Soccer Complex","address":"11480 Foothill Blvd. Lake View Terrace ","formattedAddress":"11480 Foothill Blvd, Sylmar, CA 91342, USA","lat":34.2743493,"lng":-118.3815085,"zipcode":"91342","city":"Los Angeles","neighborhood":"Sylmar"},{"location":"THE UNDERGROUND MUSEUM","address":"3508 W Washington Blvd, Los Angeles, ","formattedAddress":"3508 W Washington Blvd, Los Angeles, CA 90018, USA","lat":34.0396861,"lng":-118.3229271,"zipcode":"90018","city":"Los Angeles","neighborhood":"Central LA"},{"location":"Music Centers Walt Disney Concert Hall","address":"111 South Grand Ave. Los Angeles ","formattedAddress":"111 S Grand Ave, Los Angeles, CA 90012, USA","lat":34.0553468,"lng":-118.2499213,"zipcode":"90012","city":"Los Angeles","neighborhood":"Downtown"},{"location":"The Autry Museum of the American West","address":"4700 Western Heritage Way, Griffith Park, Los Angeles Los Feliz ","formattedAddress":"4700 Western Heritage Way, - Griffith Park, Los Angeles, CA 90027, United States","lat":34.14862,"lng":-118.281213,"zipcode":"90027","city":"Los Angeles"},{"location":"William R. Mason Regional Park","address":"18712 University Dr. Irvine, CA ","formattedAddress":"18712 University Dr, Irvine, CA 92612, USA","lat":33.656654,"lng":-117.8326147,"zipcode":"92612","city":"Irvine","neighborhood":"University Town Center"},{"location":"Rowland Heights Center","address":"18150 Pathfinder Rd. Rowland Heights ","formattedAddress":"18150 Pathfinder Rd, Rowland Heights, CA 91748, USA","lat":33.966144,"lng":-117.912631,"zipcode":"91748","city":"Rowland Heights"},{"location":"Fairmont Miramar Hotel & Bungalows","address":"101 Wilshire Blvd Santa Monica ","formattedAddress":"101 Wilshire Blvd, Santa Monica, CA 90401, USA","lat":34.017845,"lng":-118.5014962,"zipcode":"90401","city":"Santa Monica","neighborhood":"Wilshire Montana"},{"location":"Warner Ranch Park","address":"5800 Topanga Canyon Blvd, Woodland Hills Woodland Hills ","formattedAddress":"Warner Park, 5800 Owensmouth Ave, Woodland Hills, CA 91367, USA","lat":34.1761099,"lng":-118.6034632,"zipcode":"91367","city":"Los Angeles","neighborhood":"Woodland Hills"},{"location":"Cesar Chavez Park","address":"401 Golden Ave Long Beach "},{"location":"Hollywood Forever Cemetery","address":"6000 Santa Monica Blvd. Los Angeles, ","formattedAddress":"6000 Santa Monica Blvd, Los Angeles, CA 90038, USA","neighborhood":"Hollywood","lat":34.0904912,"lng":-118.3198111,"zipcode":"90038"},{"location":"Santa Anita Park","address":"285 W. Huntington Dr. Arcadia, ","formattedAddress":"285 W Huntington Dr, Arcadia, CA 91007, USA","lat":34.1365782,"lng":-118.0408645,"zipcode":"91007","city":"Arcadia"},{"location":"Skirball Cultural Center","address":"2701 N. Sepulveda Blvd. Los Angeles, ","formattedAddress":"2701 N Sepulveda Blvd, Los Angeles, CA 90049, USA","neighborhood":null,"lat":34.124832,"lng":-118.4791916,"zipcode":"90049"},{"location":"Huntington Library, Art Collections and Botanical Gardens","address":"1151 Oxford Rd. San Marino, ","formattedAddress":"1151 Oxford Rd, San Marino, CA 91108, USA","neighborhood":null,"lat":34.1278618,"lng":-118.1094516,"zipcode":"91108"},{"location":"Grammy Museum","address":"800 W. Olympic Blvd. Los Angeles, ","formattedAddress":"800 W Olympic Blvd, Los Angeles, CA 90015, USA","neighborhood":"Downtown","lat":34.0449376,"lng":-118.2654979,"zipcode":"90015"},{"location":"Japanese American National Museum","address":"100 N. Central Ave. Los Angeles, ","formattedAddress":"100 N Central Ave, Los Angeles, CA 90012, USA","neighborhood":"Central LA","lat":34.0492148,"lng":-118.2391478,"zipcode":"90012"},{"location":"Greenway Court Theatre","address":"544 N. Fairfax Ave. Los Angeles, ","formattedAddress":"544 N Fairfax Ave, Los Angeles, CA 90036, USA","neighborhood":"Fairfax","lat":34.0814807,"lng":-118.3611756,"zipcode":"90036"},{"location":"The Autry","address":"4700 Western Heritage Way Los Angeles, ","formattedAddress":"4700 Western Heritage Way, Los Angeles, CA 90027, USA","neighborhood":null,"lat":34.1486202,"lng":-118.2812132,"zipcode":"90027"},{"location":"LACMA","address":"5905 Wilshire Blvd. Los Angeles, ","formattedAddress":"5905 Wilshire Blvd, Los Angeles, CA 90036, USA","neighborhood":"Mid-Wilshire","lat":34.0637913,"lng":-118.3588851,"zipcode":"90036"},{"location":"International Printing Museum","address":"315 W. Torrance Blvd. Carson, ","formattedAddress":"315 W Torrance Blvd, Carson, CA 90745, USA","neighborhood":null,"lat":33.8423643,"lng":-118.2822856,"zipcode":"90745"},{"location":"Natural History Museum of Los Angeles County","address":"900 Exposition Blvd. Los Angeles, ","formattedAddress":"900 Exposition Blvd, Los Angeles, CA 90007, USA","neighborhood":"South Los Angeles","lat":34.0170769,"lng":-118.2886818,"zipcode":"90007"},{"location":"Center for Land Use Interpretation","address":"9331 Venice Blvd. Culver City, ","formattedAddress":"9331 Venice Blvd, Culver City, CA 90232, USA","neighborhood":"Palms","lat":34.0259925,"lng":-118.3948444,"zipcode":"90232"},{"location":"Los Angeles Museum of the Holocaust","address":"100 S. The Grove Dr. Los Angeles, ","formattedAddress":"100 The Grove Dr, Los Angeles, CA 90036, USA","neighborhood":"Fairfax","lat":34.074523,"lng":-118.355691,"zipcode":"90036"},{"location":"Venus Over Los Angeles","address":"601 S. Anderson St. Los Angeles, ","formattedAddress":"601 S Anderson St, Los Angeles, CA 90023, USA","neighborhood":"Central LA","lat":34.038945,"lng":-118.2243706,"zipcode":"90023"},{"location":"Edendale Library","address":"2011 W. Sunset Blvd. Los Angeles, ","formattedAddress":"2011 Sunset Blvd, Los Angeles, CA 90026, USA","lat":34.07817,"lng":-118.262319,"zipcode":"90026","city":"Los Angeles","neighborhood":"Echo Park"},{"location":"The Line Hotel","address":"3515 Wilshire Blvd. Los Angeles, ","formattedAddress":"3515 Wilshire Blvd, Los Angeles, CA 90010, USA","neighborhood":"Koreatown","lat":34.0620711,"lng":-118.3010331,"zipcode":"90010"},{"location":"M.i. Westside Comedy Theater","address":"1323-A Third St. Promenade (in the alley betw. Third & Fourth Sts. at Arizona Ave.) Santa Monica, "},{"location":"Commonwealth & Council","address":"3006 W. Seventh St., #220 Los Angeles, ","formattedAddress":"3006 W 7th St #220, Los Angeles, CA 90005, USA","neighborhood":"Wilshire Center","lat":34.0595367,"lng":-118.289449,"zipcode":"90005"},{"location":"Alex's Bar","address":"2913 E. Anaheim St. Long Beach, ","formattedAddress":"2913 E Anaheim St, Long Beach, CA 90804, USA","neighborhood":"Zaferia","lat":33.7828017,"lng":-118.1573649,"zipcode":"90804"},{"location":"Fowler Museum at UCLA","address":"Sunset & Westwood blvds. Westwood, ","formattedAddress":"11461 Sunset Blvd, Los Angeles, CA 90049, USA","neighborhood":"Brentwood","lat":34.072598,"lng":-118.468582,"zipcode":"90049"},{"location":"Page Museum","address":"5801 Wilshire Blvd. Los Angeles, ","formattedAddress":"5801 Wilshire Blvd, Los Angeles, CA 90036, USA","neighborhood":"Mid-Wilshire","lat":34.0638208,"lng":-118.3554627,"zipcode":"90036"},{"location":"Short Stop","address":"1455 Sunset Blvd. Los Angeles, ","formattedAddress":"1455 Sunset Blvd, Los Angeles, CA 90026, USA","neighborhood":"Echo Park","lat":34.0753537,"lng":-118.2535265,"zipcode":"90026"},{"location":"Southwest Museum, Mount Washington Campus","address":"234 Museum Dr. Los Angeles, ","formattedAddress":"234 Museum Dr, Los Angeles, CA 90065, USA","neighborhood":"Northeast Los Angeles","lat":34.1004316,"lng":-118.2061763,"zipcode":"90065"},{"location":"El Floridita Restaurant","address":"1253 N. Vine St. Los Angeles, ","formattedAddress":"1253 Vine St, Los Angeles, CA 90038, USA","neighborhood":"Central LA","lat":34.0940071,"lng":-118.3275855,"zipcode":"90038"},{"location":"The Dresden Restaurant","address":"1760 N. Vermont Ave. Los Angeles, ","formattedAddress":"1760 N Vermont Ave, Los Angeles, CA 90027, USA","neighborhood":"Los Feliz","lat":34.1030944,"lng":-118.2914886,"zipcode":"90027"},{"location":"Grand Star Jazz Club","address":"943 N. Broadway Los Angeles, ","formattedAddress":"943 N Broadway, Los Angeles, CA 90012, USA","neighborhood":"Old Chinatown","lat":34.0652074,"lng":-118.237149,"zipcode":"90012"},{"location":"The Baked Potato","address":"3787 Cahuenga Blvd. W. Studio City, ","formattedAddress":"3787 Cahuenga Blvd, Studio City, CA 91604, USA","neighborhood":"Studio City","lat":34.1366405,"lng":-118.3631491,"zipcode":"91604"},{"location":"The Glass House","address":"200 W. Second St. Pomona, ","formattedAddress":"200 W 2nd St, Pomona, CA 91766, USA","neighborhood":"Westmont","lat":34.05755550000001,"lng":-117.7514339,"zipcode":"91766"},{"location":"Maui Sugar Mill Saloon","address":"18389 Ventura Blvd. Tarzana, ","formattedAddress":"18389 Ventura Blvd, Tarzana, CA 91356, USA","neighborhood":"Tarzana","lat":34.168675,"lng":-118.5327741,"zipcode":"91356"},{"location":"Long Beach Terrace Theater","address":"300 E. Ocean Blvd. Long Beach, ","formattedAddress":"300 E Ocean Blvd, Long Beach, CA 90802, USA","neighborhood":"Waterfront","lat":33.76520350000001,"lng":-118.1893341,"zipcode":"90802"},{"location":"Create Nightclub","address":"6021 Hollywood Blvd. Los Angeles, ","formattedAddress":"6021 Hollywood Blvd, Los Angeles, CA 90028, USA","neighborhood":"Hollywood","lat":34.1020426,"lng":-118.3209169,"zipcode":"90028"},{"location":"Whisky A Go-Go","address":"8901 Sunset Blvd. West Hollywood, ","formattedAddress":"8901 Sunset Blvd, West Hollywood, CA 90069, USA","neighborhood":"Sunset Strip","lat":34.0908403,"lng":-118.3857013,"zipcode":"90069"},{"location":"American Legion Hollywood Post 43","address":"2035 N. Highland Ave. Los Angeles, ","formattedAddress":"2035 Highland Ave, Los Angeles, CA 90068, USA","neighborhood":"Central LA","lat":34.1078175,"lng":-118.337995,"zipcode":"90068"},{"location":"The Rose","address":"245 E. Green St. Pasadena, ","formattedAddress":"245 E Green St, Pasadena, CA 91101, USA","neighborhood":null,"lat":34.1445579,"lng":-118.1450515,"zipcode":"91101"},{"location":"The Lighthouse Cafe","address":"30 Pier Ave. Hermosa Beach, ","formattedAddress":"30 Pier Ave, Hermosa Beach, CA 90254, USA","neighborhood":null,"lat":33.8617548,"lng":-118.4010031,"zipcode":"90254"},{"location":"The Teragram Ballroom","address":"1234 W. Seventh St. Los Angeles, ","formattedAddress":"1234 W 7th St, Los Angeles, CA 90017, USA","neighborhood":"Central LA","lat":34.0518639,"lng":-118.2670623,"zipcode":"90017"},{"location":"The Greek Theatre","address":"2700 N. Vermont Ave. Los Angeles, ","formattedAddress":"2700 N Vermont Ave, Los Angeles, CA 90027, USA","neighborhood":null,"lat":34.1205588,"lng":-118.2963915,"zipcode":"90027"},{"location":"The Cowboy Palace Saloon","address":"21635 Devonshire St. Chatsworth, ","formattedAddress":"21635 Devonshire St, Chatsworth, CA 91311, USA","lat":34.2574868,"lng":-118.6014886,"zipcode":"91311","city":"Los Angeles","neighborhood":"Chatsworth"},{"location":"Cafe NELA","address":"1906 Cypress Ave. Los Angeles, ","formattedAddress":"1906 Cypress Ave, Los Angeles, CA 90065, USA","neighborhood":"Northeast Los Angeles","lat":34.1008484,"lng":-118.2350751,"zipcode":"90065"},{"location":"Sound Nightclub","address":"1642 N. Las Palmas Ave. Los Angeles, ","formattedAddress":"1642 N Las Palmas Ave, Los Angeles, CA 90028, USA","neighborhood":"Central LA","lat":34.1010027,"lng":-118.3357833,"zipcode":"90028"},{"location":"The World Stage","address":"4321 Degnan Blvd. Los Angeles, ","formattedAddress":"4321 Degnan Blvd, Los Angeles, CA 90008, USA","neighborhood":"South Los Angeles","lat":34.0052812,"lng":-118.3317413,"zipcode":"90008"},{"location":"Acerogami","address":"228 W. Second St. Pomona, ","formattedAddress":"228 W 2nd St, Pomona, CA 91766, USA","neighborhood":"Westmont","lat":34.0575391,"lng":-117.751646,"zipcode":"91766"},{"location":"Hollywood Bowl","address":"2301 N. Highland Ave. Los Angeles, ","formattedAddress":"2301 Highland Ave, Los Angeles, CA 90068, USA","lat":34.1127392,"lng":-118.3388562,"zipcode":"90068","city":"Los Angeles","neighborhood":"Central LA"},{"location":"Queen Mary","address":"1126 Queens Highway Long Beach, ","formattedAddress":"1126 Queens Hwy, Long Beach, CA 90802, USA","lat":33.7528705,"lng":-118.1897611,"zipcode":"90802","city":"Long Beach","neighborhood":"Queensway Bay"},{"location":"The Viper Room","address":"8852 W. Sunset Blvd. West Hollywood, ","formattedAddress":"8852 Sunset Blvd, West Hollywood, CA 90069, USA","neighborhood":"Norma Triangle","lat":34.0904329,"lng":-118.3850554,"zipcode":"90069"},{"location":"Hollywood Improv (The Main Room)","address":"8162 Melrose Ave. Hollywood, ","formattedAddress":"8162 Melrose Ave, Los Angeles, CA 90048, USA","neighborhood":"Beverly Grove","lat":34.0834368,"lng":-118.3672735,"zipcode":"90048"},{"location":"Brea Improv","address":"120 S. Brea Blvd Brea, California 92821 714-482-0700","formattedAddress":"120 S Brea Blvd, Brea, CA 92821, USA","neighborhood":null,"lat":33.9193832,"lng":-117.8984393,"zipcode":"92821"},{"location":"The Cinema Bar","address":"3967 Sepulveda Blvd. Culver City, ","formattedAddress":"3967 Sepulveda Blvd, Culver City, CA 90230, USA","neighborhood":"Clarkdale","lat":34.0094096,"lng":-118.4146843,"zipcode":"90230"},{"location":"Silverlake Lounge","address":"2906 Sunset Blvd. Los Angeles, ","formattedAddress":"2906 Sunset Blvd, Los Angeles, CA 90026, USA","neighborhood":"Silver Lake","lat":34.0828261,"lng":-118.2736878,"zipcode":"90026"},{"location":"Union Nightclub","address":"4067 W. Pico Blvd. Los Angeles, ","formattedAddress":"4067 W Pico Blvd, Los Angeles, CA 90019, USA","neighborhood":"Mid City","lat":34.047775,"lng":-118.3241134,"zipcode":"90019"},{"location":"Vibrato Grill & Jazz","address":"2930 Beverly Glen Circle Bel-Air, ","formattedAddress":"2930 Beverly Glen Cir, Los Angeles, CA 90077, USA","neighborhood":null,"lat":34.1272598,"lng":-118.4445141,"zipcode":"90077"},{"location":"House of Blues Anaheim","address":"1530 S. Disneyland Dr. Anaheim, ","formattedAddress":"1530 Disneyland Dr, Anaheim, CA 92802, USA","neighborhood":"Anaheim Resort","lat":33.8095602,"lng":-117.9229746,"zipcode":"92802"},{"location":"The Smell","address":"247 S. Main St. Los Angeles, ","formattedAddress":"247 S Main St, Los Angeles, CA 90012, USA","neighborhood":"Downtown","lat":34.0503352,"lng":-118.2456679,"zipcode":"90012"},{"location":"Avalon Hollywood","address":"1735 Vine St. Los Angeles, ","formattedAddress":"1735 Vine St, Los Angeles, CA 90028, USA","neighborhood":"Hollywood","lat":34.1027185,"lng":-118.3271695,"zipcode":"90028"},{"location":"The Regent Theater","address":"448 S. Main St. Los Angeles, ","formattedAddress":"448 S Main St, Los Angeles, CA 90013, USA","neighborhood":"Downtown","lat":34.046981,"lng":-118.2478,"zipcode":"90013"},{"location":"Genghis Cohen","address":"740 N. Fairfax Ave. Los Angeles, ","formattedAddress":"740 N Fairfax Ave, Los Angeles, CA 90046, USA","neighborhood":"Fairfax","lat":34.0850767,"lng":-118.3611139,"zipcode":"90046"},{"location":"Angel Stadium of Anaheim","address":"2000 Gene Autry Way Anaheim, ","formattedAddress":"2000 E Gene Autry Way, Anaheim, CA 92806, USA","neighborhood":"Platinum Triangle","lat":33.8002902,"lng":-117.8827493,"zipcode":"92806"},{"location":"The Observatory","address":"3503 S. Harbor Blvd. Santa Ana, ","formattedAddress":"3503 S Harbor Blvd, Santa Ana, CA 92704, USA","neighborhood":null,"lat":33.6997648,"lng":-117.9175717,"zipcode":"92704"},{"location":"Blue Whale","address":"123 Astronaut E.S. Onizuka St. Los Angeles, ","formattedAddress":"123 Astronaut E S Onizuka St, Los Angeles, CA 90012, USA","neighborhood":"Downtown","lat":34.0501009,"lng":-118.2421794,"zipcode":"90012"},{"location":"Microsoft Theater","address":"777 Chick Hearn Court Los Angeles, ","formattedAddress":"777 Chick Hearn Ct, Los Angeles, CA 90015, USA","neighborhood":"Downtown","lat":34.044489,"lng":-118.2670519,"zipcode":"90015"},{"location":"Gaslamp Restaurant & Bar","address":"6251 E. Pacific Coast Highway Long Beach, ","formattedAddress":"6251 E Pacific Coast Hwy, Long Beach, CA 90803, USA","neighborhood":"Marina","lat":33.7671249,"lng":-118.1163545,"zipcode":"90803"},{"location":"The Mint","address":"6010 W. Pico Blvd. Los Angeles, ","formattedAddress":"6010 W Pico Blvd, Los Angeles, CA 90035, USA","neighborhood":"Mid City","lat":34.0521634,"lng":-118.3716095,"zipcode":"90035"},{"location":"E.B.'s Beer & Wine Bar, Farmers Market","address":"6333 W. Third St. Los Angeles, ","formattedAddress":"6333 W 3rd St, Los Angeles, CA 90036, USA","lat":34.0719955,"lng":-118.360253,"zipcode":"90036","city":"Los Angeles","neighborhood":"La Brea"},{"location":"Zebulon","address":"2478 Fletcher Dr. Los Angeles, ","formattedAddress":"2478 Fletcher Dr, Los Angeles, CA 90039, USA","lat":34.1071933,"lng":-118.2547325,"zipcode":"90039","city":"Los Angeles"},{"location":"Saban Theatre","address":"8440 W. Wilshire Blvd. Beverly Hills, ","formattedAddress":"8440 Wilshire Blvd, Beverly Hills, CA 90211, USA","neighborhood":null,"lat":34.0645718,"lng":-118.3748496,"zipcode":"90211"},{"location":"HM157","address":"3110 N. Broadway Los Angeles, ","formattedAddress":"3110 N Broadway, Los Angeles, CA 90031, USA","neighborhood":"Montecito Heights","lat":34.0734152,"lng":-118.2086977,"zipcode":"90031"},{"location":"The Troubadour","address":"9081 Santa Monica Blvd. West Hollywood, ","formattedAddress":"9081 Santa Monica Blvd, West Hollywood, CA 90069, USA","neighborhood":"Norma Triangle","lat":34.0815696,"lng":-118.3892793,"zipcode":"90069"},{"location":"Exchange L.A.","address":"618 S. Spring St. Los Angeles, ","formattedAddress":"618 S Spring St, Los Angeles, CA 90014, USA","neighborhood":"Downtown","lat":34.0452545,"lng":-118.2511393,"zipcode":"90014"},{"location":"Au Lac","address":"710 W. First St. Los Angeles, ","formattedAddress":"710 W 1st St, Los Angeles, CA 90012, USA","neighborhood":"Downtown","lat":34.05623300000001,"lng":-118.250806,"zipcode":"90012"},{"location":"D'Vine Lounge Bar","address":"821 S. Flower St, Downtown, ","formattedAddress":"821 S Flower St, Los Angeles, CA 90017, USA","neighborhood":"Downtown","lat":34.0468508,"lng":-118.2606988,"zipcode":"90017"},{"location":"The Echoplex","address":"1154 Glendale Blvd. Los Angeles, ","formattedAddress":"1154 Glendale Blvd, Los Angeles, CA 90026, USA","neighborhood":"Echo Park","lat":34.07759060000001,"lng":-118.2605046,"zipcode":"90026"},{"location":"The Roxy","address":"9009 W. Sunset Blvd. West Hollywood, ","formattedAddress":"9009 Sunset Blvd, West Hollywood, CA 90069, USA","neighborhood":"Sunset Strip","lat":34.0909001,"lng":-118.3879395,"zipcode":"90069"},{"location":"Cody's Viva Cantina","address":"900 Riverside Dr. Burbank, ","formattedAddress":"900 W Riverside Dr, Burbank, CA 91506, USA","neighborhood":null,"lat":34.1606464,"lng":-118.3105679,"zipcode":"91506"},{"location":"Bootleg Theater","address":"2200 Beverly Blvd. Los Angeles, ","formattedAddress":"2200 Beverly Blvd, Los Angeles, CA 90057, USA","neighborhood":"Central LA","lat":34.0669309,"lng":-118.271662,"zipcode":"90057"},{"location":"Nerdist Showroom at Meltdown Comics","address":"7522 Sunset Blvd. Los Angeles, ","formattedAddress":"7522 Sunset Blvd, Los Angeles, CA 90046, USA","neighborhood":"Hollywood","lat":34.0978181,"lng":-118.3535229,"zipcode":"90046"},{"location":"ROW DTLA","address":"777 S. Alameda St. Los Angeles, CA","formattedAddress":"777 S Alameda St, Los Angeles, CA 90021, USA","neighborhood":"Downtown","lat":34.0314345,"lng":-118.2388605,"zipcode":"90021"},{"location":"Trepany House at the Steve Allen Theater","address":"4773 Hollywood Blvd. Los Angeles, ","formattedAddress":"4773 Hollywood Blvd, Los Angeles, CA 90027, USA","neighborhood":"Los Feliz","lat":34.102083,"lng":-118.2940281,"zipcode":"90027"},{"location":"UCB Sunset","address":"5419 W. Sunset Blvd. Los Angeles, ","formattedAddress":"5419 Sunset Blvd, Los Angeles, CA 90027, USA","neighborhood":"Hollywood","lat":34.0984638,"lng":-118.3079614,"zipcode":"90027"},{"location":"Pappy & Harriet's Pioneertown Palace","address":"53688 Pioneertown Rd. Pioneertown, ","formattedAddress":"53688 Pioneertown Rd, Pioneertown, CA 92268, USA","neighborhood":null,"lat":34.156559,"lng":-116.4930662,"zipcode":"92268"},{"location":"The Museum of Tolerance","address":"9786 W. Pico Blvd. Los Angeles, ","formattedAddress":"9786 W Pico Blvd, Los Angeles, CA 90035, USA","lat":34.053697,"lng":-118.401716,"zipcode":"90035","city":"Los Angeles","neighborhood":"Pico - Robertson"},{"location":"La Cita","address":"336 S. Hill St. Los Angeles, ","formattedAddress":"336 Hill St, Los Angeles, CA 90013, USA","neighborhood":"Downtown","lat":34.0507003,"lng":-118.2496529,"zipcode":"90013"},{"location":"Perch","address":"448 S. Hill St. Los Angeles, ","formattedAddress":"448 Hill St, Los Angeles, CA 90013, USA","neighborhood":"Downtown","lat":34.0488342,"lng":-118.2513587,"zipcode":"90013"},{"location":"Tribal Cafe","address":"1651 W. Temple St. Los Angeles, ","formattedAddress":"1651 W Temple St, Los Angeles, CA 90026, USA","neighborhood":"Central LA","lat":34.06870980000001,"lng":-118.2626639,"zipcode":"90026"},{"location":"Los Angeles State Historic Park","address":"1245 N Spring St Los Angeles CA","formattedAddress":"1245 N Spring St, Los Angeles, CA 90012, USA","lat":34.0661743,"lng":-118.2342881,"zipcode":"90012","city":"Los Angeles","neighborhood":"Central LA"},{"location":"Catalina Bar & Grill","address":"6725 W. Sunset Blvd. Los Angeles, ","formattedAddress":"6725 Sunset Blvd, Los Angeles, CA 90028, USA","neighborhood":"Hollywood","lat":34.09834420000001,"lng":-118.3373005,"zipcode":"90028"},{"location":"Resident","address":"428 S. Hewitt St. Los Angeles, ","formattedAddress":"428 S Hewitt St, Los Angeles, CA 90013, USA","neighborhood":"Downtown","lat":34.042668,"lng":-118.234922,"zipcode":"90013"},{"location":"The Coffee Gallery Backstage","address":"2029 N. Lake Ave. Altadena, ","formattedAddress":"2029 Lake Ave, Altadena, CA 91001, USA","neighborhood":null,"lat":34.1807073,"lng":-118.132044,"zipcode":"91001"},{"location":"Verdugo Bar","address":"3408 Verdugo Road Los Angeles ","formattedAddress":"3408 Verdugo Rd, Los Angeles, CA 90065, USA","neighborhood":"Northeast Los Angeles","lat":34.1137406,"lng":-118.2349602,"zipcode":"90065"},{"location":"Saint Rocke","address":"142 Pacific Coast Highway Hermosa Beach, ","formattedAddress":"142 Pacific Coast Hwy, Hermosa Beach, CA 90254, USA","neighborhood":null,"lat":33.8562163,"lng":-118.3902128,"zipcode":"90254"},{"location":"Clifton's Cafeteria","address":"648 S. Broadway Los Angeles, ","formattedAddress":"648 S Broadway, Los Angeles, CA 90014, USA","lat":34.0452841,"lng":-118.2528166,"zipcode":"90014","city":"Los Angeles","neighborhood":"Central LA"},{"location":"Harvard & Stone","address":"5221 Hollywood Blvd. Los Angeles, ","formattedAddress":"5221 Hollywood Blvd, Los Angeles, CA 90027, USA","lat":34.1019041,"lng":-118.3042997,"zipcode":"90027","city":"Los Angeles","neighborhood":"Los Feliz"},{"location":"Aero Theatre","address":"1328 Montana Ave., Santa Monica, ","formattedAddress":"1328 Montana Ave, Santa Monica, CA 90403, USA","neighborhood":"Wilshire Montana","lat":34.0318921,"lng":-118.4952572,"zipcode":"90403"},{"location":"Will Geer Theatricum Botanicum","address":"1419 N. Topanga Canyon Blvd. Topanga, ","formattedAddress":"1419 N Topanga Canyon Blvd, Topanga, CA 90290, USA","lat":34.1108513,"lng":-118.5928551,"zipcode":"90290","city":"Topanga"},{"location":"Los Angeles Convention Center","address":"1201 S. Figueroa St. Los Angeles, ","formattedAddress":"1201 S Figueroa St, Los Angeles, CA 90015, USA","neighborhood":"Central LA","lat":34.0413606,"lng":-118.2697771,"zipcode":"90015"},{"location":"The Good Luck Gallery","address":"945 Chung King Rd. Los Angeles, ","formattedAddress":"945 Chung King Rd, Los Angeles, CA 90012, USA","neighborhood":"Central LA","lat":34.0659286,"lng":-118.2385978,"zipcode":"90012"},{"location":"The Road on Magnolia","address":"10747 Magnolia Blvd. Los Angeles, ","formattedAddress":"10747 W Magnolia Blvd, Los Angeles, CA 91601, USA","lat":34.1656166,"lng":-118.3650552,"zipcode":"91601","city":"Los Angeles","neighborhood":"NoHo Arts District"},{"location":"Casa 0101","address":"2102 E. First St. Los Angeles, ","formattedAddress":"2102 E 1st St, Los Angeles, CA 90033, USA","lat":34.0446827,"lng":-118.2136746,"zipcode":"90033","city":"Los Angeles","neighborhood":"Central LA"},{"location":"Olvera Street","address":"845 N. Alameda St. Los Angeles, ","formattedAddress":"845 North Alameda Street, Los Angeles, CA 90012, USA","lat":34.0574412,"lng":-118.2376558,"zipcode":"90012","city":"Los Angeles","neighborhood":"Central LA"},{"location":"Zombie Joe's Underground Theatre","address":"4850 Lankershim Blvd. North Hollywood, ","formattedAddress":"4850 Lankershim Blvd, North Hollywood, CA 91601, USA","neighborhood":"North Hollywood","lat":34.1591794,"lng":-118.3708756,"zipcode":"91601"},{"location":"Miles Memorial Playhouse","address":"1130 Lincoln Blvd. Santa Monica, ","formattedAddress":"1130 Lincoln Blvd, Santa Monica, CA 90403, USA","neighborhood":"Wilshire Montana","lat":34.0226618,"lng":-118.4956828,"zipcode":"90403"},{"location":"The Echo","address":"1822 W. Sunset Blvd. Los Angeles, ","formattedAddress":"1822 Sunset Blvd, Los Angeles, CA 90026, USA","neighborhood":"Echo Park","lat":34.0777287,"lng":-118.260108,"zipcode":"90026"},{"location":"1739 Public House","address":"1739 N. Vermont Ave. Los Angeles, ","formattedAddress":"1739 N Vermont Ave, Los Angeles, CA 90027, USA","neighborhood":"Los Feliz","lat":34.1027271,"lng":-118.2920773,"zipcode":"90027"},{"location":"The Virgil","address":"4519 Santa Monica Blvd. Los Angeles, ","formattedAddress":"4519 Santa Monica Blvd, Los Angeles, CA 90029, USA","neighborhood":"Hollywood","lat":34.0910076,"lng":-118.2870107,"zipcode":"90029"},{"location":"Colombo's Italian Steakhouse & Jazz Club","address":"1833 Colorado Blvd. Eagle Rock, ","formattedAddress":"1833 Colorado Blvd, Los Angeles, CA 90041, USA","neighborhood":"Northeast Los Angeles","lat":34.1395978,"lng":-118.2072713,"zipcode":"90041"},{"location":"Las Hadas","address":"9048 Balboa Blvd. Northridge, ","formattedAddress":"9048 Balboa Blvd, Northridge, CA 91325, USA","neighborhood":"Northridge","lat":34.235028,"lng":-118.5020911,"zipcode":"91325"},{"location":"Burbank Moose Lodge","address":"1901 W. Burbank Blvd. Burbank, ","formattedAddress":"1901 W Burbank Blvd, Burbank, CA 91506, USA","neighborhood":null,"lat":34.1811226,"lng":-118.3317986,"zipcode":"91506"},{"location":"Pretend City","address":"29 Hubble Irvine, ","formattedAddress":"29 Hubble, Irvine, CA 92618, USA","lat":33.64200960000001,"lng":-117.7396999,"zipcode":"92618","city":"Irvine","neighborhood":"Irvine Research Center"},{"location":"The Satellite","address":"1717 Silver Lake Blvd. Los Angeles, ","formattedAddress":"1717 Silver Lake Blvd, Los Angeles, CA 90026, USA","neighborhood":"Silver Lake","lat":34.089872,"lng":-118.2682879,"zipcode":"90026"},{"location":"Macgowan Little Theater, UCLA","address":"245 Charles E. Young Drive East Los Angeles, ","formattedAddress":"Macgowan Hall, 245 Charles E Young Dr E, Los Angeles, CA 90095, USA","lat":34.0758815,"lng":-118.4396813,"zipcode":"90095","city":"Los Angeles","neighborhood":"Westwood"},{"location":"The McLoughlin Gallery","address":"49 Geary St. San Francisco, ","formattedAddress":"49 Geary St, San Francisco, CA 94108, USA","lat":37.787698,"lng":-122.4042883,"zipcode":"94108","city":"San Francisco","neighborhood":"Financial District"},{"location":"The Point","address":"850 S. Sepulveda Blvd. El Segundo, ","formattedAddress":"850 S Sepulveda Blvd, El Segundo, CA 90245, USA","lat":33.9031445,"lng":-118.3954149,"zipcode":"90245","city":"El Segundo"},{"location":"The Help Group Autism Center","address":"13164 Burbank Blvd. Sherman Oaks, California 91401 818-781-0360","formattedAddress":"13164 Burbank Blvd, Sherman Oaks, CA 91401, USA","lat":34.171325,"lng":-118.42022,"zipcode":"91401","city":"Los Angeles","neighborhood":"Sherman Oaks"},{"location":"Microsoft Store Westfield Topanga","address":"6600 Topanga Canyon Blvd Canoga Park, ","formattedAddress":"6600 Topanga Canyon Blvd, Canoga Park, CA 91303, USA","lat":34.1854111,"lng":-118.6045941,"zipcode":"91303","city":"Los Angeles","neighborhood":"Canoga Park"},{"location":"Chinese American Museum","address":"425 N. Los Angeles St. Los Angeles, ","formattedAddress":"425 N Los Angeles St, Los Angeles, CA 90012, USA","neighborhood":"Central LA","lat":34.0558393,"lng":-118.23909,"zipcode":"90012"},{"location":"Rogue Machine Theatre","address":"1089 N. Oxford Ave. Los Angeles, ","formattedAddress":"1089 N Oxford Ave, Los Angeles, CA 90029, USA","neighborhood":"Hollywood","lat":34.0905481,"lng":-118.3079128,"zipcode":"90029"},{"location":"The Paley Center for Media","address":"465 N. Beverly Dr. Beverly Hills, ","formattedAddress":"465 N Beverly Dr, Beverly Hills, CA 90210, USA","neighborhood":null,"lat":34.0708996,"lng":-118.4033802,"zipcode":"90210"},{"location":"American Museum of Ceramic Art","address":"399 N. Garey Ave Pomona, California 91767 909-865-3146","formattedAddress":"399 N Garey Ave, Pomona, CA 91767, USA","neighborhood":"Westmont","lat":34.0611548,"lng":-117.7507227,"zipcode":"91767"},{"location":"Civita Park","address":"7960 Civita Blvd. San Diego, Ca 92108 800-888-8888","formattedAddress":"7960 Civita Blvd, San Diego, CA 92108, USA","lat":32.7774486,"lng":-117.1506029,"zipcode":"92108","city":"San Diego","neighborhood":"Serra Mesa"},{"location":"Ahmanson Theatre","address":"135 N. Grand Ave. Los Angeles, ","formattedAddress":"135 N Grand Ave, Los Angeles, CA 90012, USA","neighborhood":"Downtown","lat":34.0566067,"lng":-118.2489325,"zipcode":"90012"},{"location":"Multiple Locations","address":"Multiple Locations Greater Los Angeles, California 90001 415-512-0151"},{"location":"REDCAT: Roy & Edna Disney/CalArts Theater","address":"631 W. Second St. Los Angeles, ","formattedAddress":"631 W 2nd St, Los Angeles, CA 90012, USA","neighborhood":"Downtown","lat":34.0550997,"lng":-118.2505889,"zipcode":"90012"},{"location":"Villain's Tavern","address":"1356 Palmetto St. Los Angeles, ","formattedAddress":"1356 Palmetto St, Los Angeles, CA 90013, USA","neighborhood":"Central LA","lat":34.0401415,"lng":-118.2309452,"zipcode":"90013"},{"location":"Metro Green Meds","address":"1616 S Los Angeles St. Los Angeles, ","formattedAddress":"1616 S Los Angeles St, Los Angeles, CA 90015, USA","neighborhood":"Downtown","lat":34.032437,"lng":-118.2617022,"zipcode":"90015"},{"location":"Blitzstein Museum of Art","address":"428 N. Fairfax Ave. Los Angeles, ","formattedAddress":"428 N Fairfax Ave, Los Angeles, CA 90036, USA","lat":34.0790993,"lng":-118.3611352,"zipcode":"90036","city":"Los Angeles","neighborhood":"Central LA"},{"location":"Aquarium of the Pacific","address":"100 Aquarium Way Long Beach, ","formattedAddress":"100 Aquarium Way, Long Beach, CA 90802, USA","neighborhood":"Waterfront","lat":33.7621452,"lng":-118.1969144,"zipcode":"90802"},{"location":"El Portal Theatre","address":"5269 Lankershim Blvd. North Hollywood, ","formattedAddress":"5269 Lankershim Blvd, North Hollywood, CA 91601, USA","neighborhood":"North Hollywood","lat":34.1667182,"lng":-118.3762649,"zipcode":"91601"},{"location":"W Hotel Hollywood","address":"6250 Hollywood Blvd Hollywood, California 90028 323-798-1300","formattedAddress":"6250 Hollywood Blvd, Los Angeles, CA 90028, USA","neighborhood":"Hollywood","lat":34.1010195,"lng":-118.3254155,"zipcode":"90028"},{"location":"Caliber Collision","address":"3020 Riverside Dr. Los Angeles, ","formattedAddress":"3020 Riverside Dr, Los Angeles, CA 90039, USA","lat":34.111901,"lng":-118.2673221,"zipcode":"90039","city":"Los Angeles","neighborhood":"Silver Lake"},{"location":"Klat Cafe","address":"621 S. Western Ave. #101 Los Angeles, ","formattedAddress":"621 S Western Ave #101, Los Angeles, CA 90005, USA","neighborhood":"Wilshire Center","lat":34.0626976,"lng":-118.3096133,"zipcode":"90005"},{"location":"Various Locations","address":"Various Locations Los Angeles, ","formattedAddress":"812 Highland Ave, Los Angeles, CA 90038, USA","neighborhood":"Hollywood","lat":34.0856992,"lng":-118.3384181,"zipcode":"90038"},{"location":"Velveteria: The Museum of Velvet Paintings","address":"711 New High St. Los Angeles, ","formattedAddress":"711 New High St, Los Angeles, CA 90012, USA","neighborhood":"Central LA","lat":34.0604764,"lng":-118.2387822,"zipcode":"90012"},{"location":"Edgemar Center for the Arts","address":"2437 Main St. Santa Monica, ","formattedAddress":"2437 Main St, Santa Monica, CA 90405, USA","neighborhood":"Ocean Park","lat":34.0035616,"lng":-118.4847408,"zipcode":"90405"},{"location":"Hotel Angeleno","address":"170 N. Church Lane Los Angeles, ","formattedAddress":"170 N Church Ln, Los Angeles, CA 90049, USA","neighborhood":"Brentwood","lat":34.0737485,"lng":-118.4682112,"zipcode":"90049"},{"location":"The Down & Out","address":"501 S. Spring St. Los Angeles, ","formattedAddress":"501 S Spring St, Los Angeles, CA 90013, USA","neighborhood":"Downtown","lat":34.0472554,"lng":-118.2500328,"zipcode":"90013"},{"location":"L.A. Weekly","address":"3861 Sepulveda Blvd. Culver City, ","formattedAddress":"3861 Sepulveda Blvd, Culver City, CA 90230, USA","neighborhood":"Clarkdale","lat":34.0111894,"lng":-118.4162464,"zipcode":"90230"},{"location":"Salt's Cure","address":"1155 N. Highland Ave. Los Angeles, ","formattedAddress":"1155 Highland Ave, Los Angeles, CA 90038, USA","lat":34.0923795,"lng":-118.3389548,"zipcode":"90038","city":"Los Angeles","neighborhood":"Central LA"},{"location":"UCLA Meteorite Gallery","address":"595 Charles Young Drive East, Geology 3697 Los Angeles, "},{"location":"Edemar center","address":"2437 main st Santa Monica, ","formattedAddress":"2437 Main St, Santa Monica, CA 90405, USA","lat":34.0035616,"lng":-118.4847408,"zipcode":"90405","city":"Santa Monica","neighborhood":"Ocean Park"},{"location":"Boardner's","address":"1652 N. Cherokee Ave. Los Angeles, ","formattedAddress":"1652 N Cherokee Ave, Los Angeles, CA 90028, USA","neighborhood":"Central LA","lat":34.1011525,"lng":-118.3349334,"zipcode":"90028"},{"location":"Museum of Broken Relationships","address":"6751 Hollywood Blvd Los Angeles, California 90028 323-892-8103","formattedAddress":"6751 Hollywood Blvd, Hollywood, CA 90028, USA","neighborhood":"Hollywood","lat":34.1017702,"lng":-118.3376512,"zipcode":"90028"},{"location":"Sur Restaurant & Grill","address":"606 N. Robertson Blvd. West Hollywood, ","formattedAddress":"606 N Robertson Blvd, West Hollywood, CA 90069, USA","neighborhood":"Central LA","lat":34.0812107,"lng":-118.3852167,"zipcode":"90069"},{"location":"The Copper Still","address":"4493 Beverly Blvd. Los Angeles, ","formattedAddress":"4493 Beverly Blvd, Los Angeles, CA 90004, USA","neighborhood":"Hollywood","lat":34.0764323,"lng":-118.3066935,"zipcode":"90004"},{"location":"Oeno Vino Wine Shop & Bar","address":"3111 Glendale Blvd. #2 Los Angeles (Atwater Village), ","formattedAddress":"3111 Glendale Blvd #2, Los Angeles, CA 90039, USA","lat":34.1162782,"lng":-118.2628216,"zipcode":"90039","city":"Los Angeles","neighborhood":"Northeast Los Angeles"},{"location":"UCB Franklin","address":"5919 Franklin Ave. Los Angeles, ","formattedAddress":"5919 Franklin Ave, Los Angeles, CA 90028, USA","neighborhood":"Hollywood Hills","lat":34.1054499,"lng":-118.3187772,"zipcode":"90028"},{"location":"Grand Park","address":"200 N. Grand Ave. Los Angeles, ","formattedAddress":"200 N Grand Ave, Los Angeles, CA 90012, USA","lat":34.0562797,"lng":-118.2467434,"zipcode":"90012","city":"Los Angeles","neighborhood":"Central LA"},{"location":"PIPS Pizza Pasta Salads","address":"1356 S. La Brea Ave. Los Angeles, ","formattedAddress":"1356 S La Brea Ave, Los Angeles, CA 90019, USA","neighborhood":"Mid-Wilshire","lat":34.0484744,"lng":-118.3441902,"zipcode":"90019"},{"location":"Joe's Great American Bar & Grill","address":"4311 W. Magnolia Blvd. Burbank, ","formattedAddress":"4311 W Magnolia Blvd, Burbank, CA 91505, USA","neighborhood":null,"lat":34.165776,"lng":-118.3536248,"zipcode":"91505"},{"location":"Rose Bowl","address":"1001 Rose Bowl Dr. Pasadena, ","formattedAddress":"1001 Rose Bowl Dr, Pasadena, CA 91103, USA","lat":34.1606364,"lng":-118.1674865,"zipcode":"91103","city":"Pasadena","neighborhood":"North Arroyo"},{"location":"Hornblower Cruises & Events","address":"13755 Fiji Way Marina Del Rey ","formattedAddress":"13755 Fiji Way, Marina Del Rey, CA 90292, USA","lat":33.9725614,"lng":-118.4462468,"zipcode":"90292","city":"Marina del Rey"},{"location":"The Ambassador Yacht","address":"2901 W. Coast Highway Newport Beach, ","formattedAddress":"2901 West Coast Hwy, Newport Beach, CA 92663, USA","lat":33.6203579,"lng":-117.9254504,"zipcode":"92663","city":"Newport Beach"},{"location":"Palisades Charter High School","address":"15777 Bowdoin St. Los Angeles ","formattedAddress":"15777 Bowdoin St, Pacific Palisades, CA 90272, USA","lat":34.047136,"lng":-118.5304727,"zipcode":"90272","city":"Los Angeles","neighborhood":"Pacific Palisades"},{"location":"Dodger Stadium","address":"1000 Vin Scully Ave., Los Angeles, ","formattedAddress":"1000 Vin Scully Ave, Los Angeles, CA 90026, USA","neighborhood":"Echo Park","lat":34.0724463,"lng":-118.2482212,"zipcode":"90026"},{"location":"Busby's East","address":"5364 Wilshire Blvd. Los Angeles, ","formattedAddress":"5364 Wilshire Blvd, Los Angeles, CA 90036, USA","lat":34.0619906,"lng":-118.3458395,"zipcode":"90036","city":"Los Angeles","neighborhood":"Central LA"},{"location":"CB1 Gallery","address":"1923 S. Santa Fe. Ave. Los Angeles, ","formattedAddress":"1923 S Santa Fe Ave, Los Angeles, CA 90021, USA","lat":34.0223484,"lng":-118.2304801,"zipcode":"90021","city":"Los Angeles","neighborhood":"Boyle Heights"},{"location":"Pantages Theatre","address":"6233 Hollywood Blvd. Los Angeles, ","formattedAddress":"6233 Hollywood Blvd, Los Angeles, CA 90028, USA","neighborhood":"Hollywood","lat":34.102001,"lng":-118.325867,"zipcode":"90028"},{"location":"Ibid.","address":"670 S Anderson St. Los Angeles, ","formattedAddress":"670 S Anderson St, Los Angeles, CA 90023, USA","lat":34.036029,"lng":-118.222954,"zipcode":"90023","city":"Los Angeles","neighborhood":"Central LA"},{"location":"Meliksetian | Briggs","address":"313 N. Fairfax Ave. Los Angeles, ","formattedAddress":"313 N Fairfax Ave, Los Angeles, CA 90036, USA","neighborhood":"Beverly Grove","lat":34.0766654,"lng":-118.3616314,"zipcode":"90036"},{"location":"Matthew Marks Gallery","address":"1062 N. Orange Grove Los Angeles, ","formattedAddress":"1062 N Orange Grove Ave, West Hollywood, CA 90046, USA","neighborhood":"Central LA","lat":34.0904301,"lng":-118.3603558,"zipcode":"90046"},{"location":"San Ysidro Trolley Station","address":"727 E San Ysidro Blvd San Ysidro, California 92173 858-480-3513","formattedAddress":"480 E San Ysidro Blvd, San Diego, CA 92173, USA","neighborhood":"San Ysidro","lat":32.5500216,"lng":-117.0364921,"zipcode":"92173"},{"location":"Kayne Griffin Corcoran","address":"1201 S. La Brea Ave. Los Angeles, ","formattedAddress":"1201 South La Brea Ave, Los Angeles, CA 90019, USA","lat":34.0532064,"lng":-118.3442265,"zipcode":"90019","city":"Los Angeles","neighborhood":"Mid-Wilshire"},{"location":"Downtown Independent Theater","address":"251 S. Main St. Los Angeles, ","formattedAddress":"251 S Main St, Los Angeles, CA 90012, USA","neighborhood":"Central LA","lat":34.050286,"lng":-118.245687,"zipcode":"90012"},{"location":"The Pack Theater","address":"6470 Santa Monica Blvd. Hollywood, California 90038","formattedAddress":"6470 Santa Monica Blvd, Los Angeles, CA 90038, USA","neighborhood":"Hollywood","lat":34.0905344,"lng":-118.3306225,"zipcode":"90038"},{"location":"Placerita Canon Nature Center Annual Holiday Craft Fair","address":"19152 Placerita Canyon Rd. Newhall, ","formattedAddress":"19152 Placerita Canyon Rd, Newhall, CA 91321, USA","neighborhood":"Newhall","lat":34.3773744,"lng":-118.4701246,"zipcode":"91321"},{"location":"The Granada LA","address":"17 S. First St. Alhambra, ","formattedAddress":"17 S 1st St, Alhambra, CA 91801, USA","neighborhood":null,"lat":34.0940231,"lng":-118.1276389,"zipcode":"91801"},{"location":"Zan Beer","address":"3377 Wilshire Blvd., #200 Los Angeles, ","formattedAddress":"3377 Wilshire Blvd #200, Los Angeles, CA 90010, USA","neighborhood":"Koreatown","lat":34.0622606,"lng":-118.2975594,"zipcode":"90010"},{"location":"FM Fine Art Gallery","address":"834 N. La Brea Ave. Los Angeles, ","formattedAddress":"834 N La Brea Ave, Los Angeles, CA 90038, USA","neighborhood":"Central LA","lat":34.0862389,"lng":-118.3437364,"zipcode":"90038"},{"location":"The Help Group Autism Center Theater","address":"13164 Burbank Blvd. Van Nuys, ","formattedAddress":"13164 Burbank Blvd, Van Nuys, CA 91401, USA","neighborhood":"Van Nuys","lat":34.1716122,"lng":-118.4203441,"zipcode":"91401"},{"location":"Sassafras Saloon","address":"1233 Vine St. Los Angeles, ","formattedAddress":"1233 Vine St, Los Angeles, CA 90038, USA","neighborhood":"Hollywood","lat":34.0935264,"lng":-118.3272668,"zipcode":"90038"},{"location":"Grand Central Market","address":"317 S. Broadway Los Angeles, ","formattedAddress":"317 S Broadway, Los Angeles, CA 90013, USA","neighborhood":"Downtown","lat":34.050655,"lng":-118.2487951,"zipcode":"90013"},{"location":"Hyperion Tavern","address":"1941 Hyperion Ave. Los Angeles, ","formattedAddress":"1941 Hyperion Ave, Los Angeles, CA 90027, USA","neighborhood":"Los Feliz","lat":34.0982695,"lng":-118.2750725,"zipcode":"90027"},{"location":"Pasadena Museum of History","address":"470 W. Walnut St. Pasadena, ","formattedAddress":"470 W Walnut St, Pasadena, CA 91103, USA","neighborhood":"North Arroyo","lat":34.1490951,"lng":-118.1609863,"zipcode":"91103"},{"location":"Backstage Bar & Grill","address":"10400 Culver Blvd. Culver City, ","formattedAddress":"10400 Culver Blvd, Culver City, CA 90232, USA","neighborhood":"Carlson Park","lat":34.0162779,"lng":-118.4001275,"zipcode":"90232"},{"location":"Harvelle's Santa Monica","address":"1432 Fourth St. Santa Monica, ","formattedAddress":"1432 4th St, Santa Monica, CA 90401, USA","neighborhood":"Downtown","lat":34.0156047,"lng":-118.4944879,"zipcode":"90401"},{"location":"Egyptian Theatre","address":"6712 Hollywood Blvd., Hollywood, CA Hollywood ","formattedAddress":"6712 Hollywood Blvd, Los Angeles, CA 90028, USA","neighborhood":"Hollywood","lat":34.1013684,"lng":-118.3366935,"zipcode":"90028"},{"location":"The Broad Stage, Santa Monica College Performing Arts Center","address":"1310 11th St. Santa Monica, ","formattedAddress":"1310 11th St, Santa Monica, CA 90401, USA","neighborhood":"Downtown","lat":34.022176,"lng":-118.4898567,"zipcode":"90401"},{"location":"Canyon Club","address":"28912 Roadside Dr. Agoura Hills, ","formattedAddress":"28912 Roadside Dr, Agoura Hills, CA 91301, USA","neighborhood":null,"lat":34.144004,"lng":-118.7551541,"zipcode":"91301"},{"location":"The Hi Hat","address":"5043 York Blvd. Highland Park, ","formattedAddress":"5043 York Blvd, Los Angeles, CA 90042, USA","neighborhood":"Eagle Rock","lat":34.1214595,"lng":-118.2053922,"zipcode":"90042"},{"location":"Glendale City Seventh-Day Adventist Church","address":"610 E. California Ave. Los Angeles, ","formattedAddress":"610 E California Ave, Glendale, CA 91206, USA","neighborhood":"Downtown","lat":34.1497453,"lng":-118.2484602,"zipcode":"91206"},{"location":"El Rey Theatre","address":"5515 Wilshire Blvd. Los Angeles, ","formattedAddress":"5515 Wilshire Blvd, Los Angeles, CA 90036, USA","neighborhood":"Mid-Wilshire","lat":34.0626988,"lng":-118.3489004,"zipcode":"90036"},{"location":"The Townhouse","address":"52 Windward Ave. Venice, ","formattedAddress":"52 Windward Ave, Venice, CA 90291, USA","neighborhood":"Venice","lat":33.9871768,"lng":-118.4726295,"zipcode":"90291"},{"location":"First Independent Gallery (FIG)","address":"2525 Michigan Ave., G6 Santa Monica, ","formattedAddress":"2525 Michigan Ave, Santa Monica, CA 90405, USA","neighborhood":"Pico","lat":34.02778929999999,"lng":-118.4684355,"zipcode":"90405"},{"location":"Arts District Brewing Company","address":"828 Traction Ave Los Angeles, California 90013 213-817-5321","formattedAddress":"828 Traction Ave, Los Angeles, CA 90013, USA","lat":34.0445635,"lng":-118.2355338,"zipcode":"90013","city":"Los Angeles","neighborhood":"Central LA"},{"location":"The Community Center of La Canada Flintridge","address":"4469 Chevy Chase Dr. La Canada Flintridge, ","formattedAddress":"4469 Chevy Chase Dr, La Cañada Flintridge, CA 91011, USA","neighborhood":null,"lat":34.2041598,"lng":-118.2014764,"zipcode":"91011"},{"location":"Hollywood Playhouse at the Zephyr Theatre","address":"7456 Melrose Ave Los Angeles, ","formattedAddress":"7456 Melrose Ave, West Hollywood, CA 90046, USA","neighborhood":"Central LA","lat":34.0833229,"lng":-118.3525757,"zipcode":"90046"},{"location":"The Orpheum Theatre","address":"842 S. Broadway Los Angeles, ","formattedAddress":"842 S Broadway, Los Angeles, CA 90014, USA","neighborhood":"Downtown","lat":34.0426926,"lng":-118.2552867,"zipcode":"90014"},{"location":"The Actors Company","address":"916-A N. Formosa Ave. Los Angeles, ","formattedAddress":"916 N Formosa Ave, Los Angeles, CA 90046, USA","lat":34.0877004,"lng":-118.3458947,"zipcode":"90046","city":"Los Angeles","neighborhood":"Fairfax"},{"location":"Rockwell Table & Stage","address":"1714 N. Vermont Ave. Los Angeles, ","formattedAddress":"1714 N Vermont Ave, Los Angeles, CA 90027, USA","neighborhood":"Los Feliz","lat":34.1022191,"lng":-118.291396,"zipcode":"90027"},{"location":"The Ruth B. Shannon Center for the Performing Arts","address":"6760 Painter Ave. Whittier, ","formattedAddress":"6760 Painter Ave, Whittier, CA 90601, USA","lat":33.9795468,"lng":-118.0321386,"zipcode":"90601","city":"Whittier"},{"location":"Revolver Gallery","address":"2525 Michigan Avenue, D4 Santa Monica, ","formattedAddress":"2525 Michigan Ave, Santa Monica, CA 90405, USA","neighborhood":"Pico","lat":34.02778929999999,"lng":-118.4684355,"zipcode":"90405"},{"location":"Cinefamily/Silent Movie Theatre","address":"611 N. Fairfax Ave. Los Angeles, ","formattedAddress":"611 N Fairfax Ave, Los Angeles, CA 90036, USA","neighborhood":"Beverly Grove","lat":34.0820093,"lng":-118.3617361,"zipcode":"90036"},{"location":"The Mackey Apartments","address":"1137 S. Cochran Ave. Los Angeles, ","formattedAddress":"1137 S Cochran Ave, Los Angeles, CA 90019, USA","neighborhood":"Central LA","lat":34.0547067,"lng":-118.3504201,"zipcode":"90019"},{"location":"The Groundlings Theater","address":"7307 Melrose Ave. Los Angeles, ","formattedAddress":"7307 Melrose Ave, Los Angeles, CA 90046, USA","neighborhood":"Fairfax","lat":34.0838002,"lng":-118.3490097,"zipcode":"90046"},{"location":"iO West (Improv Olympic)","address":"6366 Hollywood Blvd. Los Angeles, ","formattedAddress":"6366 Hollywood Blvd, Los Angeles, CA 90028, USA","neighborhood":"Hollywood","lat":34.1013952,"lng":-118.3287424,"zipcode":"90028"},{"location":"Vitello's Italian Restaurant","address":"4349 Tujunga Ave. Studio City, ","formattedAddress":"4349 Tujunga Ave, North Hollywood, CA 91604, USA","neighborhood":"North Hollywood","lat":34.1488599,"lng":-118.3792879,"zipcode":"91604"},{"location":"The Hotel Cafe","address":"1623 1/2 N. Cahuenga Blvd. Los Angeles, ","formattedAddress":"1623 N Cahuenga Blvd, Los Angeles, CA 90028, USA","neighborhood":"Hollywood","lat":34.1004371,"lng":-118.329829,"zipcode":"90028"},{"location":"McCabe's Guitar Shop","address":"3101 Pico Blvd. Santa Monica, ","formattedAddress":"3101 Pico Blvd, Santa Monica, CA 90405, USA","neighborhood":"Pico","lat":34.026043,"lng":-118.457612,"zipcode":"90405"},{"location":"El Cid","address":"4212 W. Sunset Blvd. Los Angeles, ","formattedAddress":"4212 Sunset Blvd, Los Angeles, CA 90029, USA","neighborhood":"Silver Lake","lat":34.0938296,"lng":-118.2824137,"zipcode":"90029"},{"location":"Los Globos","address":"3040 W. Sunset Blvd. Los Angeles, ","formattedAddress":"3040 Sunset Blvd, Los Angeles, CA 90026, USA","neighborhood":"Silver Lake","lat":34.0838215,"lng":-118.2743235,"zipcode":"90026"},{"location":"The Redwood Bar & Grill","address":"316 W. Second St. Los Angeles, ","formattedAddress":"316 W 2nd St, Los Angeles, CA 90012, USA","neighborhood":"Downtown","lat":34.0526005,"lng":-118.2474909,"zipcode":"90012"},{"location":"Fred Kavli Theatre, Thousand Oaks Civic Arts Plaza","address":"2100 E. Thousand Oaks Blvd. Thousand Oaks, ","formattedAddress":"2100 Thousand Oaks Blvd, Thousand Oaks, CA 91362, USA","neighborhood":null,"lat":34.1746462,"lng":-118.848904,"zipcode":"91362"},{"location":"Sol Venue","address":"313 E. Carson St. Carson, ","formattedAddress":"313 E Carson St, Carson, CA 90745, USA","neighborhood":null,"lat":33.8318947,"lng":-118.2717347,"zipcode":"90745"},{"location":"Fox Performing Arts Center","address":"3801 Mission Inn Ave. Riverside, ","formattedAddress":"3801 Mission Inn Avenue, Riverside, CA 92501, USA","neighborhood":"Downtown Riverside","lat":33.9839822,"lng":-117.3752903,"zipcode":"92501"},{"location":"The Monty","address":"1222 W. Seventh St. Los Angeles, ","formattedAddress":"1222 W 7th St, Los Angeles, CA 90017, USA","neighborhood":"Central LA","lat":34.0515896,"lng":-118.2667901,"zipcode":"90017"},{"location":"Billy Wilder Theater","address":"10899 Wilshire Blvd. Westwood, ","formattedAddress":"10899 Wilshire Blvd, Los Angeles, CA 90024, USA","neighborhood":"Westwood","lat":34.0591217,"lng":-118.4436674,"zipcode":"90024"},{"location":"New Beverly Cinema","address":"7165 Beverly Blvd. Los Angeles, ","formattedAddress":"7165 Beverly Blvd, Los Angeles, CA 90036, USA","lat":34.0764408,"lng":-118.3457564,"zipcode":"90036","city":"Los Angeles","neighborhood":"Central LA"},{"location":"Alex Theatre","address":"216 N. Brand Blvd. Glendale, ","formattedAddress":"216 N Brand Blvd, Glendale, CA 91203, USA","neighborhood":"Downtown","lat":34.1488644,"lng":-118.2548412,"zipcode":"91203"},{"location":"Pershing Square","address":"532 S. Olive St. Los Angeles, ","formattedAddress":"532 S Olive St, Los Angeles, CA 90013, USA","lat":34.0485099,"lng":-118.2532776,"zipcode":"90013","city":"Los Angeles","neighborhood":"Downtown"},{"location":"The Getty Center","address":"1200 Getty Center Dr. Los Angeles, ","formattedAddress":"1200 Getty Center Dr, Los Angeles, CA 90049, USA","neighborhood":"Brentwood","lat":34.0790329,"lng":-118.4751057,"zipcode":"90049"},{"location":"Pasadena Museum of California Art","address":"490 East Union Street, Pasadena, ","formattedAddress":"490 E Union St, Pasadena, CA 91101, USA","neighborhood":null,"lat":34.1468743,"lng":-118.1401975,"zipcode":"91101"},{"location":"Culver City Veterans Memorial Auditorium","address":"4117 Overland Ave. Culver City ","formattedAddress":"4117 Overland Ave, Culver City, CA 90230, USA","lat":34.012953,"lng":-118.4026083,"zipcode":"90230","city":"Culver City","neighborhood":"Park West"},{"location":"Beyond Baroque Literary Arts Center","address":"681 Venice Blvd. Venice, ","formattedAddress":"681 Venice Blvd, Venice, CA 90291, USA","neighborhood":"Venice","lat":33.9913581,"lng":-118.4588907,"zipcode":"90291"},{"location":"Pasadena Presbyterian Church","address":"585 E. Colorado Blvd. Pasadena, ","formattedAddress":"585 E Colorado Blvd, Pasadena, CA 91101, USA","lat":34.1462613,"lng":-118.1389268,"zipcode":"91101","city":"Pasadena"},{"location":"Los Angeles Memorial Coliseum","address":"3911 S. Figueroa St., Los Angeles 90037, us","formattedAddress":"3911 S Figueroa St, Los Angeles, CA 90037, USA","neighborhood":"South Los Angeles","lat":34.0128805,"lng":-118.2827671,"zipcode":"90037"},{"location":"The Coach House","address":"33157 Camino Capistrano San Juan Capistrano, ","formattedAddress":"33157 Camino Capistrano, San Juan Capistrano, CA 92675, USA","neighborhood":null,"lat":33.4819689,"lng":-117.6716777,"zipcode":"92675"},{"location":"Cal State Northridge, CSUN","address":"18111 Nordhoff St. Northridge, ","formattedAddress":"18111 Nordhoff St, Northridge, CA 91325, USA","neighborhood":"Northridge","lat":34.2359329,"lng":-118.5280253,"zipcode":"91325"},{"location":"The Wiltern","address":"3790 Wilshire Blvd. Los Angeles, ","formattedAddress":"3790 Wilshire Blvd, Los Angeles, CA 90010, USA","neighborhood":"Koreatown","lat":34.0614896,"lng":-118.3087587,"zipcode":"90010"},{"location":"Pasadena Civic Auditorium","address":"300 E. Green St. Pasadena, ","formattedAddress":"300 E Green St, Pasadena, CA 91101, USA","neighborhood":null,"lat":34.143817,"lng":-118.144302,"zipcode":"91101"},{"location":"California Plaza","address":"350 S. Grand Ave. Los Angeles, ","formattedAddress":"350 S Grand Ave, Los Angeles, CA 90003, USA","neighborhood":"South Los Angeles","lat":33.9705046,"lng":-118.2801398,"zipcode":"90003"},{"location":"Shrine Auditorium & Expo Hall","address":"665 W. Jefferson Blvd. Los Angeles, ","formattedAddress":"665 W Jefferson Blvd, Los Angeles, CA 90007, USA","neighborhood":"South Los Angeles","lat":34.0236612,"lng":-118.2812202,"zipcode":"90007"},{"location":"Agoura Hills/Calabasas Community Center","address":"27040 Malibu Hills Road Calabasas ","formattedAddress":"27040 Malibu Hills Rd, Agoura Hills, CA 91301, USA","lat":34.1361783,"lng":-118.7130797,"zipcode":"91301","city":"Agoura Hills"},{"location":"Children's Book World","address":"10580 W. Pico Blvd. Los Angeles, ","formattedAddress":"10580 W Pico Blvd, Los Angeles, CA 90064, USA","lat":34.0435699,"lng":-118.4213437,"zipcode":"90064","city":"Los Angeles","neighborhood":"Rancho Park"},{"location":"Walt Disney Concert Hall","address":"111 S. Grand Ave. Los Angeles, ","formattedAddress":"111 S Grand Ave, Los Angeles, CA 90012, USA","neighborhood":"Downtown","lat":34.0553871,"lng":-118.2498281,"zipcode":"90012"},{"location":"Alvas Showroom","address":"1417 West 8th Street San Pedro ","formattedAddress":"1417 W 8th St, San Pedro, CA 90732, USA","lat":33.7368203,"lng":-118.308436,"zipcode":"90732","city":"Los Angeles","neighborhood":"San Pedro"},{"location":"Boston Court","address":"70 N. Mentor Ave. Pasadena, ","formattedAddress":"70 N Mentor Ave, Pasadena, CA 91106, USA","lat":34.1470269,"lng":-118.1305675,"zipcode":"91106","city":"Pasadena"},{"location":"StubHub Center","address":"18400 S. Avalon Blvd., Carson, CA, us","formattedAddress":"18400 S Avalon Blvd, Carson, CA 90746, USA","neighborhood":null,"lat":33.8639438,"lng":-118.2660058,"zipcode":"90746"},{"location":"Riverside Municipal Auditorium","address":"3485 Mission Inn Ave. Riverside, ","formattedAddress":"3485 Mission Inn Avenue, Riverside, CA 92501, USA","lat":33.9820983,"lng":-117.3707991,"zipcode":"92501","city":"Riverside","neighborhood":"Downtown Riverside"},{"location":"Morongo Casino Resort & Spa","address":"49500 Seminole Dr. Cabazon, ","formattedAddress":"49500 Seminole Dr, Cabazon, CA 92230, USA","neighborhood":null,"lat":33.9216081,"lng":-116.7978194,"zipcode":"92230"},{"location":"Honda Center","address":"2695 E. Katella Ave. Anaheim, ","formattedAddress":"2695 E Katella Ave, Anaheim, CA 92806, USA","neighborhood":"Anaheim Resort","lat":33.8078356,"lng":-117.8765438,"zipcode":"92806"},{"location":"Torrance Cultural Arts Center","address":"3330 Civic Center Dr. Torrance, ","formattedAddress":"3330 Civic Center Dr, Torrance, CA 90503, USA","lat":33.8393642,"lng":-118.3434411,"zipcode":"90503","city":"Torrance"},{"location":"Shade Hotel Redondo Beach","address":"655 N. Harbor Drive, Redondo Beach, CA, Redondo Beach, ","formattedAddress":"655 N Harbor Dr, Redondo Beach, CA 90277, USA","neighborhood":"South Redondo","lat":33.8477289,"lng":-118.3946334,"zipcode":"90277"},{"location":"Bardot Hollywood","address":"1737 N. Vine St. Los Angeles, ","formattedAddress":"1737 Vine St, Los Angeles, CA 90028, USA","neighborhood":"Hollywood","lat":34.1027999,"lng":-118.3267113,"zipcode":"90028"},{"location":"Amoeba Music","address":"6400 Sunset Blvd. Los Angeles, ","formattedAddress":"6400 Sunset Blvd, Los Angeles, CA 90028, USA","neighborhood":"Hollywood","lat":34.0975274,"lng":-118.329153,"zipcode":"90028"},{"location":"Stratford School - Melrose","address":"1200 North Cahuenga Boulevard Los Angeles, CA, Hollywood, ","formattedAddress":"1200 N Cahuenga Blvd, Los Angeles, CA 90038, USA","neighborhood":"Hollywood","lat":34.0928299,"lng":-118.3283288,"zipcode":"90038"},{"location":"Eric Buterbaugh Gallery","address":"8271 Beverly Blvd Los Angeles, California 90048 323-651-9844","formattedAddress":"8271 Beverly Blvd, Los Angeles, CA 90048, USA","neighborhood":"Beverly Grove","lat":34.0763457,"lng":-118.3697214,"zipcode":"90048"},{"location":"The Arena at the Anaheim Convention Center","address":"800 W. Katella Ave. Anaheim, ","formattedAddress":"800 W Katella Ave, Anaheim, CA 92802, USA","neighborhood":"Convention Center","lat":33.8003652,"lng":-117.9208568,"zipcode":"92802"},{"location":"Homibing","address":"3300 W. Sixth St. Los Angeles, ","formattedAddress":"3300 W 6th St, Los Angeles, CA 90020, USA","lat":34.06341099999999,"lng":-118.2943457,"zipcode":"90020","city":"Los Angeles","neighborhood":"Central LA"},{"location":"MOCA Grand Avenue","address":"250 S. Grand Ave. Los Angeles, ","formattedAddress":"250 S Grand Ave, Los Angeles, CA 90012, USA","neighborhood":"Downtown","lat":34.0534223,"lng":-118.2504046,"zipcode":"90012"},{"location":"Vespaio","address":"225 S Grand Ave Los Angeles, ","formattedAddress":"225 S Grand Ave, Los Angeles, CA 90012, USA","neighborhood":"Downtown","lat":34.054058,"lng":-118.251161,"zipcode":"90012"},{"location":"California Science Center","address":"700 Exposition Park Dr. Los Angeles, ","formattedAddress":"700 Exposition Park Dr, Los Angeles, CA 90037, USA","neighborhood":"South Los Angeles","lat":34.0157877,"lng":-118.2862095,"zipcode":"90037"},{"location":"Pomona College Art Department Chan Gallery","address":"370 Columbia Ave. Claremont, California 91711 909-621-8079","formattedAddress":"370 Columbia Ave, Claremont, CA 91711, USA","lat":34.0966139,"lng":-117.711123,"zipcode":"91711","city":"Claremont"},{"location":"North Hollywood Park","address":"5099 Tujunga Ave. North Hollywood, ","formattedAddress":"5099 Tujunga Ave, North Hollywood, CA 91601, USA","lat":34.1629645,"lng":-118.3790245,"zipcode":"91601","city":"Los Angeles","neighborhood":"North Hollywood"},{"location":"Escape Room LA","address":"120 E. 8th St Los Angeles, ","formattedAddress":"120 E 8th St, Los Angeles, CA 90014, USA","neighborhood":"Downtown","lat":34.0420721,"lng":-118.2528292,"zipcode":"90014"},{"location":"Fleming's Prime Steakhouse","address":"179 E. Colorado Blvd, Pasadena, ","formattedAddress":"179 E Colorado Blvd, Pasadena, CA 91101, USA","lat":34.1458062,"lng":-118.1466612,"zipcode":"91101","city":"Pasadena"},{"location":"OC Fair & Event Center","address":"88 Fair Dr. Costa Mesa, ","formattedAddress":"88 Fair Dr, Costa Mesa, CA 92626, USA","neighborhood":null,"lat":33.6684775,"lng":-117.9046209,"zipcode":"92626"},{"location":"Shomrei Torah Synagogue","address":"7353 Valley Circle Blvd. West Hills, ","formattedAddress":"7353 Valley Cir Blvd, West Hills, CA 91304, USA","lat":34.2061873,"lng":-118.6544053,"zipcode":"91304","city":"Los Angeles","neighborhood":"West Hills"},{"location":"The Forum","address":"3900 W. Manchester Blvd. Inglewood, ","formattedAddress":"3900 W Manchester Blvd, Inglewood, CA 90305, USA","neighborhood":"South Los Angeles","lat":33.9581667,"lng":-118.3418158,"zipcode":"90305"},{"location":"Trip","address":"2101 Lincoln Blvd. Santa Monica, ","formattedAddress":"2101 Lincoln Blvd, Santa Monica, CA 90405, USA","neighborhood":"Ocean Park","lat":34.0109254,"lng":-118.4809526,"zipcode":"90405"},{"location":"The Theatre at Ace Hotel","address":"929 S. Broadway Los Angeles, ","formattedAddress":"929 S Broadway, Los Angeles, CA 90015, USA","neighborhood":"Downtown","lat":34.0418769,"lng":-118.2570341,"zipcode":"90015"},{"location":"Staples Center","address":"1111 S. Figueroa St. Los Angeles, ","formattedAddress":"1111 S Figueroa St, Los Angeles, CA 90015, USA","neighborhood":"Downtown","lat":34.043125,"lng":-118.267118,"zipcode":"90015"},{"location":"The Three Clubs","address":"1123 Vine St Hollywood, ","formattedAddress":"1123 Vine St, Los Angeles, CA 90038, USA","neighborhood":"Central LA","lat":34.0914653,"lng":-118.3271185,"zipcode":"90038"},{"location":"Au Fudge","address":"9010 Melrose Ave West Hollywood, California 90069 424-288-4268","formattedAddress":"9010 Melrose Ave, West Hollywood, CA 90069, USA","neighborhood":"Central LA","lat":34.0805544,"lng":-118.3882164,"zipcode":"90069"},{"location":"California Institute of Abnormal Arts (C.I.A.)","address":"11334 Burbank Blvd. North Hollywood, ","formattedAddress":"11334 Burbank Blvd, North Hollywood, CA 91601, USA","neighborhood":"North Hollywood","lat":34.1719873,"lng":-118.3774298,"zipcode":"91601"},{"location":"The Federal Bar","address":"102 Pine Ave. Long Beach, ","formattedAddress":"102 Pine Ave, Long Beach, CA 90802, USA","neighborhood":"Downtown","lat":33.7682406,"lng":-118.1920563,"zipcode":"90802"},{"location":"Santa Monica Pier","address":"200 Santa Monica Pier Santa Monica ","formattedAddress":"200 Santa Monica Pier, Santa Monica, CA 90401, USA","neighborhood":null,"lat":34.0098476,"lng":-118.4964629,"zipcode":"90401"},{"location":"Clifton's Republic","address":"648 S. Broadway Ave. Los Angeles, ","formattedAddress":"648 S Broadway, Los Angeles, CA 90014, USA","lat":34.0452841,"lng":-118.2528166,"zipcode":"90014","city":"Los Angeles","neighborhood":"Central LA"},{"location":"The Airliner","address":"2419 N. Broadway Los Angeles, ","formattedAddress":"2419 N Broadway, Los Angeles, CA 90031, USA","neighborhood":"Montecito Heights","lat":34.0738696,"lng":-118.2162469,"zipcode":"90031"},{"location":"Union Station","address":"800 N. Alameda St. Los Angeles, ","formattedAddress":"800 North Alameda Street, Los Angeles, CA 90012, USA","lat":34.0561193,"lng":-118.2375219,"zipcode":"90012","city":"Los Angeles","neighborhood":"Central LA"},{"location":"Molly Malone's","address":"575 S. Fairfax Ave. Los Angeles, ","formattedAddress":"575 S Fairfax Ave, Los Angeles, CA 90036, USA","neighborhood":"Carthay Circle","lat":34.065287,"lng":-118.361697,"zipcode":"90036"},{"location":"Westwood Village","address":"1031 Broxton Ave Los Angeles, CA California 90024 310-470-1812","formattedAddress":"1031 Broxton Ave, Los Angeles, CA 90024, USA","neighborhood":"Westwood","lat":34.0618175,"lng":-118.4465493,"zipcode":"90024"},{"location":"Figat7th","address":"735 S. Figueroa St. Los Angeles, ","formattedAddress":"735 S Figueroa St, Los Angeles, CA 90017, USA","neighborhood":"Downtown","lat":34.0492459,"lng":-118.2617532,"zipcode":"90017"},{"location":"Petersen Automotive Museum","address":"6060 Wilshire Blvd., Los Angeles, ","formattedAddress":"6060 Wilshire Blvd, Los Angeles, CA 90036, USA","neighborhood":"Mid-Wilshire","lat":34.0619358,"lng":-118.3614346,"zipcode":"90036"},{"location":"Los Angeles Theatre","address":"615 S. Broadway Los Angeles, ","formattedAddress":"615 S Broadway, Los Angeles, CA 90014, USA","neighborhood":"Downtown","lat":34.046444,"lng":-118.2526466,"zipcode":"90014"},{"location":"SugarMynt Gallery","address":"810 Meridian Ave. South Pasadena, CA South Pasadena ","formattedAddress":"810 Meridian Ave, South Pasadena, CA 91030, USA","neighborhood":null,"lat":34.1162721,"lng":-118.1571171,"zipcode":"91030"},{"location":"San Gabriel Mission Playhouse","address":"320 Mission Dr. San Gabriel, ","formattedAddress":"320 N Mission Dr, San Gabriel, CA 91775, USA","neighborhood":null,"lat":34.1068399,"lng":-118.1112117,"zipcode":"91775"},{"location":"Santa Monica Bay Woman's Club","address":"1210 4th St., Santa Monica CA  ","formattedAddress":"1210 4th St, Santa Monica, CA 90401, USA","lat":34.0186332,"lng":-118.4980129,"zipcode":"90401","city":"Santa Monica","neighborhood":"Downtown"},{"location":"Los Angeles Zoo & Botanical Gardens","address":"5333 Zoo Dr. Los Angeles, ","formattedAddress":"5333 Zoo Dr, Los Angeles, CA 90027, USA","lat":34.1490401,"lng":-118.2840485,"zipcode":"90027","city":"Los Angeles"},{"location":"Los Angeles Central Library, Mark Taper Auditorium","address":"630 W. Fifth St. Los Angeles, ","formattedAddress":"630 W 5th St, Los Angeles, CA 90071, USA","neighborhood":"Downtown","lat":34.0506708,"lng":-118.2551963,"zipcode":"90071"},{"location":"Desert Rose","address":"1700 Hillhurst Ave. Los Angeles, ","formattedAddress":"1700 Hillhurst Ave, Los Angeles, CA 90027, USA","neighborhood":"Central LA","lat":34.1019661,"lng":-118.287047,"zipcode":"90027"},{"location":"Old Town Music Hall","address":"140 Richmond St. El Segundo, ","formattedAddress":"140 Richmond St, El Segundo, CA 90245, USA","lat":33.9175771,"lng":-118.4169034,"zipcode":"90245","city":"El Segundo"},{"location":"Woodley Park","address":"6350 Woodley Ave. Van Nuys, ","formattedAddress":"6350 Woodley Ave, Van Nuys, CA 91436, USA","neighborhood":"Van Nuys","lat":34.1786563,"lng":-118.4764638,"zipcode":"91436"},{"location":"The Dog Bakery","address":"12112 Venice Blvd Los Angeles, ","formattedAddress":"12112 Venice Blvd, Los Angeles, CA 90066, USA","lat":34.005143,"lng":-118.4300922,"zipcode":"90066","city":"Los Angeles","neighborhood":"Mar Vista"},{"location":"San Fernando Valley Arts & Cultural Center","address":"18312 Oxnard St Tarzana ","formattedAddress":"18312 Oxnard St, Tarzana, CA 91356, USA","lat":34.17962120000001,"lng":-118.5314765,"zipcode":"91356","city":"Los Angeles","neighborhood":"Tarzana"},{"location":"Paladino's","address":"6101 Reseda Blvd. Reseda, ","formattedAddress":"6101 Reseda Blvd, Reseda, CA 91335, USA","neighborhood":"Reseda","lat":34.1810015,"lng":-118.5360363,"zipcode":"91335"},{"location":"Bee Canyon Park","address":"17307 Sesnon Blvd. Los Angeles, ","formattedAddress":"17307 Sesnon Blvd, Granada Hills, CA 91344, USA","neighborhood":"Granada Hills","lat":34.3084174,"lng":-118.510448,"zipcode":"91344"},{"location":"Millennium Biltmore Hotel Los Angeles","address":"506 S. Grand Ave. Los Angeles, ","formattedAddress":"506 S Grand Ave, Los Angeles, CA 90071, USA","neighborhood":"Downtown","lat":34.0498012,"lng":-118.2539457,"zipcode":"90071"},{"location":"The Belasco Theater","address":"1050 S. Hill St. Los Angeles, ","formattedAddress":"1050 Hill St, Los Angeles, CA 90015, USA","neighborhood":"Downtown","lat":34.0402556,"lng":-118.2592519,"zipcode":"90015"},{"location":"Ireland's 32","address":"13721 Burbank Blvd. Van Nuys, ","formattedAddress":"13721 Burbank Blvd, Van Nuys, CA 91401, USA","neighborhood":"Van Nuys","lat":34.1723929,"lng":-118.4321711,"zipcode":"91401"},{"location":"LA Clippers Spirit Training Center","address":"1212 S Flower St, Level B Los Angeles, ","formattedAddress":"1212 S Flower St, Los Angeles, CA 90015, USA","neighborhood":"South Park","lat":34.0411263,"lng":-118.2652165,"zipcode":"90015"},{"location":"Il Piccolo Verde","address":"140 S. Barrington Pl. Los Angeles, ","formattedAddress":"140 S Barrington Pl, Los Angeles, CA 90049, USA","neighborhood":null,"lat":34.0662676,"lng":-118.4688297,"zipcode":"90049"},{"location":"Rafa's Lounge","address":"1836 W. Sunset Blvd. Los Angeles, ","formattedAddress":"1836 Sunset Blvd, Los Angeles, CA 90026, USA","neighborhood":"Echo Park","lat":34.0778325,"lng":-118.2603935,"zipcode":"90026"},{"location":"AMC Century City 15","address":"10250 Santa Monica Blvd Los Angeles ","formattedAddress":"10250 Santa Monica Blvd, Los Angeles, CA 90067, USA","lat":34.0599924,"lng":-118.4200376,"zipcode":"90067","city":"Los Angeles","neighborhood":"Century City"},{"location":"The SmokeHouse Restaurant","address":"4420 W. Lakeside Dr. Burbank, ","formattedAddress":"4420 Lakeside Dr, Burbank, CA 91505, USA","neighborhood":null,"lat":34.1455215,"lng":-118.341308,"zipcode":"91505"},{"location":"Spaghettini Seal Beach","address":"3005 Old Ranch Parkway Seal Beach, ","formattedAddress":"3005 Old Ranch Pkwy, Seal Beach, CA 90740, USA","neighborhood":null,"lat":33.7765033,"lng":-118.0736813,"zipcode":"90740"},{"location":"Little Tokyo","address":"262 S Los Angeles St. Los Angeles CA","formattedAddress":"262 S Los Angeles St, Los Angeles, CA 90012, USA","lat":34.0485578,"lng":-118.2443505,"zipcode":"90012","city":"Los Angeles","neighborhood":"Central LA"},{"location":"L.A. Workers Center","address":"1251 S. St. Andrews Place, Los Angeles, ","formattedAddress":"1251 S St Andrews Pl, Los Angeles, CA 90019, USA","neighborhood":"Central LA","lat":34.0475834,"lng":-118.3120182,"zipcode":"90019"},{"location":"Sierra Madre Playhouse","address":"87 W. Sierra Madre Blvd., Sierra Madre, ","formattedAddress":"87 W Sierra Madre Blvd, Sierra Madre, CA 91024, USA","neighborhood":null,"lat":34.1621545,"lng":-118.0546539,"zipcode":"91024"},{"location":"Knights of Columbus Hall","address":"21433 Strathern St. Canoga Park, ","formattedAddress":"21433 Strathern St, Canoga Park, CA 91304, USA","neighborhood":"Canoga Park","lat":34.21586130000001,"lng":-118.5988151,"zipcode":"91304"},{"location":"Brand Library & Art Center","address":"1601 W. Mountain St. Glendale, ","formattedAddress":"1601 W Mountain St, Glendale, CA 91201, USA","neighborhood":"Verdugo Mountains","lat":34.1826353,"lng":-118.2764402,"zipcode":"91201"},{"location":"The Federal","address":"5303 N. Lankershim Blvd. North Hollywood, ","formattedAddress":"5303 Lankershim Blvd, Los Angeles, CA 91601, USA","lat":34.1671534,"lng":-118.3762863,"zipcode":"91601","city":"Los Angeles","neighborhood":"NoHo Arts District"},{"location":"Boulevard Music","address":"4316 Sepulveda Blvd. Culver City, ","formattedAddress":"4316 Sepulveda Blvd, Culver City, CA 90230, USA","lat":34.0045754,"lng":-118.4092156,"zipcode":"90230","city":"Culver City","neighborhood":"Park West"},{"location":"Sunset Theatre Company","address":"1603 Aviation Blvd. #6 Redondo Beach,, ","formattedAddress":"1603 Aviation Blvd #6, Redondo Beach, CA 90278, USA","lat":33.8696503,"lng":-118.3828985,"zipcode":"90278","city":"Redondo Beach","neighborhood":"North Redondo"},{"location":"Pierce College, Parking Lot 7","address":"Victory Boulevard at Mason Ave. Woodland Hills, California 91306 310-422-1844","formattedAddress":"Victory Blvd & Mason Ave, Winnetka, CA 91306, USA","neighborhood":"Winnetka","lat":34.1884094,"lng":-118.5797186,"zipcode":"91306"},{"location":"Oyster House Saloon","address":"12446 Moorpark St. Studio City, ","formattedAddress":"12446 Moorpark St, Studio City, CA 91604, USA","neighborhood":"Studio City","lat":34.1501758,"lng":-118.4047244,"zipcode":"91604"},{"location":"The New Townhouse","address":"6835 La Tijera Blvd. Los Angeles, ","formattedAddress":"6835 La Tijera Blvd, Los Angeles, CA 90045, USA","lat":33.9768124,"lng":-118.3732336,"zipcode":"90045","city":"Los Angeles"},{"location":"The Fonda Theatre","address":"6126 Hollywood Blvd. Los Angeles, ","formattedAddress":"6126 Hollywood Blvd, Los Angeles, CA 90028, USA","neighborhood":"Hollywood","lat":34.1012695,"lng":-118.3232478,"zipcode":"90028"},{"location":"Rolling Hills United Methodist Church","address":"26438 Crenshaw Blvd. Palos Verdes Peninsula, ","formattedAddress":"26438 Crenshaw Blvd, Rolling Hills, CA 90274, USA","lat":33.783095,"lng":-118.350654,"zipcode":"90274","city":"Rolling Hills"},{"location":"Palm Tree L.A.","address":"3240 Wilshire Blvd. Los Angeles, ","formattedAddress":"3240 Wilshire Blvd, Los Angeles, CA 90010, USA","neighborhood":"Koreatown","lat":34.0614383,"lng":-118.2925458,"zipcode":"90010"},{"location":"AMC Orange 30 (AMC Block 30)","address":"20 City Blvd. W. Orange, ","formattedAddress":"20 City Blvd W, Orange, CA 92868, USA","neighborhood":"Anaheim Resort","lat":33.7848294,"lng":-117.8935314,"zipcode":"92868"},{"location":"De Re Gallery","address":"8920 Melrose Ave. West Hollywood, ","formattedAddress":"8920 Melrose Ave, West Hollywood, CA 90069, USA","lat":34.0806171,"lng":-118.3874756,"zipcode":"90069","city":"West Hollywood","neighborhood":"Central LA"},{"location":"Artists and Fleas","address":"647 Mateo St. Los Angeles, ","formattedAddress":"647 Mateo St, Los Angeles, CA 90021, USA","lat":34.0364202,"lng":-118.2328638,"zipcode":"90021","city":"Los Angeles","neighborhood":"Downtown"},{"location":"Piccolo's Thrift Store","address":"1859 W. Gage Ave. Los Angeles, ","formattedAddress":"1859 W Gage Ave, Los Angeles, CA 90047, USA","neighborhood":"South Los Angeles","lat":33.9820911,"lng":-118.3110949,"zipcode":"90047"},{"location":"Discovery Cube in Los Angeles","address":"11800 Foothill Blvd. Los Angeles, California 91342 818-686-2823","formattedAddress":"11800 Foothill Blvd, Sylmar, CA 91342, USA","neighborhood":"Sylmar","lat":34.2729595,"lng":-118.3932212,"zipcode":"91342"},{"location":"The Lincoln","address":"2536 Lincoln Blvd Venice, ","formattedAddress":"2536 Lincoln Blvd, Venice, CA 90291, USA","lat":33.9915689,"lng":-118.4483632,"zipcode":"90291","city":"Los Angeles","neighborhood":"Venice"},{"location":"Tuning Fork","address":"12051 Ventura Place Studio City, ","formattedAddress":"12051 Ventura Pl, Studio City, CA 91604, USA","neighborhood":"Studio City","lat":34.1446269,"lng":-118.3943098,"zipcode":"91604"},{"location":"The Granada Theatre","address":"1214 State St. Santa Barbara, ","formattedAddress":"1214 State St, Santa Barbara, CA 93101, USA","lat":34.4239219,"lng":-119.7046944,"zipcode":"93101","city":"Santa Barbara","neighborhood":"Santa Barbara Downtown"},{"location":"Gamble House","address":"4 Westmoreland Pasadena, ","formattedAddress":"4 Westmoreland Pl, Pasadena, CA 91103, USA","lat":34.1516225,"lng":-118.1609168,"zipcode":"91103","city":"Pasadena","neighborhood":"North Arroyo"},{"location":"South Coast Botanic Garden","address":"26300 Crenshaw Boulevard, Palos Verdes Peninsula, CA, Palos Verdes Estates, ","formattedAddress":"26300 Crenshaw Blvd, Palos Verdes Estates, CA 90274, USA","neighborhood":null,"lat":33.7831775,"lng":-118.3488527,"zipcode":"90274"},{"location":"Hollywood Palladium","address":"6215 W. Sunset Blvd. Los Angeles, ","formattedAddress":"6215 Sunset Blvd, Los Angeles, CA 90028, USA","neighborhood":"Hollywood","lat":34.0984783,"lng":-118.3243046,"zipcode":"90028"},{"location":"Stars on Brand","address":"417 N. Brand Blvd. Glendale, ","formattedAddress":"417 N Brand Blvd, Glendale, CA 91203, USA","neighborhood":"Downtown","lat":34.1524264,"lng":-118.255263,"zipcode":"91203"},{"location":"GTC Burbank","address":"1111-B W. Olive Ave. Burbank, ","formattedAddress":"1111 W Olive Ave, Burbank, CA 91506, USA","neighborhood":null,"lat":34.1721349,"lng":-118.3185346,"zipcode":"91506"},{"location":"UnUrban Coffee House","address":"3301 Pico Blvd. Santa Monica, ","formattedAddress":"3301 Pico Blvd, Santa Monica, CA 90404, USA","lat":34.0269553,"lng":-118.4555966,"zipcode":"90404","city":"Santa Monica","neighborhood":"Pico"},{"location":"Electric Dusk Drive-In","address":"2930 Fletcher Dr. Glendale, ","formattedAddress":"2930 Fletcher Dr, Los Angeles, CA 90065, USA","neighborhood":"Atwater Village","lat":34.1139623,"lng":-118.2465748,"zipcode":"90065"},{"location":"LA County Arboretum and Botanic Garden","address":"301 North Baldwin Avenue Arcadia ","formattedAddress":"301 N Baldwin Ave, Arcadia, CA 91007, USA","lat":34.1448279,"lng":-118.0508813,"zipcode":"91007","city":"Arcadia"},{"location":"Second City Studio Theater","address":"6560 Hollywood Blvd., Second Floor Los Angeles, ","formattedAddress":"6560 Hollywood Blvd, Los Angeles, CA 90028, USA","neighborhood":"Hollywood","lat":34.1013556,"lng":-118.3331068,"zipcode":"90028"},{"location":"Libbey Bowl","address":"210 S. Signal St. Ojai, ","formattedAddress":"210 S Signal St, Ojai, CA 93023, USA","neighborhood":null,"lat":34.4458781,"lng":-119.2458306,"zipcode":"93023"},{"location":"Hinano Cafe","address":"15 W. Washington Blvd. Marina Del Rey, ","formattedAddress":"15 Washington Blvd, Marina Del Rey, CA 90292, USA","lat":33.979448,"lng":-118.4665257,"zipcode":"90292","city":"Marina del Rey","neighborhood":"Venice"},{"location":"Melrose Trading Post","address":"7850 Melrose Ave. Los Angeles, ","formattedAddress":"7850 Melrose Ave, Los Angeles, CA 90036, USA","neighborhood":"Central LA","lat":34.0834007,"lng":-118.3597341,"zipcode":"90036"},{"location":"Kulak's Woodshed","address":"5230 1/2 Laurel Canyon Blvd. Studio City, ","formattedAddress":"4249 1/2 Laurel Canyon Blvd, Studio City, CA 91604, USA","neighborhood":"Studio City","lat":34.1482267,"lng":-118.3965899,"zipcode":"91604"},{"location":"OMGC Parish","address":"2060 N Vermont Ave. Los Angeles, ","formattedAddress":"2060 N Vermont Ave, Los Angeles, CA 90027, USA","neighborhood":"Los Feliz","lat":34.1096399,"lng":-118.2917124,"zipcode":"90027"},{"location":"Gender Free Arts","address":"1732 Aviation Blvd. Redondo Beach, ","formattedAddress":"1732 Aviation Blvd, Redondo Beach, CA 90278, USA","lat":33.8716714,"lng":-118.3812209,"zipcode":"90278","city":"Redondo Beach","neighborhood":"North Redondo"},{"location":"The Warehouse Restaurant","address":"4499 Admiralty Way Marina del Rey, ","formattedAddress":"4499 Admiralty Way, Marina Del Rey, CA 90292, USA","neighborhood":null,"lat":33.9829529,"lng":-118.4444626,"zipcode":"90292"},{"location":"Milkmade","address":"1413 Abbot Kinney Blvd. Venice, ","formattedAddress":"1413 Abbot Kinney Blvd, Venice, CA 90291, USA","neighborhood":"Venice","lat":33.99070450000001,"lng":-118.4655091,"zipcode":"90291"},{"location":"Griffith Park","address":"4730 Crystal Springs Dr. Los Angeles, ","formattedAddress":"4730 Crystal Springs Dr, Los Angeles, CA 90027, USA","neighborhood":null,"lat":34.1425659,"lng":-118.2861657,"zipcode":"90027"},{"location":"Los Angeles Convention & Exhibition Center","address":"1201 S Figueroa St Los Angeles ","formattedAddress":"1201 S Figueroa St, Los Angeles, CA 90015, USA","lat":34.0413606,"lng":-118.2697771,"zipcode":"90015","city":"Los Angeles","neighborhood":"Downtown"},{"location":"Hollywood Bowl","address":"2301 N. Highland Ave. Los Angeles, ","formattedAddress":"2301 Highland Ave, Los Angeles, CA 90068, USA","lat":34.1127392,"lng":-118.3388562,"zipcode":"90068","city":"Los Angeles","neighborhood":"Central LA"},{"location":"Aero Theatre","address":"1328 Montana Ave., Santa Monica, ","formattedAddress":"1328 Montana Ave, Santa Monica, CA 90403, USA","neighborhood":"Wilshire Montana","lat":34.0318921,"lng":-118.4952572,"zipcode":"90403"},{"location":"Point Fermin Park","address":"807 W Paseo Del Mar San Peddro, CA ","formattedAddress":"807 W Paseo Del Mar, San Pedro, CA 90731, USA","lat":33.7069915,"lng":-118.2934374,"zipcode":"90731","city":"Los Angeles","neighborhood":"San Pedro"},{"location":"California Plaza","address":"350 S. Grand Ave. Los Angeles, ","formattedAddress":"350 S Grand Ave, Los Angeles, CA 90003, USA","neighborhood":"South Los Angeles","lat":33.9705046,"lng":-118.2801398,"zipcode":"90003"},{"location":"The Canyon","address":"28912 Roadside Dr., Agoura Hills, ","formattedAddress":"28912 Roadside Dr, Agoura Hills, CA 91301, USA","neighborhood":null,"lat":34.144004,"lng":-118.7551541,"zipcode":"91301"},{"location":"The Roxy","address":"9009 W. Sunset Blvd. West Hollywood, ","formattedAddress":"9009 Sunset Blvd, West Hollywood, CA 90069, USA","neighborhood":"Sunset Strip","lat":34.0909001,"lng":-118.3879395,"zipcode":"90069"},{"location":"MacArthur Park Recreation Center","address":"2230 W. 6th St., Los Angeles, ","formattedAddress":"2230 W 6th St, Los Angeles, CA 90057, USA","neighborhood":"Central LA","lat":34.060205,"lng":-118.2770517,"zipcode":"90057"},{"location":"Art Share L.A.","address":"801 E 4th Pl., Los Angeles 90013, us","formattedAddress":"801 E 4th Pl, Los Angeles, CA 90013, USA","neighborhood":"Downtown","lat":34.0445952,"lng":-118.2364072,"zipcode":"90013"},{"location":"Pasadena Museum of California Art","address":"490 East Union Street, Pasadena, ","formattedAddress":"490 E Union St, Pasadena, CA 91101, USA","neighborhood":null,"lat":34.1468743,"lng":-118.1401975,"zipcode":"91101"},{"location":"American Museum of Ceramic Art","address":"399 N. Garey Ave Pomona, California 91767 909-865-3146","formattedAddress":"399 N Garey Ave, Pomona, CA 91767, USA","neighborhood":"Westmont","lat":34.0611548,"lng":-117.7507227,"zipcode":"91767"},{"location":"Escape Room LA","address":"120 E. 8th St Los Angeles, ","formattedAddress":"120 E 8th St, Los Angeles, CA 90014, USA","neighborhood":"Downtown","lat":34.0420721,"lng":-118.2528292,"zipcode":"90014"},{"location":"Center for Land Use Interpretation","address":"9331 Venice Blvd. Culver City, ","formattedAddress":"9331 Venice Blvd, Culver City, CA 90232, USA","neighborhood":"Palms","lat":34.0259925,"lng":-118.3948444,"zipcode":"90232"},{"location":"LA Plaza de Cultura y Artes","address":"501 N. Main St. Los Angeles, ","formattedAddress":"501 N Main St, Los Angeles, CA 90012, USA","lat":34.0564554,"lng":-118.2398448,"zipcode":"90012","city":"Los Angeles","neighborhood":"Central LA"},{"location":"Brand Library","address":"1601 West Mountain Street Glendale ","formattedAddress":"1601 W Mountain St, Glendale, CA 91201, USA","lat":34.1826353,"lng":-118.2764402,"zipcode":"91201","city":"Glendale","neighborhood":"Verdugo Mountains"},{"location":"Rogue Machine Theatre","address":"1089 N. Oxford Ave. Los Angeles, ","formattedAddress":"1089 N Oxford Ave, Los Angeles, CA 90029, USA","neighborhood":"Hollywood","lat":34.0905481,"lng":-118.3079128,"zipcode":"90029"},{"location":"Melrose Trading Post","address":"7850 Melrose Ave. Los Angeles, ","formattedAddress":"7850 Melrose Ave, Los Angeles, CA 90036, USA","neighborhood":"Central LA","lat":34.0834007,"lng":-118.3597341,"zipcode":"90036"},{"location":"Little Tokyo","address":"262 S Los Angeles St. Los Angeles CA","formattedAddress":"262 S Los Angeles St, Los Angeles, CA 90012, USA","lat":34.0485578,"lng":-118.2443505,"zipcode":"90012","city":"Los Angeles","neighborhood":"Central LA"},{"location":"Santa Monica Playhouse - The Other Space","address":"1211 4th Street Santa Monica ","formattedAddress":"1211 4th St, Santa Monica, CA 90401, USA","neighborhood":"Downtown","lat":34.0189556,"lng":-118.4977074,"zipcode":"90401"},{"location":"Theatricum Botanicum","address":"1419 N. Topanga Cyn Blvd. Topanga ","formattedAddress":"1419 N Topanga Canyon Blvd, Topanga, CA 90290, USA","lat":34.1108513,"lng":-118.5928551,"zipcode":"90290","city":"Topanga"},{"location":"Theatre 360","address":"75 N Marengo Ave, Pasadena, ","formattedAddress":"75 Marengo Ave, Pasadena, CA 91101, USA","neighborhood":null,"lat":34.1471092,"lng":-118.1465071,"zipcode":"91101"},{"location":"Mr. C Hotel","address":"1226 Beverwil Drive 12th Floor Los Angeles ","formattedAddress":"1226 Beverwil Dr, Los Angeles, CA 90035, USA","lat":34.0553185,"lng":-118.399104,"zipcode":"90035","city":"Los Angeles","neighborhood":"Pico - Robertson"},{"location":"Maker City LA at The Reef","address":"1933 S. Broadway, 11th Floor Los Angeles, CA ","formattedAddress":"1933 S Broadway, Los Angeles, CA 90007, USA","lat":34.0312448,"lng":-118.2665321,"zipcode":"90007","city":"Los Angeles","neighborhood":"South Los Angeles"},{"location":"LAND","address":"6775 California Route 2 Los Angeles ","formattedAddress":"6775 California Route 2, Los Angeles, CA 90038, USA","lat":34.091071,"lng":-118.3382475,"zipcode":"90038","city":"Los Angeles","neighborhood":"Hollywood"},{"location":"Skirball Cultural Center","address":"2701 N. Sepulveda Blvd. Los Angeles, ","formattedAddress":"2701 N Sepulveda Blvd, Los Angeles, CA 90049, USA","neighborhood":null,"lat":34.124832,"lng":-118.4791916,"zipcode":"90049"},{"location":"Little Fish Theatre","address":"777 S. Centre St. San Pedro ","formattedAddress":"777 S Centre St, San Pedro, CA 90731, USA","neighborhood":"San Pedro","lat":33.7372675,"lng":-118.2837083,"zipcode":"90731"},{"location":"Avenue des Arts Gallery","address":"807 S Los Angeles Street Downtown ","formattedAddress":"807 S Bonnie Brae St, Los Angeles, CA 90057, USA","lat":34.0536478,"lng":-118.2758882,"zipcode":"90057","city":"Los Angeles","neighborhood":"Westlake South"},{"location":"Skirball Cultural Center","address":"2701 N. Sepulveda Blvd. Los Angeles, ","formattedAddress":"2701 N Sepulveda Blvd, Los Angeles, CA 90049, USA","neighborhood":null,"lat":34.124832,"lng":-118.4791916,"zipcode":"90049"},{"location":"Venice Arts","address":"13445 Beach Avenue Marina del Rey ","formattedAddress":"13445 Beach Ave, Marina Del Rey, CA 90292, USA","lat":33.9909428,"lng":-118.4456119,"zipcode":"90292","city":"Marina del Rey"},{"location":"Chinese American Museum","address":"425 N. Los Angeles St. Los Angeles, ","formattedAddress":"425 N Los Angeles St, Los Angeles, CA 90012, USA","neighborhood":"Central LA","lat":34.0558393,"lng":-118.23909,"zipcode":"90012"},{"location":"Citadel Outlets","address":"100 Citadel Drive, Suite 480 Los Angeles ","formattedAddress":"100 Citadel Dr #480, Commerce, CA 90040, USA","neighborhood":"South Montebello","lat":34.006156,"lng":-118.1516239,"zipcode":"90040"},{"location":"Petersen Automotive Museum","address":"6060 Wilshire Blvd., Los Angeles, ","formattedAddress":"6060 Wilshire Blvd, Los Angeles, CA 90036, USA","neighborhood":"Mid-Wilshire","lat":34.0619358,"lng":-118.3614346,"zipcode":"90036"},{"location":"Hollywood Pantages Theatre","address":"6233 Hollywood Blvd., Los Angeles 90028, us","formattedAddress":"6233 Hollywood Blvd, Los Angeles, CA 90028, USA","neighborhood":"Hollywood","lat":34.102001,"lng":-118.325867,"zipcode":"90028"},{"location":"Angel Stadium of Anaheim","address":"2000 Gene Autry Way Anaheim, ","formattedAddress":"2000 E Gene Autry Way, Anaheim, CA 92806, USA","neighborhood":"Platinum Triangle","lat":33.8002902,"lng":-117.8827493,"zipcode":"92806"},{"location":"Durden and Ray","address":"1923 S. Santa Fe Ave. Los Angeles, CA Downtown ","formattedAddress":"1923 S Santa Fe Ave, Los Angeles, CA 90021, USA","lat":34.0223484,"lng":-118.2304801,"zipcode":"90021","city":"Los Angeles","neighborhood":"Boyle Heights"},{"location":"Long Beach Arena- Long Beach Convention and Entertainment Center","address":"300 E. Ocean Blvd. Long Beach CA","formattedAddress":"300 E Ocean Blvd, Long Beach, CA 90802, USA","neighborhood":"Waterfront","lat":33.76520350000001,"lng":-118.1893341,"zipcode":"90802"},{"location":"Rose Bowl","address":"1001 Rose Bowl Dr. Pasadena, ","formattedAddress":"1001 Rose Bowl Dr, Pasadena, CA 91103, USA","lat":34.1606364,"lng":-118.1674865,"zipcode":"91103","city":"Pasadena","neighborhood":"North Arroyo"},{"location":"Hollywood Bowl","address":"2301 N. Highland Ave. Los Angeles, ","formattedAddress":"2301 Highland Ave, Los Angeles, CA 90068, USA","lat":34.1127392,"lng":-118.3388562,"zipcode":"90068","city":"Los Angeles","neighborhood":"Central LA"},{"location":"The Wiltern","address":"3790 Wilshire Blvd. Los Angeles, ","formattedAddress":"3790 Wilshire Blvd, Los Angeles, CA 90010, USA","neighborhood":"Koreatown","lat":34.0614896,"lng":-118.3087587,"zipcode":"90010"},{"location":"The Federal Bar","address":"102 Pine Ave. Long Beach, ","formattedAddress":"102 Pine Ave, Long Beach, CA 90802, USA","neighborhood":"Downtown","lat":33.7682406,"lng":-118.1920563,"zipcode":"90802"},{"location":"The Greek Theatre","address":"2700 N. Vermont Ave. Los Angeles, ","formattedAddress":"2700 N Vermont Ave, Los Angeles, CA 90027, USA","neighborhood":null,"lat":34.1205588,"lng":-118.2963915,"zipcode":"90027"},{"location":"Hollywood Improv (The Main Room)","address":"8162 Melrose Ave. Hollywood, ","formattedAddress":"8162 Melrose Ave, Los Angeles, CA 90048, USA","neighborhood":"Beverly Grove","lat":34.0834368,"lng":-118.3672735,"zipcode":"90048"},{"location":"Whisky A Go Go","address":"8901 sunset blvd, West Hollywood, ","formattedAddress":"8901 Sunset Blvd, West Hollywood, CA 90069, USA","neighborhood":"Sunset Strip","lat":34.0908403,"lng":-118.3857013,"zipcode":"90069"},{"location":"Genghis Cohen","address":"740 N. Fairfax Ave. Los Angeles, ","formattedAddress":"740 N Fairfax Ave, Los Angeles, CA 90046, USA","neighborhood":"Fairfax","lat":34.0850767,"lng":-118.3611139,"zipcode":"90046"},{"location":"Edgemar Center for the Arts","address":"2437 Main St. Santa Monica, ","formattedAddress":"2437 Main St, Santa Monica, CA 90405, USA","neighborhood":"Ocean Park","lat":34.0035616,"lng":-118.4847408,"zipcode":"90405"},{"location":"Sierra Madre Playhouse","address":"87 W. Sierra Madre Blvd., Sierra Madre, ","formattedAddress":"87 W Sierra Madre Blvd, Sierra Madre, CA 91024, USA","neighborhood":null,"lat":34.1621545,"lng":-118.0546539,"zipcode":"91024"},{"location":"D'Vine Lounge Bar","address":"821 S. Flower St, Downtown, ","formattedAddress":"821 S Flower St, Los Angeles, CA 90017, USA","neighborhood":"Downtown","lat":34.0468508,"lng":-118.2606988,"zipcode":"90017"},{"location":"Molly Malones","address":"575 S. Fairfax Ave., Los Angeles, ","formattedAddress":"575 S Fairfax Ave, Los Angeles, CA 90036, USA","neighborhood":"Carthay Circle","lat":34.065287,"lng":-118.361697,"zipcode":"90036"},{"location":"Hollywood Palladium","address":"6215 W. Sunset Blvd. Los Angeles, ","formattedAddress":"6215 Sunset Blvd, Los Angeles, CA 90028, USA","neighborhood":"Hollywood","lat":34.0984783,"lng":-118.3243046,"zipcode":"90028"},{"location":"The Federal Underground","address":"102 Pine Ave, Long Beach 90802, us","formattedAddress":"102 Pine Ave, Long Beach, CA 90802, USA","neighborhood":"Downtown","lat":33.7682406,"lng":-118.1920563,"zipcode":"90802"},{"location":"Getty Center","address":"1200 Getty Center Drive Los Angeles ","formattedAddress":"1200 Getty Center Dr, Los Angeles, CA 90049, USA","neighborhood":"Brentwood","lat":34.0790329,"lng":-118.4751057,"zipcode":"90049"},{"location":"LACMA","address":"5905 Wilshire Blvd. Los Angeles, ","formattedAddress":"5905 Wilshire Blvd, Los Angeles, CA 90036, USA","neighborhood":"Mid-Wilshire","lat":34.0637913,"lng":-118.3588851,"zipcode":"90036"},{"location":"STAPLES Center","address":"1111 S. Figueroa St., Los Angeles, ","formattedAddress":"1111 S Figueroa St, Los Angeles, CA 90015, USA","neighborhood":"Downtown","lat":34.043125,"lng":-118.267118,"zipcode":"90015"},{"location":"GRAMMY Museum","address":"A245, 800 West Olympic Boulevard Los Angeles CA","formattedAddress":"800 W Olympic Blvd, Los Angeles, CA 90015, USA","neighborhood":"Downtown","lat":34.0449376,"lng":-118.2654979,"zipcode":"90015"},{"location":"Vroman's Bookstore","address":"695 E Colorado Blvd Pasadena ","formattedAddress":"695 E Colorado Blvd, Pasadena, CA 91101, USA","lat":34.14628150000001,"lng":-118.1361812,"zipcode":"91101","city":"Pasadena"},{"location":"Clifton's Republic","address":"648 S. Broadway Ave. Los Angeles, ","formattedAddress":"648 S Broadway, Los Angeles, CA 90014, USA","lat":34.0452841,"lng":-118.2528166,"zipcode":"90014","city":"Los Angeles","neighborhood":"Central LA"},{"location":"Hollywood Bowl","address":"2301 N. Highland Ave. Los Angeles, ","formattedAddress":"2301 Highland Ave, Los Angeles, CA 90068, USA","lat":34.1127392,"lng":-118.3388562,"zipcode":"90068","city":"Los Angeles","neighborhood":"Central LA"},{"location":"The Belasco Theater","address":"1050 S. Hill St. Los Angeles, ","formattedAddress":"1050 Hill St, Los Angeles, CA 90015, USA","neighborhood":"Downtown","lat":34.0402556,"lng":-118.2592519,"zipcode":"90015"},{"location":"Soka Performing Arts Center","address":"1 University Drive, Aliso Viejo, ","formattedAddress":"1 University Cir, Aliso Viejo, CA 92656, USA","neighborhood":null,"lat":33.55587,"lng":-117.7335121,"zipcode":"92656"},{"location":"ROW DTLA","address":"777 S. Alameda St. Los Angeles, CA","formattedAddress":"777 S Alameda St, Los Angeles, CA 90021, USA","neighborhood":"Downtown","lat":34.0314345,"lng":-118.2388605,"zipcode":"90021"},{"location":"The Novo by Microsoft","address":"800 W. Olympic Blvd. Los Angeles, ","formattedAddress":"800 W Olympic Blvd, Los Angeles, CA 90015, USA","neighborhood":"Downtown","lat":34.0449376,"lng":-118.2654979,"zipcode":"90015"},{"location":"Dodger Stadium","address":"1000 Vin Scully Ave., Los Angeles, ","formattedAddress":"1000 Vin Scully Ave, Los Angeles, CA 90026, USA","neighborhood":"Echo Park","lat":34.0724463,"lng":-118.2482212,"zipcode":"90026"},{"location":"StubHub Center","address":"18400 S. Avalon Blvd., Carson, CA, us","formattedAddress":"18400 S Avalon Blvd, Carson, CA 90746, USA","neighborhood":null,"lat":33.8639438,"lng":-118.2660058,"zipcode":"90746"},{"location":"Hornblower Cruises & Events","address":"13755 Fiji Way Marina Del Rey ","formattedAddress":"13755 Fiji Way, Marina Del Rey, CA 90292, USA","lat":33.9725614,"lng":-118.4462468,"zipcode":"90292","city":"Marina del Rey"},{"location":"The Bunny Museum","address":"2605 Lake Ave. Altadena, ","formattedAddress":"2605 Lake Ave, Altadena, CA 91001, USA","neighborhood":null,"lat":34.1904702,"lng":-118.1316075,"zipcode":"91001"},{"location":"Shade Hotel Redondo Beach","address":"655 N. Harbor Drive, Redondo Beach, CA, Redondo Beach, ","formattedAddress":"655 N Harbor Dr, Redondo Beach, CA 90277, USA","neighborhood":"South Redondo","lat":33.8477289,"lng":-118.3946334,"zipcode":"90277"},{"location":"Rose Bowl","address":"1001 Rose Bowl Dr. Pasadena, ","formattedAddress":"1001 Rose Bowl Dr, Pasadena, CA 91103, USA","lat":34.1606364,"lng":-118.1674865,"zipcode":"91103","city":"Pasadena","neighborhood":"North Arroyo"},{"location":"Grand Park","address":"200 N. Grand Ave. Los Angeles, ","formattedAddress":"200 N Grand Ave, Los Angeles, CA 90012, USA","lat":34.0562797,"lng":-118.2467434,"zipcode":"90012","city":"Los Angeles","neighborhood":"Central LA"},{"location":"Que Sera","address":"1923 E. Seventh St. Long Beach, ","formattedAddress":"1923 E 7th St, Long Beach, CA 90813, USA","lat":33.77560250000001,"lng":-118.168074,"zipcode":"90813","city":"Long Beach","neighborhood":"Hellman Street"},{"location":"Hollywood Improv (The Main Room)","address":"8162 Melrose Ave. Hollywood, ","formattedAddress":"8162 Melrose Ave, Los Angeles, CA 90048, USA","neighborhood":"Beverly Grove","lat":34.0834368,"lng":-118.3672735,"zipcode":"90048"},{"location":"El Rey Theatre","address":"5515 Wilshire Blvd. Los Angeles, ","formattedAddress":"5515 Wilshire Blvd, Los Angeles, CA 90036, USA","neighborhood":"Mid-Wilshire","lat":34.0626988,"lng":-118.3489004,"zipcode":"90036"},{"location":"Autry Museum of the American West","address":"4700 Western Heritage Way Los Angeles, ","formattedAddress":"4700 Western Heritage Way, Los Angeles, CA 90027, USA","neighborhood":null,"lat":34.1486202,"lng":-118.2812132,"zipcode":"90027"},{"location":"Downtown San Pedro","address":"398 W. 6th Street San Pedro ","formattedAddress":"398 W 6th St, San Pedro, CA 90731, USA","lat":33.7387602,"lng":-118.2857012,"zipcode":"90731","city":"Los Angeles","neighborhood":"San Pedro"},{"location":"El Rey Theatre","address":"5515 Wilshire Blvd. Los Angeles, ","formattedAddress":"5515 Wilshire Blvd, Los Angeles, CA 90036, USA","neighborhood":"Mid-Wilshire","lat":34.0626988,"lng":-118.3489004,"zipcode":"90036"},{"location":"Director's Guild of America","address":"7920 Sunset Blvd. Los Angeles ","formattedAddress":"7920 Sunset Blvd, Los Angeles, CA 90046, USA","neighborhood":"Central LA","lat":34.0975387,"lng":-118.362589,"zipcode":"90046"},{"location":"Molly Malones","address":"575 S. Fairfax Ave., Los Angeles, ","formattedAddress":"575 S Fairfax Ave, Los Angeles, CA 90036, USA","neighborhood":"Carthay Circle","lat":34.065287,"lng":-118.361697,"zipcode":"90036"},{"location":"Catalina Bar & Grill","address":"6725 W. Sunset Blvd. Los Angeles, ","formattedAddress":"6725 Sunset Blvd, Los Angeles, CA 90028, USA","neighborhood":"Hollywood","lat":34.09834420000001,"lng":-118.3373005,"zipcode":"90028"},{"location":"The Rose","address":"245 E. Green St. Pasadena, ","formattedAddress":"245 E Green St, Pasadena, CA 91101, USA","neighborhood":null,"lat":34.1445579,"lng":-118.1450515,"zipcode":"91101"},{"location":"The Canyon","address":"28912 Roadside Dr., Agoura Hills, ","formattedAddress":"28912 Roadside Dr, Agoura Hills, CA 91301, USA","neighborhood":null,"lat":34.144004,"lng":-118.7551541,"zipcode":"91301"},{"location":"Abbot Kinney Blvd.","address":"Abbot Kinney Blvd. and California St. Los Angeles CA","formattedAddress":"Abbot Kinney Blvd & California Ave, Venice, CA 90291, USA","lat":33.9906424,"lng":-118.4659828,"zipcode":"90291","city":"Los Angeles","neighborhood":"Venice"},{"location":"First Fridays Long Beach Art Walk","address":"4313 Atlantic Avenue Long Beach ","formattedAddress":"4313 Atlantic Ave, Long Beach, CA 90807, USA","lat":33.8347837,"lng":-118.1852911,"zipcode":"90807","city":"Long Beach","neighborhood":"Bixby Knolls"},{"location":"Los Angeles Memorial Coliseum","address":"3911 S. Figueroa St., Los Angeles 90037, us","formattedAddress":"3911 S Figueroa St, Los Angeles, CA 90037, USA","neighborhood":"South Los Angeles","lat":34.0128805,"lng":-118.2827671,"zipcode":"90037"},{"location":"The Novo by Microsoft","address":"800 W. Olympic Blvd. Los Angeles, ","formattedAddress":"800 W Olympic Blvd, Los Angeles, CA 90015, USA","neighborhood":"Downtown","lat":34.0449376,"lng":-118.2654979,"zipcode":"90015"},{"location":"STAPLES Center","address":"1111 S. Figueroa St., Los Angeles, ","formattedAddress":"1111 S Figueroa St, Los Angeles, CA 90015, USA","neighborhood":"Downtown","lat":34.043125,"lng":-118.267118,"zipcode":"90015"},{"location":"Hollywood Pantages Theatre","address":"6233 Hollywood Blvd., Los Angeles 90028, us","formattedAddress":"6233 Hollywood Blvd, Los Angeles, CA 90028, USA","neighborhood":"Hollywood","lat":34.102001,"lng":-118.325867,"zipcode":"90028"},{"location":"The Mint","address":"6010 W. Pico Blvd. Los Angeles, ","formattedAddress":"6010 W Pico Blvd, Los Angeles, CA 90035, USA","neighborhood":"Mid City","lat":34.0521634,"lng":-118.3716095,"zipcode":"90035"},{"location":"The Rose","address":"245 E. Green St. Pasadena, ","formattedAddress":"245 E Green St, Pasadena, CA 91101, USA","neighborhood":null,"lat":34.1445579,"lng":-118.1450515,"zipcode":"91101"},{"location":"Highland Park and surrounding areas","address":"York Blvd. and N. Ave. 50 Los Angeles CA","formattedAddress":"York Blvd & N Avenue 50, Los Angeles, CA 90042, USA","neighborhood":"Eagle Rock","lat":34.1214799,"lng":-118.206906,"zipcode":"90042"},{"location":"Downtown Long Beach","address":"Linden Ave. and E. Broadway Long Beach CA","formattedAddress":"E Broadway & Linden Ave, Long Beach, CA 90802, USA","neighborhood":"Downtown","lat":33.7692751,"lng":-118.1863671,"zipcode":"90802"},{"location":"Downtown Pomona","address":"Downtown Pomona Pomona ","formattedAddress":"119 W 2nd St, Pomona, CA 91766, USA","neighborhood":"Westmont","lat":34.0580378,"lng":-117.7506816,"zipcode":"91766"},{"location":"Agoura Hills/Calabasas Community Center","address":"27040 Malibu Hills Road Calabasas ","formattedAddress":"27040 Malibu Hills Rd, Agoura Hills, CA 91301, USA","lat":34.1361783,"lng":-118.7130797,"zipcode":"91301","city":"Agoura Hills"},{"location":"The Gilb Museum of Arcadia Heritage","address":"380 West Huntington Drive, Arcadia 91007, us","formattedAddress":"380 W Huntington Dr, Arcadia, CA 91007, USA","neighborhood":null,"lat":34.1318927,"lng":-118.0429425,"zipcode":"91007"},{"location":"Shrine Expo Hall","address":"665 W Jefferson Blvd. Los Angeles CA","formattedAddress":"665 W Jefferson Blvd, Los Angeles, CA 90007, USA","neighborhood":"South Los Angeles","lat":34.0236612,"lng":-118.2812202,"zipcode":"90007"},{"location":"Laemmle Noho 7","address":"5240 Lankershim Boulevard, North Hollywood 91601, us","formattedAddress":"5240 Lankershim Blvd, North Hollywood, CA 91601, USA","neighborhood":"North Hollywood","lat":34.1661289,"lng":-118.3749957,"zipcode":"91601"},{"location":"Pershing Square","address":"532 S. Olive St. Los Angeles, ","formattedAddress":"532 S Olive St, Los Angeles, CA 90013, USA","lat":34.0485099,"lng":-118.2532776,"zipcode":"90013","city":"Los Angeles","neighborhood":"Downtown"},{"location":"Fred Kavli Theatre","address":"2100 E. Thousand Oaks Thousand Oaks CA","formattedAddress":"2100 Thousand Oaks Blvd, Thousand Oaks, CA 91362, USA","lat":34.1746462,"lng":-118.848904,"zipcode":"91362","city":"Thousand Oaks"},{"location":"Orpheum Theatre","address":"842 S Broadway, Los Angeles, ","formattedAddress":"842 S Broadway, Los Angeles, CA 90014, USA","neighborhood":"Downtown","lat":34.0426926,"lng":-118.2552867,"zipcode":"90014"},{"location":"The Dome Arclight Entertainment Center","address":"6360 W. Sunset Blvd. Hollywood, CA Hollywood ","formattedAddress":"6360 Sunset Blvd, Los Angeles, CA 90028, USA","lat":34.0973718,"lng":-118.3278725,"zipcode":"90028","city":"Los Angeles","neighborhood":"Hollywood"},{"location":"The Wiltern","address":"3790 Wilshire Blvd. Los Angeles, ","formattedAddress":"3790 Wilshire Blvd, Los Angeles, CA 90010, USA","neighborhood":"Koreatown","lat":34.0614896,"lng":-118.3087587,"zipcode":"90010"},{"location":"The Pasadena Civic","address":"300 E Green St. Pasadena CA","formattedAddress":"300 E Green St, Pasadena, CA 91101, USA","neighborhood":null,"lat":34.143817,"lng":-118.144302,"zipcode":"91101"},{"location":"Harvard Yard","address":"1400 S Western Ave Los Angeles ","formattedAddress":"1400 S Western Ave, Los Angeles, CA 90006, USA","lat":34.0460796,"lng":-118.3088764,"zipcode":"90006","city":"Los Angeles","neighborhood":"Central LA"},{"location":"Saban Theatre","address":"8440 W. Wilshire Blvd. Beverly Hills, ","formattedAddress":"8440 Wilshire Blvd, Beverly Hills, CA 90211, USA","neighborhood":null,"lat":34.0645718,"lng":-118.3748496,"zipcode":"90211"},{"location":"South Coast Botanic Garden","address":"26300 Crenshaw Boulevard, Palos Verdes Peninsula, CA, Palos Verdes Estates, ","formattedAddress":"26300 Crenshaw Blvd, Palos Verdes Estates, CA 90274, USA","neighborhood":null,"lat":33.7831775,"lng":-118.3488527,"zipcode":"90274"},{"location":"Crestwood Hills Park","address":"1000 Hanley Ave, Los Angeles Brentwood ","formattedAddress":"1000 Hanley Ave, Los Angeles, CA 90049, USA","lat":34.0768468,"lng":-118.4891025,"zipcode":"90049","city":"Los Angeles","neighborhood":"Brentwood"},{"location":"Coast Playhouse","address":"8325 Santa Monica Blvd., ","formattedAddress":"8325 Santa Monica Blvd, West Hollywood, CA 90069, USA","neighborhood":"Central LA","lat":34.0908168,"lng":-118.3711393,"zipcode":"90069"},{"location":"Greek Theatre","address":"2700 N. Vermont Ave. Los Angeles ","formattedAddress":"2700 N Vermont Ave, Los Angeles, CA 90027, USA","neighborhood":null,"lat":34.1205588,"lng":-118.2963915,"zipcode":"90027"},{"location":"Torrance Cultural Arts Center","address":"3330 Civic Center Dr. Torrance, ","formattedAddress":"3330 Civic Center Dr, Torrance, CA 90503, USA","lat":33.8393642,"lng":-118.3434411,"zipcode":"90503","city":"Torrance"},{"location":"Stratford School - Melrose","address":"1200 North Cahuenga Boulevard Los Angeles, CA, Hollywood, ","formattedAddress":"1200 N Cahuenga Blvd, Los Angeles, CA 90038, USA","neighborhood":"Hollywood","lat":34.0928299,"lng":-118.3283288,"zipcode":"90038"},{"location":"Amoeba Hollywood","address":"6400 Sunset Blvd, Los Angeles 90028, us","formattedAddress":"6400 Sunset Blvd, Los Angeles, CA 90028, USA","neighborhood":"Hollywood","lat":34.0977683,"lng":-118.3290738,"zipcode":"90028"},{"location":"The Mint","address":"6010 W. Pico Blvd. Los Angeles, ","formattedAddress":"6010 W Pico Blvd, Los Angeles, CA 90035, USA","neighborhood":"Mid City","lat":34.0521634,"lng":-118.3716095,"zipcode":"90035"},{"location":"Hammer Museum","address":"10899 Wilshire Blvd, Los Angeles, ","formattedAddress":"10899 Wilshire Blvd, Los Angeles, CA 90024, USA","neighborhood":"Westwood","lat":34.0591217,"lng":-118.4436674,"zipcode":"90024"},{"location":"Teragram Ballroom","address":"1234 W. Seventh St., Los Angeles 90017, us","formattedAddress":"1234 W 7th St, Los Angeles, CA 90017, USA","neighborhood":"Central LA","lat":34.0518639,"lng":-118.2670623,"zipcode":"90017"},{"location":"Resident DTLA","address":"428 S. Hewitt St. Los Angeles CA","formattedAddress":"428 S Hewitt St, Los Angeles, CA 90013, USA","neighborhood":"Central LA","lat":34.042668,"lng":-118.234922,"zipcode":"90013"},{"location":"The Forum","address":"3900 W. Manchester Blvd. Inglewood, ","formattedAddress":"3900 W Manchester Blvd, Inglewood, CA 90305, USA","neighborhood":"South Los Angeles","lat":33.9581667,"lng":-118.3418158,"zipcode":"90305"},{"location":"Hollywood Bowl","address":"2301 N. Highland Ave. Los Angeles, ","formattedAddress":"2301 Highland Ave, Los Angeles, CA 90068, USA","lat":34.1127392,"lng":-118.3388562,"zipcode":"90068","city":"Los Angeles","neighborhood":"Central LA"},{"location":"CSUN - Cal State Northridge","address":"Northridge 91330, us","formattedAddress":"Northridge, CA 91330, USA","neighborhood":"Northridge","lat":34.2489458,"lng":-118.5258067,"zipcode":"91330"},{"location":"Microsoft Theater","address":"777 Chick Hearn Court Los Angeles, ","formattedAddress":"777 Chick Hearn Ct, Los Angeles, CA 90015, USA","neighborhood":"Downtown","lat":34.044489,"lng":-118.2670519,"zipcode":"90015"},{"location":"AMC Century City 15","address":"10250 Santa Monica Blvd Los Angeles ","formattedAddress":"10250 Santa Monica Blvd, Los Angeles, CA 90067, USA","lat":34.0599924,"lng":-118.4200376,"zipcode":"90067","city":"Los Angeles","neighborhood":"Century City"},{"location":"STAPLES Center","address":"1111 S. Figueroa St., Los Angeles, ","formattedAddress":"1111 S Figueroa St, Los Angeles, CA 90015, USA","neighborhood":"Downtown","lat":34.043125,"lng":-118.267118,"zipcode":"90015"},{"location":"The Theatre at Ace Hotel","address":"929 S. Broadway Los Angeles, ","formattedAddress":"929 S Broadway, Los Angeles, CA 90015, USA","neighborhood":"Downtown","lat":34.0418769,"lng":-118.2570341,"zipcode":"90015"},{"location":"Downtown Los Angeles Historic Core","address":"Sixth St. and Spring St. Los Angeles CA","formattedAddress":"W 6th St & S Spring St, Los Angeles, CA 90014, USA","neighborhood":"Downtown","lat":34.0459485,"lng":-118.2509641,"zipcode":"90014"},{"location":"Alex Theatre","address":"216 N. Brand Blvd. Glendale, ","formattedAddress":"216 N Brand Blvd, Glendale, CA 91203, USA","neighborhood":"Downtown","lat":34.1488644,"lng":-118.2548412,"zipcode":"91203"},{"location":"Union NightClub","address":"4067 West Pico Blvd. Los Angeles CA","formattedAddress":"4067 W Pico Blvd, Los Angeles, CA 90019, USA","lat":34.047775,"lng":-118.3241134,"zipcode":"90019","city":"Los Angeles","neighborhood":"Central LA"},{"location":"FIGat7th","address":"735 S. Figueroa St., Los Angeles, ","formattedAddress":"735 S Figueroa St, Los Angeles, CA 90017, USA","neighborhood":"Downtown","lat":34.0492459,"lng":-118.2617532,"zipcode":"90017"},{"location":"D'Vine Lounge Bar","address":"821 S. Flower St, Downtown, ","formattedAddress":"821 S Flower St, Los Angeles, CA 90017, USA","neighborhood":"Downtown","lat":34.0468508,"lng":-118.2606988,"zipcode":"90017"},{"location":"Exposition Park","address":"Los Angeles ","formattedAddress":"Los Angeles, CA, USA","neighborhood":null,"lat":34.0522342,"lng":-118.2436849},{"location":"Greek Theatre","address":"2700 N. Vermont Ave. Los Angeles ","formattedAddress":"2700 N Vermont Ave, Los Angeles, CA 90027, USA","neighborhood":null,"lat":34.1205588,"lng":-118.2963915,"zipcode":"90027"},{"location":"Westwood Village","address":"1031 Broxton Ave Los Angeles, CA California 90024 310-470-1812","formattedAddress":"1031 Broxton Ave, Los Angeles, CA 90024, USA","neighborhood":"Westwood","lat":34.0618175,"lng":-118.4465493,"zipcode":"90024"},{"location":"STAPLES Center","address":"1111 S. Figueroa St., Los Angeles, ","formattedAddress":"1111 S Figueroa St, Los Angeles, CA 90015, USA","neighborhood":"Downtown","lat":34.043125,"lng":-118.267118,"zipcode":"90015"},{"location":"The Troubadour","address":"9081 Santa Monica Blvd. West Hollywood, ","formattedAddress":"9081 Santa Monica Blvd, West Hollywood, CA 90069, USA","neighborhood":"Norma Triangle","lat":34.0815696,"lng":-118.3892793,"zipcode":"90069"},{"location":"Teragram Ballroom","address":"1234 W. Seventh St., Los Angeles 90017, us","formattedAddress":"1234 W 7th St, Los Angeles, CA 90017, USA","neighborhood":"Central LA","lat":34.0518639,"lng":-118.2670623,"zipcode":"90017"},{"location":"Pan Pacific Park","address":"7600 Beverly Blvd. Los Angeles, ","formattedAddress":"7600 Beverly Blvd, Los Angeles, CA 90036, USA","neighborhood":"Fairfax","lat":34.075386,"lng":-118.3542545,"zipcode":"90036"},{"location":"Dodger Stadium","address":"1000 Vin Scully Ave., Los Angeles, ","formattedAddress":"1000 Vin Scully Ave, Los Angeles, CA 90026, USA","neighborhood":"Echo Park","lat":34.0724463,"lng":-118.2482212,"zipcode":"90026"},{"location":"The Forum","address":"3900 W. Manchester Blvd. Inglewood, ","formattedAddress":"3900 W Manchester Blvd, Inglewood, CA 90305, USA","neighborhood":"South Los Angeles","lat":33.9581667,"lng":-118.3418158,"zipcode":"90305"},{"location":"Bergamot Station I Lois Lambert Gallery I Gallery of Functional Art","address":"2525 Michigan Avenue E-3, Santa Monica 90404, us","formattedAddress":"2525 Michigan Ave, Santa Monica, CA 90404, USA","neighborhood":"Pico","lat":34.02778929999999,"lng":-118.4684355,"zipcode":"90404"},{"location":"StubHub Center","address":"18400 S. Avalon Blvd., Carson, CA, us","formattedAddress":"18400 S Avalon Blvd, Carson, CA 90746, USA","neighborhood":null,"lat":33.8639438,"lng":-118.2660058,"zipcode":"90746"},{"location":"The Wiltern","address":"3790 Wilshire Blvd. Los Angeles, ","formattedAddress":"3790 Wilshire Blvd, Los Angeles, CA 90010, USA","neighborhood":"Koreatown","lat":34.0614896,"lng":-118.3087587,"zipcode":"90010"},{"location":"Los Angeles Theatre","address":"615 S. Broadway Los Angeles, ","formattedAddress":"615 S Broadway, Los Angeles, CA 90014, USA","neighborhood":"Downtown","lat":34.046444,"lng":-118.2526466,"zipcode":"90014"},{"location":"Write Act Repertory Theatre","address":"10950 Peach Grove Street North Hollywood, CA, North Hollywood, ","formattedAddress":"10950 Peach Grove St, North Hollywood, CA 91601, USA","neighborhood":"North Hollywood","lat":34.1588704,"lng":-118.3697999,"zipcode":"91601"},{"location":"Woodley Park","address":"6350 Woodley Ave. Van Nuys, ","formattedAddress":"6350 Woodley Ave, Van Nuys, CA 91436, USA","neighborhood":"Van Nuys","lat":34.1786563,"lng":-118.4764638,"zipcode":"91436"},{"location":"San Fernando Valley Arts & Cultural Center","address":"18312 Oxnard St Tarzana ","formattedAddress":"18312 Oxnard St, Tarzana, CA 91356, USA","lat":34.17962120000001,"lng":-118.5314765,"zipcode":"91356","city":"Los Angeles","neighborhood":"Tarzana"},{"location":"Scherr Forum-Thousand Oaks Civic Arts Plaza","address":"Thousand Oaks 91362, us","formattedAddress":"Thousand Oaks, CA 91362, USA","neighborhood":null,"lat":34.1971476,"lng":-118.824722,"zipcode":"91362"},{"location":"Whisky A Go Go","address":"8901 sunset blvd, West Hollywood, ","formattedAddress":"8901 Sunset Blvd, West Hollywood, CA 90069, USA","neighborhood":"Sunset Strip","lat":34.0908403,"lng":-118.3857013,"zipcode":"90069"},{"location":"Terrace Theater - Long Beach Convention and Entertainment Center","address":"Long Beach 90802, us","formattedAddress":"Long Beach, CA 90802, USA","neighborhood":null,"lat":33.7415317,"lng":-118.1941785,"zipcode":"90802"},{"location":"A Noise Within","address":"3352 E. Foothill Blvd. Pasadena, ","formattedAddress":"3352 E Foothill Blvd, Pasadena, CA 91107, USA","lat":34.1495943,"lng":-118.0811409,"zipcode":"91107","city":"Pasadena","neighborhood":"Hastings Ranch"},{"location":"The Belasco Theater","address":"1050 S. Hill St. Los Angeles, ","formattedAddress":"1050 Hill St, Los Angeles, CA 90015, USA","neighborhood":"Downtown","lat":34.0402556,"lng":-118.2592519,"zipcode":"90015"},{"location":"Downtown Culver City","address":"9718 Washington Blvd, Culver City, ","formattedAddress":"9718 Washington Blvd, Culver City, CA 90232, USA","neighborhood":"Downtown","lat":34.0221879,"lng":-118.3961479,"zipcode":"90232"},{"location":"The Greek Theatre","address":"2700 N. Vermont Ave. Los Angeles, ","formattedAddress":"2700 N Vermont Ave, Los Angeles, CA 90027, USA","neighborhood":null,"lat":34.1205588,"lng":-118.2963915,"zipcode":"90027"},{"location":"The Roxy","address":"9009 W. Sunset Blvd. West Hollywood, ","formattedAddress":"9009 Sunset Blvd, West Hollywood, CA 90069, USA","neighborhood":"Sunset Strip","lat":34.0909001,"lng":-118.3879395,"zipcode":"90069"},{"location":"Little Tokyo","address":"262 S Los Angeles St. Los Angeles CA","formattedAddress":"262 S Los Angeles St, Los Angeles, CA 90012, USA","lat":34.0485578,"lng":-118.2443505,"zipcode":"90012","city":"Los Angeles","neighborhood":"Central LA"},{"location":"Santa Anita Park","address":"285 W. Huntington Dr. Arcadia, ","formattedAddress":"285 W Huntington Dr, Arcadia, CA 91007, USA","lat":34.1365782,"lng":-118.0408645,"zipcode":"91007","city":"Arcadia"},{"location":"Richard and Karen Carpenter Center","address":"6200 E Atherton St, Long Beach 90815, us","formattedAddress":"6200 E Atherton St, Long Beach, CA 90815, USA","neighborhood":null,"lat":33.788396,"lng":-118.1126051,"zipcode":"90815"},{"location":"South Park Center","address":"1139 S. Hill St. Los Angeles, ","formattedAddress":"1139 Hill St, Los Angeles, CA 90015, USA","neighborhood":"Downtown","lat":34.0390574,"lng":-118.2611996,"zipcode":"90015"},{"location":"Lora Schlesinger Gallery","address":"2525 Michigan Ave., B5b Santa Monica, ","formattedAddress":"2525 Michigan Ave, Santa Monica, CA 90404, USA","neighborhood":"Pico","lat":34.028222,"lng":-118.467641,"zipcode":"90404"},{"location":"Dolby Theatre","address":"6801 Hollywood Blvd. Los Angeles, ","formattedAddress":"6801 Hollywood Blvd, Los Angeles, CA 90028, USA","neighborhood":"Hollywood","lat":34.1025903,"lng":-118.3400444,"zipcode":"90028"},{"location":"Redondo Union High School Auditorium","address":"631 Vincent Street Redondo Beach ","formattedAddress":"631 Vincent St, Redondo Beach, CA 90277, USA","neighborhood":"South Redondo","lat":33.844271,"lng":-118.3843706,"zipcode":"90277"},{"location":"The Theatre at Ace Hotel","address":"929 S. Broadway Los Angeles, ","formattedAddress":"929 S Broadway, Los Angeles, CA 90015, USA","neighborhood":"Downtown","lat":34.0418769,"lng":-118.2570341,"zipcode":"90015"},{"location":"Rose Bowl","address":"1001 Rose Bowl Dr. Pasadena, ","formattedAddress":"1001 Rose Bowl Dr, Pasadena, CA 91103, USA","lat":34.1606364,"lng":-118.1674865,"zipcode":"91103","city":"Pasadena","neighborhood":"North Arroyo"},{"location":"Fonda Theatre","address":"6126 Hollywood Blvd., Los Angeles, ","formattedAddress":"6126 Hollywood Blvd, Los Angeles, CA 90028, USA","neighborhood":"Hollywood","lat":34.1012695,"lng":-118.3232478,"zipcode":"90028"},{"location":"The Theatre at Ace Hotel","address":"929 S. Broadway Los Angeles, ","formattedAddress":"929 S Broadway, Los Angeles, CA 90015, USA","neighborhood":"Downtown","lat":34.0418769,"lng":-118.2570341,"zipcode":"90015"},{"location":"Microsoft Theater","address":"777 Chick Hearn Court Los Angeles, ","formattedAddress":"777 Chick Hearn Ct, Los Angeles, CA 90015, USA","neighborhood":"Downtown","lat":34.044489,"lng":-118.2670519,"zipcode":"90015"},{"location":"Griffith Park Fern Dell","address":"2333 Fern Dell Place, Los Angeles 90068, us","formattedAddress":"2333 Fern Dell Pl, Los Angeles, CA 90068, USA","neighborhood":"Central LA","lat":34.1120369,"lng":-118.307843,"zipcode":"90068"},{"location":"Pasadena Convention Center","address":"300 E. Green St. Pasadena CA","formattedAddress":"300 E Green St, Pasadena, CA 91101, USA","neighborhood":null,"lat":34.143817,"lng":-118.144302,"zipcode":"91101"},{"location":"The Getty Center","address":"1200 Getty Center Dr. Los Angeles, ","formattedAddress":"1200 Getty Center Dr, Los Angeles, CA 90049, USA","neighborhood":"Brentwood","lat":34.0790329,"lng":-118.4751057,"zipcode":"90049"},{"location":"Hollywood Palladium","address":"6215 W. Sunset Blvd. Los Angeles, ","formattedAddress":"6215 Sunset Blvd, Los Angeles, CA 90028, USA","neighborhood":"Hollywood","lat":34.0984783,"lng":-118.3243046,"zipcode":"90028"},{"location":"LA County Arboretum and Botanic Garden","address":"301 North Baldwin Avenue Arcadia ","formattedAddress":"301 N Baldwin Ave, Arcadia, CA 91007, USA","lat":34.1448279,"lng":-118.0508813,"zipcode":"91007","city":"Arcadia"},{"location":"Heritage Square Museum","address":"3800 Homer Street Los Angeles, CA Lincoln Heights ","formattedAddress":"3800 Homer St, Los Angeles, CA 90031, USA","neighborhood":"Northeast Los Angeles","lat":34.0880775,"lng":-118.208078,"zipcode":"90031"},{"location":"Leimert Park","address":"4343 Degnan Blvd., Los Angeles, CA, us","formattedAddress":"4343 Degnan Blvd, Los Angeles, CA 90008, USA","neighborhood":"South Los Angeles","lat":34.0047135,"lng":-118.3314832,"zipcode":"90008"},{"location":"Tagalog Kids Main Office","address":"626 Milan Ave,South Pasadena,CA South Pasadena ","formattedAddress":"626 Milan Ave, South Pasadena, CA 91030, USA","lat":34.117902,"lng":-118.14383,"zipcode":"91030","city":"South Pasadena"},{"location":"Quest Learning Center","address":"11976 Artesia Blvd., Artesia, CA Cerritos ","formattedAddress":"11976 Artesia Blvd, Artesia, CA 90701, USA","lat":33.8727865,"lng":-118.0771803,"zipcode":"90701","city":"Artesia"},{"location":"Culver City Veterans Memorial Auditorium","address":"4117 Overland Ave. Culver City ","formattedAddress":"4117 Overland Ave, Culver City, CA 90230, USA","lat":34.012953,"lng":-118.4026083,"zipcode":"90230","city":"Culver City","neighborhood":"Park West"}]