[{
	"location": "LA Plaza de Cultura y Artes",
	"address": "501 N. Main St. Los Angeles, ",
	"formattedAddress": "501 N Main St, Los Angeles, CA 90012, USA",
	"lat": 34.0564554,
	"lng": -118.2398448,
	"zipcode": "90012",
	"city": "Los Angeles",
	"neighborhood": "Central LA"
}, {
	"location": "Palace Theatre",
	"address": "630 S. Broadway Los Angeles, ",
	"formattedAddress": "630 S Broadway, Los Angeles, CA 90014, USA",
	"lat": 34.0457263,
	"lng": -118.252351,
	"zipcode": "90014",
	"city": "Los Angeles",
	"neighborhood": "Central LA"
}, {
	"location": "Vroman’s",
	"address": "695 E Colorado Blvd. Pasadena, ",
	"formattedAddress": "695 E Colorado Blvd, Pasadena, CA 91101, USA",
	"lat": 34.14628150000001,
	"lng": -118.1361812,
	"zipcode": "91101",
	"city": "Pasadena"
}, {
	"location": "The Mayan",
	"address": "1038 S. Hill St. Los Angeles, ",
	"formattedAddress": "1038 Hill St, Los Angeles, CA 90015, USA",
	"lat": 34.0405255,
	"lng": -118.2591274,
	"zipcode": "90015",
	"city": "Los Angeles",
	"neighborhood": "Downtown"
}, {
	"location": "Central Park",
	"address": "27150 Bouquet Canyon Rd. Santa Clarita, ",
	"formattedAddress": "27150 Bouquet Canyon Rd, Santa Clarita, CA 91350, USA",
	"lat": 34.4355012,
	"lng": -118.5211895,
	"zipcode": "91350",
	"city": "Santa Clarita"
}, {
	"location": "Diavolo Performance Space",
	"address": "616 Moulton Ave. Los Angeles, ",
	"formattedAddress": "616 Moulton Ave, Los Angeles, CA 90031, USA",
	"lat": 34.0649875,
	"lng": -118.2191349,
	"zipcode": "90031",
	"city": "Los Angeles",
	"neighborhood": "Central LA"
}, {
	"location": "Skylight Theater",
	"address": "1816 1/2 N. Vermont Ave. Los Angeles, ",
	"formattedAddress": "1816 1/2 N Vermont Ave, Los Angeles, CA 90027, USA",
	"lat": 34.1040603,
	"lng": -118.2915836,
	"zipcode": "90027",
	"city": "Los Angeles",
	"neighborhood": "Central LA"
}, {
	"location": "Museum of Contemporary Art (The Geffen Contemporary at MOCA)",
	"address": "152 N. Central Ave. Los Angeles, ",
	"formattedAddress": "152 N Central Ave, Los Angeles, CA 90012, USA",
	"lat": 34.049694,
	"lng": -118.2390978,
	"zipcode": "90012",
	"city": "Los Angeles",
	"neighborhood": "Central LA"
}, {
	"location": "David Kordansky Gallery",
	"address": "5130 W. Edgewood Place Los Angeles, ",
	"formattedAddress": "5130 Edgewood Pl, Los Angeles, CA 90019, USA",
	"lat": 34.0543437,
	"lng": -118.3430366,
	"zipcode": "90019",
	"city": "Los Angeles",
	"neighborhood": "Central LA"
}, {
	"location": "California African American Museum",
	"address": "600 State Drive, Exposition Park Los Angeles, ",
	"formattedAddress": "600 State Dr, Los Angeles, CA 90037, USA",
	"lat": 34.0158918,
	"lng": -118.2834514,
	"zipcode": "90037",
	"city": "Los Angeles",
	"neighborhood": "South Los Angeles"
}, {
	"location": "Puesto Los Olivos Irvine",
	"address": "8577 Irvine Center Dr. Irvine, ",
	"formattedAddress": "8577 Irvine Center Dr, Irvine, CA 92618, USA",
	"lat": 33.6446085,
	"lng": -117.7448126,
	"zipcode": "92618",
	"city": "Irvine"
}, {
	"location": "The Cowboy Palace Saloon",
	"address": "21635 Devonshire St. Chatsworth, ",
	"formattedAddress": "21635 Devonshire St, Chatsworth, CA 91311, USA",
	"lat": 34.2574868,
	"lng": -118.6014886,
	"zipcode": "91311",
	"city": "Los Angeles",
	"neighborhood": "Chatsworth"
}, {
	"location": "Secret Location",
	"address": "West Hollywood West Hollywood, California 90069 111-111-1111",
	"formattedAddress": "8401 Sunset Blvd, West Hollywood, CA 90069, USA",
	"lat": 34.095388,
	"lng": -118.373233,
	"zipcode": "90069",
	"city": "West Hollywood",
	"neighborhood": "Sunset Strip"
}, {
	"location": "Busby's East",
	"address": "5364 Wilshire Blvd. Los Angeles, ",
	"formattedAddress": "5364 Wilshire Blvd, Los Angeles, CA 90036, USA",
	"lat": 34.0619906,
	"lng": -118.3458395,
	"zipcode": "90036",
	"city": "Los Angeles",
	"neighborhood": "Central LA"
}, {
	"location": "Cal State LA - Downtown LA",
	"address": "801 S. Grand Avenue, 6th Floor Los Angeles, ",
	"formattedAddress": "801 S Grand Ave, Los Angeles, CA 90017, USA",
	"lat": 34.0456769,
	"lng": -118.2585624,
	"zipcode": "90017",
	"city": "Los Angeles",
	"neighborhood": "Downtown"
}, {
	"location": "Sun Space",
	"address": "9683 Sunland Blvd. Shadow Hills, Ca 91040 818-455-7234",
	"formattedAddress": "9683 Sunland Blvd, Shadow Hills, CA 91040, USA",
	"lat": 34.2473388,
	"lng": -118.3571362,
	"zipcode": "91040",
	"city": "Los Angeles",
	"neighborhood": "Shadow Hills"
}, {
	"location": "M.i WESTSIDE COMEDY THEATER",
	"address": "1323-A 3rd St Promenade Santa Monica, ",
	"formattedAddress": "1323 3rd Street Promenade, Santa Monica, CA 90401, USA",
	"lat": 34.016728,
	"lng": -118.4965324,
	"zipcode": "90401",
	"city": "Santa Monica",
	"neighborhood": "Downtown"
}, {
	"location": "Manuela",
	"address": "907 E. Third St. Los Angeles, California 90013 323-849-0480",
	"formattedAddress": "907 E 3rd St, Los Angeles, CA 90013, USA",
	"lat": 34.0459727,
	"lng": -118.2348003,
	"zipcode": "90013",
	"city": "Los Angeles",
	"neighborhood": "Central LA"
}, {
	"location": "Thomas Jefferson Senior High",
	"address": "1319 E 41st St. Los Angeles, ",
	"formattedAddress": "1319 E 41st St, Los Angeles, CA 90011, USA",
	"lat": 34.0095683,
	"lng": -118.2512203,
	"zipcode": "90011",
	"city": "Los Angeles",
	"neighborhood": "South Los Angeles"
}, {
	"location": "Hermosa Saloon",
	"address": "211 Pacific Coast Highway Hermosa Beach, ",
	"formattedAddress": "211 Pacific Coast Hwy, Hermosa Beach, CA 90254, USA",
	"lat": 33.856679,
	"lng": -118.3908831,
	"zipcode": "90254",
	"city": "Hermosa Beach"
}, {
	"location": "Gulp Brew Pub",
	"address": "13020 Pacific Promenade, Suite 1 Playa Vista, ",
	"formattedAddress": "13020 Pacific Promenade #1, Playa Vista, CA 90094, USA",
	"lat": 33.972612,
	"lng": -118.422844,
	"zipcode": "90094",
	"city": "Los Angeles",
	"neighborhood": "Playa Vista"
}, {
	"location": "Classic Home",
	"address": "4651 Bandini Blvd Vernon, ",
	"formattedAddress": "4651 Bandini Blvd, Vernon, CA 90058, USA",
	"lat": 33.9998302,
	"lng": -118.1770072,
	"zipcode": "90058",
	"city": "Vernon"
}, {
	"location": "Gallery Nucleus",
	"address": "210 E. Main St. Alhambra, ",
	"formattedAddress": "210 E Main St, Alhambra, CA 91801, USA",
	"lat": 34.0959527,
	"lng": -118.1243349,
	"zipcode": "91801",
	"city": "Alhambra"
}, {
	"location": "Lethal Amounts",
	"address": "1226 W. Seventh St. Los Angeles, ",
	"formattedAddress": "1226 W 7th St, Los Angeles, CA 90017, USA",
	"lat": 34.0517447,
	"lng": -118.2667852,
	"zipcode": "90017",
	"city": "Los Angeles",
	"neighborhood": "Central LA"
}, {
	"location": "Los Angeles Center Studios",
	"address": "450 S. Bixel St. Los Angeles, ",
	"formattedAddress": "450 S Bixel St, Los Angeles, CA 90017, USA",
	"lat": 34.0555136,
	"lng": -118.2608743,
	"zipcode": "90017",
	"city": "Los Angeles",
	"neighborhood": "Central LA"
}, {
	"location": "Leimert Plaza Park",
	"address": "4395 Leimert Blvd. Los Angeles, ",
	"formattedAddress": "4395 Leimert Blvd, Los Angeles, CA 90008, USA",
	"lat": 34.0042841,
	"lng": -118.3306562,
	"zipcode": "90008",
	"city": "Los Angeles",
	"neighborhood": "South Los Angeles"
}, {
	"location": "TCL Chinese 6 Theatres",
	"address": "Hollywood & Highland, 6801 Hollywood Blvd Hollywood, ",
	"formattedAddress": "6801 Hollywood Blvd #170, Los Angeles, CA 90028, USA",
	"lat": 34.1024368,
	"lng": -118.3400872,
	"zipcode": "90028",
	"city": "Los Angeles",
	"neighborhood": "Hollywood"
}, {
	"location": "California State University Los Angeles",
	"address": "5151 State University Dr. Los Angeles, ",
	"formattedAddress": "Hertzberg-Davis Forensic Science Center, 5151 State University Dr, Los Angeles, CA 90032, USA",
	"lat": 34.0620391,
	"lng": -118.1736587,
	"zipcode": "90032",
	"city": "Los Angeles"
}, {
	"location": "Cathedral of Our Lady of the Angels",
	"address": "555 W. Temple St. Los Angeles, ",
	"formattedAddress": "Cathedral of Our Lady of the Angels, 555 W Temple St, Los Angeles, CA 90012, USA",
	"lat": 34.0580409,
	"lng": -118.2455356,
	"zipcode": "90012",
	"city": "Los Angeles",
	"neighborhood": "Central LA"
}, {
	"location": "Descanso Beach Club",
	"address": "1 St. Catherine Way Avalon, ",
	"formattedAddress": "1 St Catherine Way, Avalon, CA 90704, USA",
	"lat": 33.350429,
	"lng": -118.328838,
	"zipcode": "90704",
	"city": "Avalon"
}, {
	"location": "E.B.'s Beer & Wine Bar, Farmers Market",
	"address": "6333 W. Third St. Los Angeles, ",
	"formattedAddress": "6333 W 3rd St, Los Angeles, CA 90036, USA",
	"lat": 34.0719955,
	"lng": -118.360253,
	"zipcode": "90036",
	"city": "Los Angeles",
	"neighborhood": "La Brea"
}, {
	"location": "Blueprint Furniture",
	"address": "8600 Pico Blvd. Los Angeles, ",
	"formattedAddress": "8600 W Pico Blvd, Los Angeles, CA 90035, USA",
	"lat": 34.0535485,
	"lng": -118.3787787,
	"zipcode": "90035",
	"city": "Los Angeles",
	"neighborhood": "Pico - Robertson"
}, {
	"location": "Automata",
	"address": "504 Chung King Court Los Angeles, ",
	"formattedAddress": "504 Chung King Ct, Los Angeles, CA 90012, USA",
	"lat": 34.0659809,
	"lng": -118.2383075,
	"zipcode": "90012",
	"city": "Los Angeles",
	"neighborhood": "Central LA"
}, {
	"location": "Building Block Sample Sale",
	"address": "Mandarin Plaza, Pok Pok Courtyard (Please note Pok Pok has closed in LA) 978 N Broadway Los Angeles, CA, "
}, {
	"location": "Plaza de la Raza",
	"address": "3540 N. Mission Rd. Los Angeles, ",
	"formattedAddress": "3540 N Mission Rd, Los Angeles, CA 90031, USA",
	"lat": 34.0672034,
	"lng": -118.2034603,
	"zipcode": "90031",
	"city": "Los Angeles",
	"neighborhood": "Northeast Los Angeles"
}, {
	"location": "Long Beach Convention & Entertainment Center",
	"address": "300 E. Ocean Blvd. Long Beach, ",
	"formattedAddress": "300 E Ocean Blvd, Long Beach, CA 90802, USA",
	"lat": 33.76520350000001,
	"lng": -118.1893341,
	"zipcode": "90802",
	"city": "Long Beach",
	"neighborhood": "Waterfront"
}, {
	"location": "PLATFORM",
	"address": "8850 Washington Blvd. Culver City, California 90232 310-883-5138",
	"formattedAddress": "8850 Washington Blvd, Culver City, CA 90232, USA",
	"lat": 34.0267767,
	"lng": -118.3881675,
	"zipcode": "90232",
	"city": "Culver City",
	"neighborhood": "Lucerne - Higuera"
}, {
	"location": "Amplyfi",
	"address": "5617 Melrose Ave. Los Angeles, ",
	"formattedAddress": "5617 Melrose Ave, Los Angeles, CA 90038, USA",
	"lat": 34.0837318,
	"lng": -118.322817,
	"zipcode": "90038",
	"city": "Los Angeles",
	"neighborhood": "Central LA"
}, {
	"location": "Pop Obscure Records",
	"address": "735 S. Los Angeles St. Los Angeles, ",
	"formattedAddress": "735 S Los Angeles St, Los Angeles, CA 90014, USA",
	"lat": 34.042708,
	"lng": -118.251507,
	"zipcode": "90014",
	"city": "Los Angeles",
	"neighborhood": "Historic Core"
}, {
	"location": "Undisclosed Downtown Location",
	"address": "undisclosed Los Angeles, California undisclosed 401-578-1883"
}, {
	"location": "Regent Theatre",
	"address": "1045 Broxton Ave. Los Angeles, ",
	"formattedAddress": "1045 Broxton Ave, Los Angeles, CA 90024, USA",
	"lat": 34.0615563,
	"lng": -118.4466812,
	"zipcode": "90024",
	"city": "Los Angeles",
	"neighborhood": "Westwood"
}, {
	"location": "Ann & Jerry Moss Theater, New Roads School",
	"address": "3131 Olympic Blvd. Santa Monica, ",
	"formattedAddress": "3131 Olympic Blvd, Santa Monica, CA 90404, USA",
	"lat": 34.0312851,
	"lng": -118.4612321,
	"zipcode": "90404",
	"city": "Santa Monica"
}, {
	"location": "Santa Anita Park",
	"address": "285 W. Huntington Dr. Arcadia, ",
	"formattedAddress": "285 W Huntington Dr, Arcadia, CA 91007, USA",
	"lat": 34.1365782,
	"lng": -118.0408645,
	"zipcode": "91007",
	"city": "Arcadia"
}, {
	"location": "New Beverly Cinema",
	"address": "7165 Beverly Blvd. Los Angeles, ",
	"formattedAddress": "7165 Beverly Blvd, Los Angeles, CA 90036, USA",
	"lat": 34.0764408,
	"lng": -118.3457564,
	"zipcode": "90036",
	"city": "Los Angeles",
	"neighborhood": "Central LA"
}, {
	"location": "The Museum of Tolerance",
	"address": "9786 W. Pico Blvd. Los Angeles, ",
	"formattedAddress": "9786 W Pico Blvd, Los Angeles, CA 90035, USA",
	"lat": 34.053697,
	"lng": -118.401716,
	"zipcode": "90035",
	"city": "Los Angeles",
	"neighborhood": "Pico - Robertson"
}, {
	"location": "Torrance Cultural Arts Center",
	"address": "3330 Civic Center Dr. Torrance, ",
	"formattedAddress": "3330 Civic Center Dr, Torrance, CA 90503, USA",
	"lat": 33.8393642,
	"lng": -118.3434411,
	"zipcode": "90503",
	"city": "Torrance"
}, {
	"location": "Iron Triangle Brewing DTLA",
	"address": "1581 Industrial St Los Angeles, ",
	"formattedAddress": "1581 Industrial St, Los Angeles, CA 90021, USA",
	"lat": 34.036226,
	"lng": -118.2357877,
	"zipcode": "90021",
	"city": "Los Angeles",
	"neighborhood": "Downtown"
}, {
	"location": "Hollywood Bowl",
	"address": "2301 N. Highland Ave. Los Angeles, ",
	"formattedAddress": "2301 Highland Ave, Los Angeles, CA 90068, USA",
	"lat": 34.1127392,
	"lng": -118.3388562,
	"zipcode": "90068",
	"city": "Los Angeles",
	"neighborhood": "Central LA"
}, {
	"location": "Saint Sophia Greek Orthodox Cathedral",
	"address": "1324 S. Normandie Ave. Los Angeles, ",
	"formattedAddress": "1324 Normandie Ave, Los Angeles, CA 90006, USA",
	"lat": 34.0457607,
	"lng": -118.2995756,
	"zipcode": "90006",
	"city": "Los Angeles",
	"neighborhood": "Mid City"
}, {
	"location": "Anthony C. Beillensen Vistor's Center at King Gillette Ranch",
	"address": "26876 Mulholland Highway Calabasas, ",
	"formattedAddress": "26876 Mulholland Hwy, Calabasas, CA 91302, USA",
	"lat": 34.1029163,
	"lng": -118.7074214,
	"zipcode": "91302",
	"city": "Calabasas"
}, {
	"location": "Viceroy Santa Monica",
	"address": "1819 Ocean Ave Santa Monica, California 90401 310-260-7500",
	"formattedAddress": "1819 Ocean Ave, Santa Monica, CA 90401, USA",
	"lat": 34.0081329,
	"lng": -118.4904687,
	"zipcode": "90401",
	"city": "Santa Monica"
}, {
	"location": "No Tox Life",
	"address": "3351 Fletcher Dr. Los Angeles, ",
	"formattedAddress": "3351 Fletcher Dr, Los Angeles, CA 90065, USA",
	"lat": 34.1182236,
	"lng": -118.2412677,
	"zipcode": "90065",
	"city": "Los Angeles",
	"neighborhood": "Northeast Los Angeles"
}, {
	"location": "The Granada Theatre",
	"address": "1214 State St. Santa Barbara, ",
	"formattedAddress": "1214 State St, Santa Barbara, CA 93101, USA",
	"lat": 34.4239219,
	"lng": -119.7046944,
	"zipcode": "93101",
	"city": "Santa Barbara",
	"neighborhood": "Santa Barbara Downtown"
}, {
	"location": "Contrapuntal Performances Recital Hall",
	"address": "655 N. Bundy Dr. Brentwood, ",
	"formattedAddress": "655 N Bundy Dr, Los Angeles, CA 90049, USA",
	"lat": 34.0720973,
	"lng": -118.4777861,
	"zipcode": "90049",
	"city": "Los Angeles",
	"neighborhood": "Brentwood"
}, {
	"location": "MADE By Millworks",
	"address": "240 Pine Ave. Long Beach, ",
	"formattedAddress": "240 Pine Ave, Long Beach, CA 90802, USA",
	"lat": 33.7700468,
	"lng": -118.1920085,
	"zipcode": "90802",
	"city": "Long Beach",
	"neighborhood": "Downtown"
}, {
	"location": "Fashion Island",
	"address": "401 Newport Center Dr. Newport Beach, ",
	"formattedAddress": "401 Newport Center Dr, Newport Beach, CA 92660, USA",
	"lat": 33.615841,
	"lng": -117.8745434,
	"zipcode": "92660",
	"city": "Newport Beach",
	"neighborhood": "Newport Center"
}, {
	"location": "Laemmle Monica Film Center",
	"address": "1332 2nd Street Santa Moncia, ",
	"formattedAddress": "1332 2nd St, Santa Monica, CA 90401, USA",
	"lat": 34.0152416,
	"lng": -118.4979955,
	"zipcode": "90401",
	"city": "Santa Monica"
}, {
	"location": "Queen Mary",
	"address": "1126 Queens Highway Long Beach, ",
	"formattedAddress": "1126 Queens Hwy, Long Beach, CA 90802, USA",
	"lat": 33.7528705,
	"lng": -118.1897611,
	"zipcode": "90802",
	"city": "Long Beach",
	"neighborhood": "Queensway Bay"
}, {
	"location": "NORTH RANCH COUNTRY CLUB",
	"address": "4761 VALLEY SPRING Dr. WESTLAKE VILLAGE, ",
	"formattedAddress": "4761 Valley Spring Dr, Westlake Village, CA 91362, USA",
	"lat": 34.1924642,
	"lng": -118.8070057,
	"zipcode": "91362",
	"city": "Westlake Village"
}, {
	"location": "The Venetian Resort Hotel Casino",
	"address": "3355 S. Las Vegas Blvd. Las Vegas, Nevada 89109 310-566-4001",
	"formattedAddress": "3355 S Las Vegas Blvd, Las Vegas, NV 89109, USA",
	"lat": 36.1226902,
	"lng": -115.1701939,
	"zipcode": "89109",
	"city": "Las Vegas"
}, {
	"location": "DEPART Foundation",
	"address": "9105 Sunset Blvd. Los Angeles, ",
	"formattedAddress": "9105 Sunset Blvd, West Hollywood, CA 90069, USA",
	"lat": 34.0907385,
	"lng": -118.390022,
	"zipcode": "90069",
	"city": "West Hollywood",
	"neighborhood": "Sunset Strip"
}, {
	"location": "Fountain Theatre",
	"address": "5060 Fountain Ave. Los Angeles, ",
	"formattedAddress": "5060 Fountain Ave, Los Angeles, CA 90029, USA",
	"lat": 34.095084,
	"lng": -118.2998588,
	"zipcode": "90029",
	"city": "Los Angeles",
	"neighborhood": "Central LA"
}, {
	"location": "Olvera Street",
	"address": "845 N. Alameda St. Los Angeles, ",
	"formattedAddress": "845 North Alameda Street, Los Angeles, CA 90012, USA",
	"lat": 34.0574412,
	"lng": -118.2376558,
	"zipcode": "90012",
	"city": "Los Angeles",
	"neighborhood": "Central LA"
}, {
	"location": "The Point",
	"address": "850 S. Sepulveda Blvd. El Segundo, ",
	"formattedAddress": "850 S Sepulveda Blvd, El Segundo, CA 90245, USA",
	"lat": 33.9031445,
	"lng": -118.3954149,
	"zipcode": "90245",
	"city": "El Segundo"
}, {
	"location": "Brea Mall",
	"address": "1065 Brea Mall Brea, ",
	"formattedAddress": "1065 Brea Mall, Brea, CA 92821, USA",
	"lat": 33.9148897,
	"lng": -117.8866922,
	"zipcode": "92821",
	"city": "Brea"
}, {
	"location": "Flappers Comedy Club Burbank",
	"address": "102 E. Magnolia Blvd. Burbank, ",
	"formattedAddress": "102 E Magnolia Blvd, Burbank, CA 91502, USA",
	"lat": 34.181928,
	"lng": -118.3125083,
	"zipcode": "91502",
	"city": "Burbank"
}, {
	"location": "Civil Coffee",
	"address": "5629 N Figueroa St Los Angeles, Ca 90042 818-238-7262",
	"formattedAddress": "5629 N Figueroa St, Los Angeles, CA 90042, USA",
	"lat": 34.1095705,
	"lng": -118.1933932,
	"zipcode": "90042",
	"city": "Los Angeles",
	"neighborhood": "Northeast Los Angeles"
}, {
	"location": "A Noise Within",
	"address": "3352 E. Foothill Blvd. Pasadena, ",
	"formattedAddress": "3352 E Foothill Blvd, Pasadena, CA 91107, USA",
	"lat": 34.1495943,
	"lng": -118.0811409,
	"zipcode": "91107",
	"city": "Pasadena",
	"neighborhood": "Hastings Ranch"
}, {
	"location": "The McLoughlin Gallery",
	"address": "49 Geary St. San Francisco, ",
	"formattedAddress": "49 Geary St, San Francisco, CA 94108, USA",
	"lat": 37.787698,
	"lng": -122.4042883,
	"zipcode": "94108",
	"city": "San Francisco",
	"neighborhood": "Financial District"
}, {
	"location": "Los Angeles Zoo & Botanical Gardens",
	"address": "5333 Zoo Dr. Los Angeles, ",
	"formattedAddress": "5333 Zoo Dr, Los Angeles, CA 90027, USA",
	"lat": 34.1490401,
	"lng": -118.2840485,
	"zipcode": "90027",
	"city": "Los Angeles"
}, {
	"location": "Macgowan Little Theater, UCLA",
	"address": "245 Charles E. Young Drive East Los Angeles, ",
	"formattedAddress": "Macgowan Hall, 245 Charles E Young Dr E, Los Angeles, CA 90095, USA",
	"lat": 34.0758815,
	"lng": -118.4396813,
	"zipcode": "90095",
	"city": "Los Angeles",
	"neighborhood": "Westwood"
}, {
	"location": "Fleming's Prime Steakhouse",
	"address": "179 E. Colorado Blvd, Pasadena, ",
	"formattedAddress": "179 E Colorado Blvd, Pasadena, CA 91101, USA",
	"lat": 34.1458062,
	"lng": -118.1466612,
	"zipcode": "91101",
	"city": "Pasadena"
}, {
	"location": "North Hollywood Park",
	"address": "5099 Tujunga Ave. North Hollywood, ",
	"formattedAddress": "5099 Tujunga Ave, North Hollywood, CA 91601, USA",
	"lat": 34.1629645,
	"lng": -118.3790245,
	"zipcode": "91601",
	"city": "Los Angeles",
	"neighborhood": "North Hollywood"
}, {
	"location": "Salt's Cure",
	"address": "1155 N. Highland Ave. Los Angeles, ",
	"formattedAddress": "1155 Highland Ave, Los Angeles, CA 90038, USA",
	"lat": 34.0923795,
	"lng": -118.3389548,
	"zipcode": "90038",
	"city": "Los Angeles",
	"neighborhood": "Central LA"
}, {
	"location": "San Luis Obispo Museum of Art",
	"address": "1010 Broad St. San Luis Obispo, ",
	"formattedAddress": "1010 Broad St, San Luis Obispo, CA 93401, USA",
	"lat": 35.2795805,
	"lng": -120.6649827,
	"zipcode": "93401",
	"city": "San Luis Obispo",
	"neighborhood": "Downtown"
}, {
	"location": "Artists and Fleas",
	"address": "647 Mateo St. Los Angeles, ",
	"formattedAddress": "647 Mateo St, Los Angeles, CA 90021, USA",
	"lat": 34.0364202,
	"lng": -118.2328638,
	"zipcode": "90021",
	"city": "Los Angeles",
	"neighborhood": "Downtown"
}, {
	"location": "Grand Park",
	"address": "200 N. Grand Ave. Los Angeles, ",
	"formattedAddress": "200 N Grand Ave, Los Angeles, CA 90012, USA",
	"lat": 34.0562797,
	"lng": -118.2467434,
	"zipcode": "90012",
	"city": "Los Angeles",
	"neighborhood": "Central LA"
}, {
	"location": "Boomtown Brewery",
	"address": "700 Jackson St. Los Angeles, California 213-617-8497",
	"formattedAddress": "700 Jackson St, Los Angeles, CA 90012, USA",
	"lat": 34.050791,
	"lng": -118.2332283,
	"zipcode": "90012",
	"city": "Los Angeles",
	"neighborhood": "Downtown"
}, {
	"location": "Rock City Studios",
	"address": "2258 Pickwick Dr. Camarillo, ",
	"formattedAddress": "2258 Pickwick Dr, Camarillo, CA 93010, USA",
	"lat": 34.2214249,
	"lng": -119.0397152,
	"zipcode": "93010",
	"city": "Camarillo"
}, {
	"location": "Diesel, A Bookstore in Brentwood",
	"address": "225 26th St. Santa Monica, ",
	"formattedAddress": "225 26th St, Santa Monica, CA 90402, USA",
	"lat": 34.04765280000001,
	"lng": -118.4905284,
	"zipcode": "90402",
	"city": "Santa Monica",
	"neighborhood": "Brentwood"
}, {
	"location": "University of Philosophical Research",
	"address": "3910 Los Feliz Blvd. Los Angeles, ",
	"formattedAddress": "3910 Los Feliz Blvd, Los Angeles, CA 90027, USA",
	"lat": 34.1131146,
	"lng": -118.2775278,
	"zipcode": "90027",
	"city": "Los Angeles",
	"neighborhood": "Los Feliz"
}, {
	"location": "Kayne Griffin Corcoran",
	"address": "1201 S. La Brea Ave. Los Angeles, ",
	"formattedAddress": "1201 South La Brea Ave, Los Angeles, CA 90019, USA",
	"lat": 34.0532064,
	"lng": -118.3442265,
	"zipcode": "90019",
	"city": "Los Angeles",
	"neighborhood": "Mid-Wilshire"
}, {
	"location": "CB1 Gallery",
	"address": "1923 S. Santa Fe. Ave. Los Angeles, ",
	"formattedAddress": "1923 S Santa Fe Ave, Los Angeles, CA 90021, USA",
	"lat": 34.0223484,
	"lng": -118.2304801,
	"zipcode": "90021",
	"city": "Los Angeles",
	"neighborhood": "Boyle Heights"
}, {
	"location": "Corey Helford Gallery",
	"address": "571 S. Anderson St. Los Angeles, California 90033 310-287-2340",
	"formattedAddress": "571 S Anderson St, Los Angeles, CA 90033, USA",
	"lat": 34.0394758,
	"lng": -118.2245162,
	"zipcode": "90033",
	"city": "Los Angeles",
	"neighborhood": "Central LA"
}, {
	"location": "Taiwan Academy in Los Angeles",
	"address": "1137 Westwood Blvd Los Angeles, California 90024 213-403-0168",
	"formattedAddress": "1137 Westwood Blvd, Los Angeles, CA 90024, USA",
	"lat": 34.0600622,
	"lng": -118.4449559,
	"zipcode": "90024",
	"city": "Los Angeles",
	"neighborhood": "Westwood"
}, {
	"location": "Laemmle's Music Hall 3",
	"address": "9036 Wilshire Blvd Beverly Hills, ",
	"formattedAddress": "9036 Wilshire Blvd, Beverly Hills, CA 90211, USA",
	"lat": 34.0667063,
	"lng": -118.3889864,
	"zipcode": "90211",
	"city": "Beverly Hills"
}, {
	"location": "Riverside Municipal Auditorium",
	"address": "3485 Mission Inn Ave. Riverside, ",
	"formattedAddress": "3485 Mission Inn Avenue, Riverside, CA 92501, USA",
	"lat": 33.9820983,
	"lng": -117.3707991,
	"zipcode": "92501",
	"city": "Riverside",
	"neighborhood": "Downtown Riverside"
}, {
	"location": "Finn McCool's",
	"address": "2702 Main St. Santa Monica, ",
	"formattedAddress": "2702 Main St, Santa Monica, CA 90405, USA",
	"lat": 34.000743,
	"lng": -118.4826649,
	"zipcode": "90405",
	"city": "Santa Monica",
	"neighborhood": "Ocean Park"
}, {
	"location": "Cowboy Country",
	"address": "3321 E. South St. Long Beach, ",
	"formattedAddress": "3321 E South St, Long Beach, CA 90805, USA",
	"lat": 33.8608162,
	"lng": -118.1520732,
	"zipcode": "90805",
	"city": "Long Beach",
	"neighborhood": "North Long Beach"
}, {
	"location": "The Colburn School of Music, Zipper Concert Hall",
	"address": "200 S. Grand Ave. Los Angeles, ",
	"formattedAddress": "200 S Grand Ave, Los Angeles, CA 90012, USA",
	"lat": 34.0540038,
	"lng": -118.2498686,
	"zipcode": "90012",
	"city": "Los Angeles",
	"neighborhood": "Downtown"
}, {
	"location": "Whitefire Theatre",
	"address": "13500 Ventura Blvd. Sherman Oaks, ",
	"formattedAddress": "13500 Ventura Blvd, Sherman Oaks, CA 91423, USA",
	"lat": 34.1471717,
	"lng": -118.4273501,
	"zipcode": "91423",
	"city": "Los Angeles",
	"neighborhood": "Sherman Oaks"
}, {
	"location": "CCCM: Centro Cultural y Cinematográfico México",
	"address": "2401 W. Sixth St. Los Angeles, CA",
	"formattedAddress": "2401 W 6th St, Los Angeles, CA 90057, USA",
	"lat": 34.06134,
	"lng": -118.2780649,
	"zipcode": "90057",
	"city": "Los Angeles",
	"neighborhood": "Central LA"
}, {
	"location": "The Last Bookstore",
	"address": "453 S. Spring St. Los Angeles, ",
	"formattedAddress": "453 S Spring St, Los Angeles, CA 90013, USA",
	"lat": 34.04776330000001,
	"lng": -118.2495151,
	"zipcode": "90013",
	"city": "Los Angeles",
	"neighborhood": "Downtown"
}, {
	"location": "General Assembly Los Angeles",
	"address": "360 E. 2nd Street, Suite 400 Los Angeles, ",
	"formattedAddress": "360 E 2nd St #400, Los Angeles, CA 90012, USA",
	"lat": 34.0478914,
	"lng": -118.2401423,
	"zipcode": "90012",
	"city": "Los Angeles",
	"neighborhood": "Central LA"
}, {
	"location": "Alexander's Steakhouse",
	"address": "111 N. Los Robles Pasadena, California 91101 626-486-1111",
	"formattedAddress": "111 N Los Robles Ave, Pasadena, CA 91101, USA",
	"lat": 34.1474456,
	"lng": -118.1421443,
	"zipcode": "91101",
	"city": "Pasadena"
}, {
	"location": "The Blue Guitar, Arroyo Seco Golf Course",
	"address": "1055 Lohman Lane South Pasadena, ",
	"formattedAddress": "1055 Lohman Ln, South Pasadena, CA 91030, USA",
	"lat": 34.117108,
	"lng": -118.167742,
	"zipcode": "91030",
	"city": "South Pasadena"
}, {
	"location": "The Reserve",
	"address": "650 S. Spring St. Los Angeles, ",
	"formattedAddress": "A.G. Bartlett Building, 650 S Spring St, Los Angeles, CA 90014, USA",
	"lat": 34.04462060000001,
	"lng": -118.2518969,
	"zipcode": "90014",
	"city": "Los Angeles",
	"neighborhood": "Downtown"
}, {
	"location": "Clifton's Republic",
	"address": "648 S. Broadway Ave. Los Angeles, ",
	"formattedAddress": "648 S Broadway, Los Angeles, CA 90014, USA",
	"lat": 34.0452841,
	"lng": -118.2528166,
	"zipcode": "90014",
	"city": "Los Angeles",
	"neighborhood": "Central LA"
}, {
	"location": "Arts District Brewing Company",
	"address": "828 Traction Ave Los Angeles, California 90013 213-817-5321",
	"formattedAddress": "828 Traction Ave, Los Angeles, CA 90013, USA",
	"lat": 34.0445635,
	"lng": -118.2355338,
	"zipcode": "90013",
	"city": "Los Angeles",
	"neighborhood": "Central LA"
}, {
	"location": "Oxnard Performing Arts Center",
	"address": "800 Hobson Way Oxnard, ",
	"formattedAddress": "800 Hobson Way, Oxnard, CA 93030, USA",
	"lat": 34.193659,
	"lng": -119.1883974,
	"zipcode": "93030",
	"city": "Oxnard",
	"neighborhood": "Hobson Park East"
}, {
	"location": "Union Station",
	"address": "800 N. Alameda St. Los Angeles, ",
	"formattedAddress": "800 North Alameda Street, Los Angeles, CA 90012, USA",
	"lat": 34.0561193,
	"lng": -118.2375219,
	"zipcode": "90012",
	"city": "Los Angeles",
	"neighborhood": "Central LA"
}, {
	"location": "The Savoy Entertainment Center",
	"address": "218 S. La Brea Blvd. Inglewood, ",
	"formattedAddress": "218 South La Brea Ave, Inglewood, CA 90301, USA",
	"lat": 33.9611289,
	"lng": -118.3529119,
	"zipcode": "90301",
	"city": "Inglewood"
}, {
	"location": "Regal Inn",
	"address": "6753 E. Carson St. Lakewood, ",
	"formattedAddress": "6753 E Carson St, Lakewood, CA 90713, USA",
	"lat": 33.832746,
	"lng": -118.099656,
	"zipcode": "90713",
	"city": "Lakewood"
}, {
	"location": "Community Center of La Canada Flintridge",
	"address": "4469 Chevy Chase Dr, La Cañada Flintridge,, ",
	"formattedAddress": "4469 Chevy Chase Dr, La Cañada Flintridge, CA 91011, USA",
	"lat": 34.2041598,
	"lng": -118.2014764,
	"zipcode": "91011",
	"city": "La Cañada Flintridge"
}, {
	"location": "El Camino College, Marsee Auditorium",
	"address": "16007 Crenshaw Blvd., Torrance, California 90506 310--660-3406",
	"formattedAddress": "16007 Crenshaw Blvd, Torrance, CA 90506, USA",
	"lat": 33.8855888,
	"lng": -118.3274562,
	"zipcode": "90506",
	"city": "Torrance"
}, {
	"location": "First Church of the Nazarene",
	"address": "3700 E. Sierra Madre Blvd. Los Angeles, ",
	"formattedAddress": "3700 E Sierra Madre Blvd, Pasadena, CA 91107, USA",
	"lat": 34.1609763,
	"lng": -118.0739988,
	"zipcode": "91107",
	"city": "Pasadena",
	"neighborhood": "Hastings Ranch"
}, {
	"location": "Boulevard Music",
	"address": "4316 Sepulveda Blvd. Culver City, ",
	"formattedAddress": "4316 Sepulveda Blvd, Culver City, CA 90230, USA",
	"lat": 34.0045754,
	"lng": -118.4092156,
	"zipcode": "90230",
	"city": "Culver City",
	"neighborhood": "Park West"
}, {
	"location": "Barnsdall Gallery Theatre, Barnsdall Art Park",
	"address": "4800 Hollywood Blvd. Los Angeles, ",
	"formattedAddress": "4800 Hollywood Blvd, Los Angeles, CA 90027, USA",
	"lat": 34.1015282,
	"lng": -118.2943343,
	"zipcode": "90027",
	"city": "Los Angeles",
	"neighborhood": "Hollywood"
}, {
	"location": "Anaheim Convention Center",
	"address": "800 W. Katella Ave. Anaheim, ",
	"formattedAddress": "800 W Katella Ave, Anaheim, CA 92802, USA",
	"lat": 33.8003652,
	"lng": -117.9208568,
	"zipcode": "92802",
	"city": "Anaheim",
	"neighborhood": "Anaheim Resort"
}, {
	"location": "USC Tower at South Park Center",
	"address": "1150 S. Olive St, 30th Floor LOS ANGELES, ",
	"formattedAddress": "At&t Center, 1150 S Olive St, Los Angeles, CA 90015, USA",
	"lat": 34.0395199,
	"lng": -118.2617072,
	"zipcode": "90015",
	"city": "Los Angeles",
	"neighborhood": "Central LA"
}, {
	"location": "West Hollywood Library",
	"address": "625 N. San Vicente Blvd. Community Room West Hollywood, ",
	"formattedAddress": "625 N San Vicente Blvd, West Hollywood, CA 90069, USA",
	"lat": 34.0818442,
	"lng": -118.384113,
	"zipcode": "90069",
	"city": "West Hollywood",
	"neighborhood": "Central LA"
}, {
	"location": "West Hollywood Park",
	"address": "647 San Vicente Blvd. West Hollywood, ",
	"formattedAddress": "647 N San Vicente Blvd, West Hollywood, CA 90069, USA",
	"lat": 34.082437,
	"lng": -118.3842211,
	"zipcode": "90069",
	"city": "West Hollywood",
	"neighborhood": "Central LA"
}, {
	"location": "The Reef",
	"address": "1933 S. Broadway Ave. Los Angeles, Downtown / LA Metro 90007",
	"formattedAddress": "1933 S Broadway Suite 6, Los Angeles, CA 90007, USA",
	"lat": 34.0312543,
	"lng": -118.2665804,
	"zipcode": "90007",
	"city": "Los Angeles",
	"neighborhood": "South Los Angeles"
}, {
	"location": "Sugar & Stilettos",
	"address": "2306 Midvale Ave. Los Angeles, California 90064 310-481-5000",
	"formattedAddress": "2306 Midvale Ave, Los Angeles, CA 90064, USA",
	"lat": 34.041776,
	"lng": -118.430905,
	"zipcode": "90064",
	"city": "Los Angeles",
	"neighborhood": "West Los Angeles"
}, {
	"location": "Icon",
	"address": "9601 Lurline Avenue, Chatsworth, California 91311 818-280-3333",
	"formattedAddress": "9601 Lurline Ave, Chatsworth, CA 91311, USA",
	"lat": 34.2451727,
	"lng": -118.5847161,
	"zipcode": "91311",
	"city": "Los Angeles",
	"neighborhood": "Chatsworth"
}, {
	"location": "The Barkley Restaurant & Bar",
	"address": "1400 Huntington Dr. South Pasadena, ",
	"formattedAddress": "1400 Huntington Dr, South Pasadena, CA 91030, USA",
	"lat": 34.1044402,
	"lng": -118.152313,
	"zipcode": "91030",
	"city": "South Pasadena"
}, {
	"location": "Far East Lounge",
	"address": "353 E 1st St Los Angeles, ",
	"formattedAddress": "353 E 1st St, Los Angeles, CA 90012, USA",
	"lat": 34.0496917,
	"lng": -118.2394385,
	"zipcode": "90012",
	"city": "Los Angeles",
	"neighborhood": "Central LA"
}, {
	"location": "Private Malibu Ranch TBA w/ticket purchase",
	"address": "Upper Ramirez Mtwy Malibu, ",
	"formattedAddress": "Upper Ramirez Mtwy, Malibu, CA 90265, USA",
	"lat": 34.0750181,
	"lng": -118.796762,
	"zipcode": "90265",
	"city": "Malibu"
}, {
	"location": "The Art Process",
	"address": "11693 San Vicente Blvd Ste 551 Los Angeles, ",
	"formattedAddress": "11693 San Vicente Blvd #551, Los Angeles, CA 90049, USA",
	"lat": 34.0539575,
	"lng": -118.4655012,
	"zipcode": "90049",
	"city": "Los Angeles",
	"neighborhood": "Brentwood"
}, {
	"location": "The Royal Princess Yacht",
	"address": "2901 W. Coast Highway Newport Beach, ",
	"formattedAddress": "2901 West Coast Hwy, Newport Beach, CA 92663, USA",
	"lat": 33.6203579,
	"lng": -117.9254504,
	"zipcode": "92663",
	"city": "Newport Beach"
}, {
	"location": "San Fernando High School",
	"address": "11133 O'Melveny Ave. San Fernando, ",
	"formattedAddress": "11133 O'Melveny Avenue, San Fernando, CA 91340, USA",
	"lat": 34.2701053,
	"lng": -118.4401276,
	"zipcode": "91340",
	"city": "San Fernando",
	"neighborhood": "Pacoima"
}, {
	"location": "Harris Ranch Inn & Restaurant",
	"address": "24505 W Dorris Ave Coalinga, California 93210 559-935-0717",
	"formattedAddress": "24505 W Dorris Ave, Coalinga, CA 93210, USA",
	"lat": 36.2531641,
	"lng": -120.2385342,
	"zipcode": "93210",
	"city": "Coalinga"
}, {
	"location": "Old Town Music Hall",
	"address": "140 Richmond St. El Segundo, ",
	"formattedAddress": "140 Richmond St, El Segundo, CA 90245, USA",
	"lat": 33.9175771,
	"lng": -118.4169034,
	"zipcode": "90245",
	"city": "El Segundo"
}, {
	"location": "Castle Green",
	"address": "99 S. Raymond Ave. Pasadena, ",
	"formattedAddress": "99 S Raymond Ave, Pasadena, CA 91105, USA",
	"lat": 34.1440417,
	"lng": -118.1496459,
	"zipcode": "91105",
	"city": "Pasadena",
	"neighborhood": "Old Pasadena"
}, {
	"location": "The OffBeat",
	"address": "6316 York Blvd. Highland Park, ",
	"formattedAddress": "6316 York Blvd, Los Angeles, CA 90042, USA",
	"lat": 34.1143812,
	"lng": -118.1821261,
	"zipcode": "90042",
	"city": "Los Angeles",
	"neighborhood": "Northeast Los Angeles"
}, {
	"location": "Lyric Hyperion Theatre & Cafe",
	"address": "2106 Hyperion Ave. Los Angeles, ",
	"formattedAddress": "2106 Hyperion Ave, Los Angeles, CA 90026, USA",
	"lat": 34.0988601,
	"lng": -118.273745,
	"zipcode": "90026",
	"city": "Los Angeles",
	"neighborhood": "Central LA"
}, {
	"location": "Rolling Hills United Methodist Church",
	"address": "26438 Crenshaw Blvd. Palos Verdes Peninsula, ",
	"formattedAddress": "26438 Crenshaw Blvd, Rolling Hills, CA 90274, USA",
	"lat": 33.783095,
	"lng": -118.350654,
	"zipcode": "90274",
	"city": "Rolling Hills"
}, {
	"location": "Club Bahia",
	"address": "1130 W. Sunset Blvd. Los Angeles, ",
	"formattedAddress": "1130 Sunset Blvd, Los Angeles, CA 90012, USA",
	"lat": 34.0663088,
	"lng": -118.2498753,
	"zipcode": "90012",
	"city": "Los Angeles",
	"neighborhood": "Echo Park"
}, {
	"location": "Storrier Stearns Japanese Garden",
	"address": "270 Arlington Dr. Pasadena, ",
	"formattedAddress": "270 Arlington Dr, Pasadena, CA 91105, USA",
	"lat": 34.1279922,
	"lng": -118.1559945,
	"zipcode": "91105",
	"city": "Pasadena",
	"neighborhood": "Northeast Los Angeles"
}, {
	"location": "Lonny Chapman Group Repertory Theatre",
	"address": "10900 Burbank Blvd. North Hollywood, ",
	"formattedAddress": "10900 Burbank Blvd, North Hollywood, CA 91601, USA",
	"lat": 34.1718698,
	"lng": -118.3683542,
	"zipcode": "91601",
	"city": "Los Angeles",
	"neighborhood": "North Hollywood"
}, {
	"location": "Pasadena Presbyterian Church",
	"address": "585 E. Colorado Blvd. Pasadena, ",
	"formattedAddress": "585 E Colorado Blvd, Pasadena, CA 91101, USA",
	"lat": 34.1462613,
	"lng": -118.1389268,
	"zipcode": "91101",
	"city": "Pasadena"
}, {
	"location": "Edemar center",
	"address": "2437 main st Santa Monica, ",
	"formattedAddress": "2437 Main St, Santa Monica, CA 90405, USA",
	"lat": 34.0035616,
	"lng": -118.4847408,
	"zipcode": "90405",
	"city": "Santa Monica",
	"neighborhood": "Ocean Park"
}, {
	"location": "Pomona College Art Department Chan Gallery",
	"address": "370 Columbia Ave. Claremont, California 91711 909-621-8079",
	"formattedAddress": "370 Columbia Ave, Claremont, CA 91711, USA",
	"lat": 34.0966139,
	"lng": -117.711123,
	"zipcode": "91711",
	"city": "Claremont"
}, {
	"location": "Homibing",
	"address": "3300 W. Sixth St. Los Angeles, ",
	"formattedAddress": "3300 W 6th St, Los Angeles, CA 90020, USA",
	"lat": 34.06341099999999,
	"lng": -118.2943457,
	"zipcode": "90020",
	"city": "Los Angeles",
	"neighborhood": "Central LA"
}, {
	"location": "Oeno Vino Wine Shop & Bar",
	"address": "3111 Glendale Blvd. #2 Los Angeles (Atwater Village), ",
	"formattedAddress": "3111 Glendale Blvd #2, Los Angeles, CA 90039, USA",
	"lat": 34.1162782,
	"lng": -118.2628216,
	"zipcode": "90039",
	"city": "Los Angeles",
	"neighborhood": "Northeast Los Angeles"
}, {
	"location": "Fingerprints",
	"address": "420 E. Fourth St. Long Beach, ",
	"formattedAddress": "420 E 4th St, Long Beach, CA 90802, USA",
	"lat": 33.7715009,
	"lng": -118.187218,
	"zipcode": "90802",
	"city": "Long Beach",
	"neighborhood": "Downtown"
}, {
	"location": "TAG Gallery",
	"address": "5458 Wilshire Blvd. Los Angeles, ",
	"formattedAddress": "5458 Wilshire Blvd, Los Angeles, CA 90036, USA",
	"lat": 34.061976,
	"lng": -118.347685,
	"zipcode": "90036",
	"city": "Los Angeles",
	"neighborhood": "Central LA"
}, {
	"location": "Blitzstein Museum of Art",
	"address": "428 N. Fairfax Ave. Los Angeles, ",
	"formattedAddress": "428 N Fairfax Ave, Los Angeles, CA 90036, USA",
	"lat": 34.0790993,
	"lng": -118.3611352,
	"zipcode": "90036",
	"city": "Los Angeles",
	"neighborhood": "Central LA"
}, {
	"location": "Gender Free Arts",
	"address": "1732 Aviation Blvd. Redondo Beach, ",
	"formattedAddress": "1732 Aviation Blvd, Redondo Beach, CA 90278, USA",
	"lat": 33.8716714,
	"lng": -118.3812209,
	"zipcode": "90278",
	"city": "Redondo Beach",
	"neighborhood": "North Redondo"
}, {
	"location": "De Re Gallery",
	"address": "8920 Melrose Ave. West Hollywood, ",
	"formattedAddress": "8920 Melrose Ave, West Hollywood, CA 90069, USA",
	"lat": 34.0806171,
	"lng": -118.3874756,
	"zipcode": "90069",
	"city": "West Hollywood",
	"neighborhood": "Central LA"
}, {
	"location": "M.i.'s Westside Comedy Theater",
	"address": "1323-A 3rd St Promenade (A stands for Alley) Santa Monica, ",
	"formattedAddress": "Third Street Promenade, 1323-A 3rd St, Santa Monica, CA 90401, USA",
	"lat": 34.0169538,
	"lng": -118.4968376,
	"zipcode": "90401",
	"city": "Santa Monica",
	"neighborhood": "Downtown"
}, {
	"location": "Joshua Tree Lake Campground",
	"address": "2601 Sunfair Rd. Joshua Tree, ",
	"formattedAddress": "2601 Sunfair Rd, Joshua Tree, CA 92252, USA",
	"lat": 34.2061368,
	"lng": -116.2445109,
	"zipcode": "92252",
	"city": "Joshua Tree"
}, {
	"location": "La Mirada Theatre for the Performing Arts",
	"address": "14900 La Mirada Blvd. La Mirada, ",
	"formattedAddress": "14900 La Mirada Blvd, La Mirada, CA 90638, USA",
	"lat": 33.8967669,
	"lng": -118.009624,
	"zipcode": "90638",
	"city": "La Mirada"
}, {
	"location": "Malibu Village",
	"address": "3835 Cross Creek Rd. Malibu, ",
	"formattedAddress": "4, 3835 Cross Creek Rd, Malibu, CA 90265, USA",
	"lat": 34.0355873,
	"lng": -118.6851416,
	"zipcode": "90265",
	"city": "Malibu",
	"neighborhood": "Eastern Malibu"
}, {
	"location": "Jack Wilson",
	"address": "Munich,Germany Munich, Bavaria 80331 702-508-5200",
	"formattedAddress": "Hochbrückenstraße 18, 80331 München, Germany",
	"lat": 48.13728159999999,
	"lng": 11.5821007,
	"zipcode": "80331",
	"city": "München",
	"neighborhood": "Altstadt-Lehel"
}, {
	"location": "Jack Willson",
	"address": "Munich,Germany Munich, Bavaria 80331 070-250-8520",
	"formattedAddress": "Hochbrückenstraße 18, 80331 München, Germany",
	"lat": 48.13728159999999,
	"lng": 11.5821007,
	"zipcode": "80331",
	"city": "München",
	"neighborhood": "Altstadt-Lehel"
}, {
	"location": "Boston Court",
	"address": "70 N. Mentor Ave. Pasadena, ",
	"formattedAddress": "70 N Mentor Ave, Pasadena, CA 91106, USA",
	"lat": 34.1470269,
	"lng": -118.1305675,
	"zipcode": "91106",
	"city": "Pasadena"
}, {
	"location": "The Peppermint Club",
	"address": "8713 Beverly Blvd. West Hollywood, ",
	"formattedAddress": "8713 Beverly Blvd, West Hollywood, CA 90048, USA",
	"lat": 34.0771589,
	"lng": -118.3809607,
	"zipcode": "90048",
	"city": "West Hollywood",
	"neighborhood": "Central LA"
}, {
	"location": "Los Angeles Theatre Center",
	"address": "514 S. Spring St. Los Angeles, ",
	"formattedAddress": "Security Building, 514 S Spring St, Los Angeles, CA 90013, USA",
	"lat": 34.0466405,
	"lng": -118.2496756,
	"zipcode": "90013",
	"city": "Los Angeles",
	"neighborhood": "Central LA"
}, {
	"location": "Paper Mart",
	"address": "2164 N Batavia St Orange, ",
	"formattedAddress": "2164 N Batavia St, Orange, CA 92865, USA",
	"lat": 33.8243548,
	"lng": -117.8638912,
	"zipcode": "92865",
	"city": "Orange"
}, {
	"location": "The Runway",
	"address": "7060 Hollywood Blvd. Los Angeles, ",
	"formattedAddress": "7060 Hollywood Blvd, Hollywood, CA 90028, USA",
	"lat": 34.1011635,
	"lng": -118.3437162,
	"zipcode": "90028",
	"city": "Los Angeles",
	"neighborhood": "Hollywood"
}, {
	"location": "Couture",
	"address": "1640 N. Cahuenga Blvd. Los Angeles, ",
	"formattedAddress": "1640 N Cahuenga Blvd, Los Angeles, CA 90028, USA",
	"lat": 34.1010176,
	"lng": -118.3293095,
	"zipcode": "90028",
	"city": "Los Angeles",
	"neighborhood": "Central LA"
}, {
	"location": "Casa Escobar",
	"address": "22969 Pacific Coast Highway Malibu, ",
	"formattedAddress": "22969 Pacific Coast Hwy, Malibu, CA 90265, USA",
	"lat": 34.037747,
	"lng": -118.677028,
	"zipcode": "90265",
	"city": "Malibu",
	"neighborhood": "Eastern Malibu"
}, {
	"location": "The Velaslavasay Panorama",
	"address": "1122 W. 24th St. Los Angeles, ",
	"formattedAddress": "1122 W 24th St, Los Angeles, CA 90007, USA",
	"lat": 34.034149,
	"lng": -118.284666,
	"zipcode": "90007",
	"city": "Los Angeles",
	"neighborhood": "South Los Angeles"
}, {
	"location": "Music Center",
	"address": "135 N. Grand Ave. Los Angeles, ",
	"formattedAddress": "135 N Grand Ave, Los Angeles, CA 90012, USA",
	"lat": 34.0566067,
	"lng": -118.2489325,
	"zipcode": "90012",
	"city": "Los Angeles",
	"neighborhood": "Central LA"
}, {
	"location": "The Road on Lankershim",
	"address": "5108 Lankershim Blvd North Hollywood, ",
	"formattedAddress": "5108 Lankershim Blvd, North Hollywood, CA 91601, USA",
	"lat": 34.1632645,
	"lng": -118.3732982,
	"zipcode": "91601",
	"city": "Los Angeles",
	"neighborhood": "North Hollywood"
}, {
	"location": "ARTLIFE GALLERY",
	"address": "720 C S ALLIED WAY EL SEGUNDO, ",
	"formattedAddress": "720 S Allied Way, El Segundo, CA 90245, USA",
	"lat": 33.9067718,
	"lng": -118.3898778,
	"zipcode": "90245",
	"city": "El Segundo"
}, {
	"location": "Children's Book World",
	"address": "10580 W. Pico Blvd. Los Angeles, ",
	"formattedAddress": "10580 W Pico Blvd, Los Angeles, CA 90064, USA",
	"lat": 34.0435699,
	"lng": -118.4213437,
	"zipcode": "90064",
	"city": "Los Angeles",
	"neighborhood": "Rancho Park"
}, {
	"location": "Craft in America Center",
	"address": "8415 W. Third St. Los Angeles, ",
	"formattedAddress": "8415 W 3rd St, Los Angeles, CA 90048, USA",
	"lat": 34.0732687,
	"lng": -118.3736565,
	"zipcode": "90048",
	"city": "Los Angeles",
	"neighborhood": "Beverly Grove"
}, {
	"location": "Colonel Allensworth State Historic Park",
	"address": "Star Route 1 Earlimart, "
}, {
	"location": "Beverly Gardens Park",
	"address": "Rodeo & N. Santa Monica Blvd. Beverly Hills, ",
	"formattedAddress": "Historic Rte 66 & Rodeo Dr & N Rodeo Dr, Beverly Hills, CA 90210, USA",
	"lat": 34.07096480000001,
	"lng": -118.4047076,
	"zipcode": "90210",
	"city": "Beverly Hills"
}, {
	"location": "Strawberry Meadows of College Park",
	"address": "3250 S. Rose Ave. Oxnard, ",
	"formattedAddress": "3250 S Rose Ave, Oxnard, CA 93033, USA",
	"lat": 34.1695752,
	"lng": -119.1588331,
	"zipcode": "93033",
	"city": "Oxnard",
	"neighborhood": "College Park"
}, {
	"location": "Pershing Square",
	"address": "532 S. Olive St. Los Angeles, ",
	"formattedAddress": "532 S Olive St, Los Angeles, CA 90013, USA",
	"lat": 34.0485099,
	"lng": -118.2532776,
	"zipcode": "90013",
	"city": "Los Angeles",
	"neighborhood": "Downtown"
}, {
	"location": "Shomrei Torah Synagogue",
	"address": "7353 Valley Circle Blvd. West Hills, ",
	"formattedAddress": "7353 Valley Cir Blvd, West Hills, CA 91304, USA",
	"lat": 34.2061873,
	"lng": -118.6544053,
	"zipcode": "91304",
	"city": "Los Angeles",
	"neighborhood": "West Hills"
}, {
	"location": "UnUrban Coffee House",
	"address": "3301 Pico Blvd. Santa Monica, ",
	"formattedAddress": "3301 Pico Blvd, Santa Monica, CA 90404, USA",
	"lat": 34.0269553,
	"lng": -118.4555966,
	"zipcode": "90404",
	"city": "Santa Monica",
	"neighborhood": "Pico"
}, {
	"location": "The California Club",
	"address": "538 S. Flower St. Los Angeles, ",
	"formattedAddress": "538 S Flower St, Los Angeles, CA 90071, USA",
	"lat": 34.0503846,
	"lng": -118.2565674,
	"zipcode": "90071",
	"city": "Los Angeles",
	"neighborhood": "Central LA"
}, {
	"location": "Drake Stadium",
	"address": "340 Charles E. Young Drive North Los Angeles, ",
	"formattedAddress": "340 Charles E Young Dr N, Los Angeles, CA 90024, USA",
	"lat": 34.0754045,
	"lng": -118.4444107,
	"zipcode": "90024",
	"city": "Los Angeles",
	"neighborhood": "Westwood"
}, {
	"location": "Rose Bowl",
	"address": "1001 Rose Bowl Dr. Pasadena, ",
	"formattedAddress": "1001 Rose Bowl Dr, Pasadena, CA 91103, USA",
	"lat": 34.1606364,
	"lng": -118.1674865,
	"zipcode": "91103",
	"city": "Pasadena",
	"neighborhood": "North Arroyo"
}, {
	"location": "The Ambassador Yacht",
	"address": "2901 W. Coast Highway Newport Beach, ",
	"formattedAddress": "2901 West Coast Hwy, Newport Beach, CA 92663, USA",
	"lat": 33.6203579,
	"lng": -117.9254504,
	"zipcode": "92663",
	"city": "Newport Beach"
}, {
	"location": "Pacific Palisades Recreation Center",
	"address": "851 Alma Real Dr Pacific Palisades, ",
	"formattedAddress": "851 Alma Real Dr, Pacific Palisades, CA 90272, USA",
	"lat": 34.0422056,
	"lng": -118.5245325,
	"zipcode": "90272",
	"city": "Los Angeles",
	"neighborhood": "Pacific Palisades"
}, {
	"location": "Ernie Howlett Park",
	"address": "25851 Hawthorne Blvd. Rolling Hills Estates, ",
	"formattedAddress": "25851 Hawthorne Blvd, Rolling Hills Estates, CA 90274, USA",
	"lat": 33.7908241,
	"lng": -118.3541776,
	"zipcode": "90274",
	"city": "Rolling Hills Estates"
}, {
	"location": "Gamble House",
	"address": "4 Westmoreland Pasadena, ",
	"formattedAddress": "4 Westmoreland Pl, Pasadena, CA 91103, USA",
	"lat": 34.1516225,
	"lng": -118.1609168,
	"zipcode": "91103",
	"city": "Pasadena",
	"neighborhood": "North Arroyo"
}, {
	"location": "San Marino Community Church",
	"address": "1750 Virginia Rd. San Marino, ",
	"formattedAddress": "1750 Virginia Rd, San Marino, CA 91108, USA",
	"lat": 34.1165094,
	"lng": -118.1162498,
	"zipcode": "91108",
	"city": "San Marino"
}, {
	"location": "Universal Studios Backlot",
	"address": "4050 Lankershim Blvd Studio City, ",
	"formattedAddress": "4050 Lankershim Blvd, Studio City, CA 91604, USA",
	"lat": 34.142969,
	"lng": -118.360765,
	"zipcode": "91604",
	"city": "Los Angeles",
	"neighborhood": "Studio City"
}, {
	"location": "The Ranch Saloon",
	"address": "1025 E. Ball Rd. Anaheim, ",
	"formattedAddress": "1025 E Ball Rd, Anaheim, CA 92805, USA",
	"lat": 33.8187024,
	"lng": -117.8971096,
	"zipcode": "92805",
	"city": "Anaheim",
	"neighborhood": "Southeast Anaheim"
}, {
	"location": "El Pueblo de Los Angeles",
	"address": "125 Paseo de la Plaza Los Angeles, ",
	"formattedAddress": "125 Paseo De La Plaza, Los Angeles, CA 90012, USA",
	"lat": 34.0568615,
	"lng": -118.238149,
	"zipcode": "90012",
	"city": "Los Angeles",
	"neighborhood": "Central LA"
}, {
	"location": "Hahn Hall, UC Santa Barbara",
	"address": "1070 Fairway Rd. Santa Barbara, ",
	"formattedAddress": "1070 Fairway Rd, Montecito, CA 93108, USA",
	"lat": 34.420342,
	"lng": -119.649511,
	"zipcode": "93108",
	"city": "Montecito"
}, {
	"location": "St. James Presbyterian Church",
	"address": "19414 Ventura Blvd. Tarzana, ",
	"formattedAddress": "19414 Ventura Blvd, Tarzana, CA 91356, USA",
	"lat": 34.1724319,
	"lng": -118.5563574,
	"zipcode": "91356",
	"city": "Los Angeles",
	"neighborhood": "Tarzana"
}, {
	"location": "Los Angeles Modern Auctions",
	"address": "16145 Hart St. Van Nuys, ",
	"formattedAddress": "16145 Hart St, Van Nuys, CA 91406, USA",
	"lat": 34.1982374,
	"lng": -118.4851331,
	"zipcode": "91406",
	"city": "Los Angeles",
	"neighborhood": "Van Nuys"
}, {
	"location": "Ace Hotel Downtown Los Angeles",
	"address": "929 S. Broadway Los Angeles, California 90015 213-623-3233",
	"formattedAddress": "929 S Broadway, Los Angeles, CA 90015, USA",
	"lat": 34.0418652,
	"lng": -118.256987,
	"zipcode": "90015",
	"city": "Los Angeles",
	"neighborhood": "Central LA"
}, {
	"location": "Sunset Theatre Company",
	"address": "1603 Aviation Blvd. #6 Redondo Beach,, ",
	"formattedAddress": "1603 Aviation Blvd #6, Redondo Beach, CA 90278, USA",
	"lat": 33.8696503,
	"lng": -118.3828985,
	"zipcode": "90278",
	"city": "Redondo Beach",
	"neighborhood": "North Redondo"
}, {
	"location": "South Bay Boobology",
	"address": "1952 Pacific Coast Highway Lomita, ",
	"formattedAddress": "1952 Pacific Coast Hwy, Lomita, CA 90717, USA",
	"lat": 33.7895039,
	"lng": -118.3139133,
	"zipcode": "90717",
	"city": "Lomita"
}, {
	"location": "Chelsia rossi",
	"address": "Embassy Suites by Hilton Las Vegas las vegas, NV 89119 650-268-9744",
	"formattedAddress": "4315 Swenson St, Las Vegas, NV 89119, USA",
	"lat": 36.110912,
	"lng": -115.1512323,
	"zipcode": "89119",
	"city": "Las Vegas"
}, {
	"location": "Crowell Public Library, City of San Marino",
	"address": "1890 Huntington Dr. San Marino, ",
	"formattedAddress": "1890 Huntington Dr, Pasadena, CA 91108, USA",
	"lat": 34.1190091,
	"lng": -118.1126926,
	"zipcode": "91108",
	"city": "Pasadena"
}, {
	"location": "The New Townhouse",
	"address": "6835 La Tijera Blvd. Los Angeles, ",
	"formattedAddress": "6835 La Tijera Blvd, Los Angeles, CA 90045, USA",
	"lat": 33.9768124,
	"lng": -118.3732336,
	"zipcode": "90045",
	"city": "Los Angeles"
}, {
	"location": "Shore.com Offices",
	"address": "1433 6th St. Santa Monica, California 90401 310-710-6853",
	"formattedAddress": "1433 6th St, Santa Monica, CA 90401, USA",
	"lat": 34.0173804,
	"lng": -118.4922727,
	"zipcode": "90401",
	"city": "Santa Monica",
	"neighborhood": "Downtown"
}, {
	"location": "San Antonio Recreation Area",
	"address": "2091 New Pleyto Rd. Bradley, ",
	"formattedAddress": "2091 New Pleyto Rd, Bradley, CA 93426, USA",
	"lat": 35.9050156,
	"lng": -120.9839605,
	"zipcode": "93426",
	"city": "Bradley"
}, {
	"location": "The Other Door",
	"address": "10437 Burbank Blvd. Los Angeles, ",
	"formattedAddress": "10437 Burbank Blvd, North Hollywood, CA 91601, USA",
	"lat": 34.1724515,
	"lng": -118.3591396,
	"zipcode": "91601",
	"city": "Los Angeles",
	"neighborhood": "North Hollywood"
}, {
	"location": "The Love Song",
	"address": "450 S. Main St. Los Angeles, ",
	"formattedAddress": "450 S Main St, Los Angeles, CA 90013, USA",
	"lat": 34.0470379,
	"lng": -118.247999,
	"zipcode": "90013",
	"city": "Los Angeles",
	"neighborhood": "Downtown"
}, {
	"location": "The TAPPAN Atelier",
	"address": "1008 Maple Ave. Los Angeles, ",
	"formattedAddress": "1008 Maple Ave, Los Angeles, CA 90015, USA",
	"lat": 34.037774,
	"lng": -118.254117,
	"zipcode": "90015",
	"city": "Los Angeles",
	"neighborhood": "Central LA"
}, {
	"location": "Que Sera",
	"address": "1923 E. Seventh St. Long Beach, ",
	"formattedAddress": "1923 E 7th St, Long Beach, CA 90813, USA",
	"lat": 33.77560250000001,
	"lng": -118.168074,
	"zipcode": "90813",
	"city": "Long Beach",
	"neighborhood": "Hellman Street"
}, {
	"location": "Ari's Apartment",
	"address": "1706 N Stanley Ave Los Angeles, ",
	"formattedAddress": "1706 N Stanley Ave, Los Angeles, CA 90046, USA",
	"lat": 34.1019215,
	"lng": -118.356004,
	"zipcode": "90046",
	"city": "Los Angeles",
	"neighborhood": "Central LA"
}, {
	"location": "The Bowtie Project",
	"address": "2780 W. Casitas Ave. Los Angeles, ",
	"formattedAddress": "2780 Casitas Ave, Los Angeles, CA 90039, USA",
	"lat": 34.1108331,
	"lng": -118.2464104,
	"zipcode": "90039",
	"city": "Los Angeles",
	"neighborhood": "Northeast Los Angeles"
}, {
	"location": "Rancho Santa Susana Community Center & Park",
	"address": "5005 Los Angeles Ave. Simi Valley, ",
	"formattedAddress": "5005 E Los Angeles Ave, Simi Valley, CA 93063, USA",
	"lat": 34.273118,
	"lng": -118.6967147,
	"zipcode": "93063",
	"city": "Simi Valley"
}, {
	"location": "Topanga Community Club",
	"address": "1440 N. Topanga Canyon Blvd. Topanga, ",
	"formattedAddress": "1440 N Topanga Canyon Blvd, Topanga, CA 90290, USA",
	"lat": 34.1121718,
	"lng": -118.5898276,
	"zipcode": "90290",
	"city": "Topanga"
}, {
	"location": "Inglewood Amphitheatre",
	"address": "Edward Vincent Park 714 Warren Lane Inglewood, ",
	"formattedAddress": "Edward Vincent Jr Park, 700 Warren Ln, Inglewood, CA 90302, USA",
	"lat": 33.9734623,
	"lng": -118.3425422,
	"zipcode": "90302",
	"city": "Inglewood",
	"neighborhood": "South Los Angeles"
}, {
	"location": "Santa Monica Public Library, Main Branch",
	"address": "601 Santa Monica Blvd. Santa Monica, ",
	"formattedAddress": "601 Santa Monica Blvd, Santa Monica, CA 90401, USA",
	"lat": 34.0185305,
	"lng": -118.4933592,
	"zipcode": "90401",
	"city": "Santa Monica",
	"neighborhood": "Mid-City"
}, {
	"location": "Musco Center for the Arts, Chapman University",
	"address": "1 University Dr. Orange, ",
	"formattedAddress": "Donald P. Kennedy Hall, 1 University Dr, Orange, CA 92866, USA",
	"lat": 33.7928203,
	"lng": -117.8537167,
	"zipcode": "92866",
	"city": "Orange"
}, {
	"location": "Art Theatre of Long Beach",
	"address": "2025 E. Fourth St. Long Beach, ",
	"formattedAddress": "2025 E 4th St, Long Beach, CA 90814, USA",
	"lat": 33.77192369999999,
	"lng": -118.1669997,
	"zipcode": "90814",
	"city": "Long Beach",
	"neighborhood": "Eastside"
}, {
	"location": "Harvelle's Long Beach",
	"address": "201 E. Broadway Long Beach, ",
	"formattedAddress": "201 E Broadway, Long Beach, CA 90802, USA",
	"lat": 33.7694762,
	"lng": -118.1908325,
	"zipcode": "90802",
	"city": "Long Beach",
	"neighborhood": "Downtown"
}, {
	"location": "Clifton's Cafeteria",
	"address": "648 S. Broadway Los Angeles, ",
	"formattedAddress": "648 S Broadway, Los Angeles, CA 90014, USA",
	"lat": 34.0452841,
	"lng": -118.2528166,
	"zipcode": "90014",
	"city": "Los Angeles",
	"neighborhood": "Central LA"
}, {
	"location": "The Road on Magnolia",
	"address": "10747 Magnolia Blvd. Los Angeles, ",
	"formattedAddress": "10747 W Magnolia Blvd, Los Angeles, CA 91601, USA",
	"lat": 34.1656166,
	"lng": -118.3650552,
	"zipcode": "91601",
	"city": "Los Angeles",
	"neighborhood": "NoHo Arts District"
}, {
	"location": "Hinano Cafe",
	"address": "15 W. Washington Blvd. Marina Del Rey, ",
	"formattedAddress": "15 Washington Blvd, Marina Del Rey, CA 90292, USA",
	"lat": 33.979448,
	"lng": -118.4665257,
	"zipcode": "90292",
	"city": "Marina del Rey",
	"neighborhood": "Venice"
}, {
	"location": "Downtown Torrance",
	"address": "1317 Sartori Ave. Torrance, ",
	"formattedAddress": "1317 Sartori Ave, Torrance, CA 90501, USA",
	"lat": 33.8344908,
	"lng": -118.3155532,
	"zipcode": "90501",
	"city": "Torrance",
	"neighborhood": "Old Town Torrance"
}, {
	"location": "Defenders Park",
	"address": "corner of Orange Grove & Colorado blvds. Pasadena, ",
	"formattedAddress": "W Colorado Blvd & Orange Grove Blvd & N Orange Grove Blvd, Pasadena, CA 91103, USA",
	"lat": 34.1457805,
	"lng": -118.1606978,
	"zipcode": "91103",
	"city": "Pasadena",
	"neighborhood": "Northeast Los Angeles"
}, {
	"location": "Skylight Books",
	"address": "1818 N. Vermont Ave. Los Angeles, ",
	"formattedAddress": "1818 N Vermont Ave, Los Angeles, CA 90027, USA",
	"lat": 34.104216,
	"lng": -118.291488,
	"zipcode": "90027",
	"city": "Los Angeles",
	"neighborhood": "Central LA"
}, {
	"location": "WUHO Gallery",
	"address": "6518 Hollywood Boulevard Los Angeles ",
	"formattedAddress": "6518 Hollywood Blvd, Los Angeles, CA 90028, USA",
	"lat": 34.1013559,
	"lng": -118.3318064,
	"zipcode": "90028",
	"city": "Los Angeles",
	"neighborhood": "Hollywood"
}, {
	"location": "Warner Grand Theatre",
	"address": "478 West 6th Street San Pedro ",
	"formattedAddress": "478 W 6th St, San Pedro, CA 90731, USA",
	"lat": 33.739035,
	"lng": -118.2872852,
	"zipcode": "90731",
	"city": "Los Angeles",
	"neighborhood": "San Pedro"
}, {
	"location": "Downtown San Pedro",
	"address": "398 W. 6th Street San Pedro ",
	"formattedAddress": "398 W 6th St, San Pedro, CA 90731, USA",
	"lat": 33.7387602,
	"lng": -118.2857012,
	"zipcode": "90731",
	"city": "Los Angeles",
	"neighborhood": "San Pedro"
}, {
	"location": "Lombardi House",
	"address": "1717 N Bronson Avenue Los Angeles ",
	"formattedAddress": "1717 N Bronson Ave, Los Angeles, CA 90028, USA",
	"lat": 34.1022261,
	"lng": -118.3183167,
	"zipcode": "90028",
	"city": "Los Angeles",
	"neighborhood": "Central LA"
}, {
	"location": "Huntington Beach",
	"address": "21601 Pacific Coast Highway Huntington Beach ",
	"formattedAddress": "21601 Pacific Coast Hwy, Huntington Beach, CA 92646, USA",
	"lat": 33.6396761,
	"lng": -117.9743219,
	"zipcode": "92646",
	"city": "Huntington Beach"
}, {
	"location": "Bristow Branch Library",
	"address": "1466 S McDonnell Ave., Commerce, CA Commerce ",
	"formattedAddress": "Bristow Park, 1466 S McDonnell Ave, Commerce, CA 90040, USA",
	"lat": 34.0132874,
	"lng": -118.1684194,
	"zipcode": "90040",
	"city": "Commerce",
	"neighborhood": "South Montebello"
}, {
	"location": "The Underground Museum",
	"address": "3508 W Washington Blvd Jefferson ",
	"formattedAddress": "3508 W Washington Blvd, Los Angeles, CA 90018, USA",
	"lat": 34.0396861,
	"lng": -118.3229271,
	"zipcode": "90018",
	"city": "Los Angeles",
	"neighborhood": "Central LA"
}, {
	"location": "James Bridges Theater at UCLA's School of Theater, Film and Television",
	"address": "235 Charles E. Young Drive  ",
	"formattedAddress": "East Melnitz Hall, 235 Charles E Young Dr E, Los Angeles, CA 90024, USA",
	"lat": 34.0764274,
	"lng": -118.439368,
	"zipcode": "90024",
	"city": "Los Angeles",
	"neighborhood": "Westwood"
}, {
	"location": "Abbot Kinney Blvd.",
	"address": "Abbot Kinney Blvd. and California St. Los Angeles CA",
	"formattedAddress": "Abbot Kinney Blvd & California Ave, Venice, CA 90291, USA",
	"lat": 33.9906424,
	"lng": -118.4659828,
	"zipcode": "90291",
	"city": "Los Angeles",
	"neighborhood": "Venice"
}, {
	"location": "Central Park-Santa Clarita",
	"address": "27150 Bouquet Canyon Rd., Santa Clarita Santa Clarita ",
	"formattedAddress": "27150 Bouquet Canyon Rd, Santa Clarita, CA 91350, USA",
	"lat": 34.4355012,
	"lng": -118.5211895,
	"zipcode": "91350",
	"city": "Santa Clarita"
}, {
	"location": "First Fridays Long Beach Art Walk",
	"address": "4313 Atlantic Avenue Long Beach ",
	"formattedAddress": "4313 Atlantic Ave, Long Beach, CA 90807, USA",
	"lat": 33.8347837,
	"lng": -118.1852911,
	"zipcode": "90807",
	"city": "Long Beach",
	"neighborhood": "Bixby Knolls"
}, {
	"location": "CSU LA - Downtown LA",
	"address": "801 South Grand Avenue, 6th Floor, Los Angeles, CA Downtown ",
	"formattedAddress": "801 S Grand Ave, Los Angeles, CA 90017, USA",
	"lat": 34.0456769,
	"lng": -118.2585624,
	"zipcode": "90017",
	"city": "Los Angeles",
	"neighborhood": "Downtown"
}, {
	"location": "THE HOLDING CO.",
	"address": "104 ROBINSON ST Silver Lake ",
	"formattedAddress": "104 Robinson St, Los Angeles, CA 90026, USA",
	"lat": 34.07289110000001,
	"lng": -118.2836261,
	"zipcode": "90026",
	"city": "Los Angeles",
	"neighborhood": "Central LA"
}, {
	"location": "Big Sunday",
	"address": "6111 Melrose Avenue Los Angeles ",
	"formattedAddress": "6111 Melrose Ave, Los Angeles, CA 90038, USA",
	"lat": 34.0836658,
	"lng": -118.3335953,
	"zipcode": "90038",
	"city": "Los Angeles",
	"neighborhood": "Central LA"
}, {
	"location": "La Plaza de Cultura Y Artes",
	"address": "501 N Main St, Los Angeles, CA Downtown ",
	"formattedAddress": "501 N Main St, Los Angeles, CA 90012, USA",
	"lat": 34.0564554,
	"lng": -118.2398448,
	"zipcode": "90012",
	"city": "Los Angeles",
	"neighborhood": "Central LA"
}, {
	"location": "Dome Arclight Entertainment Center",
	"address": "6360 W. Sunset Blvd. Hollywood, CA  Hollywood ",
	"formattedAddress": "6360 Sunset Blvd, Los Angeles, CA 90028, USA",
	"lat": 34.0973718,
	"lng": -118.3278725,
	"zipcode": "90028",
	"city": "Los Angeles",
	"neighborhood": "Hollywood"
}, {
	"location": "John Anson Ford",
	"address": "2580 Cahuenga Blvd E Los Angeles CA",
	"formattedAddress": "2580 Cahuenga Blvd E, Los Angeles, CA 90068, USA",
	"lat": 34.1140558,
	"lng": -118.3343777,
	"zipcode": "90068",
	"city": "Los Angeles",
	"neighborhood": "Central LA"
}, {
	"location": "St Matthews Episcopal Church",
	"address": "1031 Bienveneda Avenue Pacific Palisades ",
	"formattedAddress": "1031 Bienveneda Ave, Pacific Palisades, CA 90272, USA",
	"lat": 34.0540215,
	"lng": -118.5421364,
	"zipcode": "90272",
	"city": "Los Angeles",
	"neighborhood": "Pacific Palisades"
}, {
	"location": "Diavolo Space",
	"address": "616 Moulton Ave Lincoln Heights ",
	"formattedAddress": "616 Moulton Ave, Los Angeles, CA 90031, USA",
	"lat": 34.0649875,
	"lng": -118.2191349,
	"zipcode": "90031",
	"city": "Los Angeles",
	"neighborhood": "Central LA"
}, {
	"location": "ArcLight Cinemas Hollywood",
	"address": "6360 W. Sunset Blvd Los Angeles ",
	"formattedAddress": "6360 Sunset Blvd, Los Angeles, CA 90028, USA",
	"lat": 34.0973718,
	"lng": -118.3278725,
	"zipcode": "90028",
	"city": "Los Angeles",
	"neighborhood": "Hollywood"
}, {
	"location": "Catalina Bar Grill",
	"address": "Hollywood ",
	"formattedAddress": "Hollywood, Los Angeles, CA, USA",
	"lat": 34.0928092,
	"lng": -118.3286614,
	"city": "Los Angeles",
	"neighborhood": "Hollywood"
}, {
	"location": "Oh My Ribs! Entertainment",
	"address": "6468 Santa Monica Boulevard Los Angeles ",
	"formattedAddress": "6468 Santa Monica Blvd, Los Angeles, CA 90038, USA",
	"lat": 34.0904637,
	"lng": -118.3306175,
	"zipcode": "90038",
	"city": "Los Angeles",
	"neighborhood": "Hollywood"
}, {
	"location": "Nexus Social Lounge",
	"address": "511 East 4th Street Los Angeles, CA  Little Tokyo ",
	"formattedAddress": "511 E 4th St, Los Angeles, CA 90013, USA",
	"lat": 34.044857,
	"lng": -118.240914,
	"zipcode": "90013",
	"city": "Los Angeles",
	"neighborhood": "Central LA"
}, {
	"location": "The Ebell of Los Angeles",
	"address": "4401 W 8th St Mid-Wilshire ",
	"formattedAddress": "4401 W 8th St, Los Angeles, CA 90005, USA",
	"lat": 34.0609082,
	"lng": -118.3250733,
	"zipcode": "90005",
	"city": "Los Angeles",
	"neighborhood": "Central LA"
}, {
	"location": "Earth 2 (Northridge Store Location)",
	"address": "8967 Reseda Blvd. Northridge ",
	"formattedAddress": "8967 Reseda Blvd, Northridge, CA 91324, USA",
	"lat": 34.2336885,
	"lng": -118.5364061,
	"zipcode": "91324",
	"city": "Los Angeles",
	"neighborhood": "Northridge"
}, {
	"location": "The Geffen Contemporary at MOCA",
	"address": "152 North Central Avenue Los Angeles, CA  Downtown ",
	"formattedAddress": "152 N Central Ave, Los Angeles, CA 90012, USA",
	"lat": 34.049694,
	"lng": -118.2390978,
	"zipcode": "90012",
	"city": "Los Angeles",
	"neighborhood": "Central LA"
}, {
	"location": "Venice Skills Center",
	"address": "611 5th Avenue Venice ",
	"formattedAddress": "611 5th Ave, Venice, CA 90291, USA",
	"lat": 33.9959111,
	"lng": -118.4727468,
	"zipcode": "90291",
	"city": "Los Angeles",
	"neighborhood": "Venice"
}, {
	"location": "Regent Theater",
	"address": "1045 Broxton Ave Los Angeles, CA   ",
	"formattedAddress": "1045 Broxton Ave, Los Angeles, CA 90024, USA",
	"lat": 34.0615563,
	"lng": -118.4466812,
	"zipcode": "90024",
	"city": "Los Angeles",
	"neighborhood": "Westwood"
}, {
	"location": "Mission & Meridian",
	"address": "1121 Mission St South Pasadena, CA South Pasadena ",
	"formattedAddress": "1121 Mission St, South Pasadena, CA 91030, USA",
	"lat": 34.1155496,
	"lng": -118.1542097,
	"zipcode": "91030",
	"city": "South Pasadena"
}, {
	"location": "Royce Hall",
	"address": "340 Royce Drive Los Angeles ",
	"formattedAddress": "340 Royce Dr, Los Angeles, CA 90095, USA",
	"lat": 34.0728242,
	"lng": -118.4421682,
	"zipcode": "90095",
	"city": "Los Angeles",
	"neighborhood": "Westwood"
}, {
	"location": "General Assembly",
	"address": "1520 2nd Street, Santa Monica, CA   ",
	"formattedAddress": "1520 2nd St, Santa Monica, CA 90401, USA",
	"lat": 34.0129821,
	"lng": -118.495196,
	"zipcode": "90401",
	"city": "Santa Monica"
}, {
	"location": "Chino Airport",
	"address": "7000 Merrill Ave #17 Chino, CA Chino ",
	"formattedAddress": "7000 Merrill Ave #17, Chino, CA 91710, USA",
	"lat": 33.9814626,
	"lng": -117.6397278,
	"zipcode": "91710",
	"city": "Chino"
}, {
	"location": "Santa Monica Bay Woman's Club",
	"address": "1210 4th St., Santa Monica CA  ",
	"formattedAddress": "1210 4th St, Santa Monica, CA 90401, USA",
	"lat": 34.0186332,
	"lng": -118.4980129,
	"zipcode": "90401",
	"city": "Santa Monica",
	"neighborhood": "Downtown"
}, {
	"location": "The ARTree Community Arts Center",
	"address": "22508 6th St. Santa Clarita ",
	"formattedAddress": "22508 6th St, Santa Clarita, CA 91321, USA",
	"lat": 34.37763,
	"lng": -118.5262992,
	"zipcode": "91321",
	"city": "Santa Clarita",
	"neighborhood": "Newhall"
}, {
	"location": "Will Rogers Polo Club",
	"address": "1501 Will Rogers State Park Rd, Pacific Palisades, CA  Pacific Palisades ",
	"formattedAddress": "Will Rogers State Historic Park, Santa Monica Mountains National Recreation Area, 1501 Will Rogers State Park Rd, Pacific Palisades, CA 90272, USA",
	"lat": 34.054979,
	"lng": -118.5125616,
	"zipcode": "90272",
	"city": "Los Angeles",
	"neighborhood": "Pacific Palisades"
}, {
	"location": "Del Frisco's Grille Santa Monica",
	"address": "1551 Ocean Ave. Santa Monica ",
	"formattedAddress": "1551 Ocean Ave, Santa Monica, CA 90401, USA",
	"lat": 34.011737,
	"lng": -118.4949087,
	"zipcode": "90401",
	"city": "Santa Monica"
}, {
	"location": "W Hollywood Hotel",
	"address": "6250 Hollywood Blvd Los Angeles ",
	"formattedAddress": "6250 Hollywood Blvd, Los Angeles, CA 90028, USA",
	"lat": 34.1009777,
	"lng": -118.3259236,
	"zipcode": "90028",
	"city": "Los Angeles",
	"neighborhood": "Hollywood"
}, {
	"location": "Earth 2 (Sherman Oaks Store)",
	"address": "15017 Ventura Blvd Sherman Oaks ",
	"formattedAddress": "15017 Ventura Blvd, Sherman Oaks, CA 91403, USA",
	"lat": 34.1530896,
	"lng": -118.4602746,
	"zipcode": "91403",
	"city": "Los Angeles",
	"neighborhood": "Sherman Oaks"
}, {
	"location": "Ramo Auditorium",
	"address": "1200 E California Blvd PASADENA ",
	"formattedAddress": "1200 E California Blvd, Pasadena, CA 91125, USA",
	"lat": 34.1356666,
	"lng": -118.12724,
	"zipcode": "91125",
	"city": "Pasadena"
}, {
	"location": "Compton Library",
	"address": "240 W. Compton Blvd., Compton, CA  Compton ",
	"formattedAddress": "240 W Compton Blvd, Compton, CA 90220, USA",
	"lat": 33.89551429999999,
	"lng": -118.2258158,
	"zipcode": "90220",
	"city": "Compton"
}, {
	"location": "The Line Hotel LA",
	"address": "3315 Wilshire Blvd.  Mid-Wilshire ",
	"formattedAddress": "3315 Wilshire Blvd, Los Angeles, CA 90010, USA",
	"lat": 34.0617674,
	"lng": -118.2947263,
	"zipcode": "90010",
	"city": "Los Angeles",
	"neighborhood": "Central LA"
}, {
	"location": "Durden and Ray",
	"address": "1923 S. Santa Fe Ave. Los Angeles, CA Downtown ",
	"formattedAddress": "1923 S Santa Fe Ave, Los Angeles, CA 90021, USA",
	"lat": 34.0223484,
	"lng": -118.2304801,
	"zipcode": "90021",
	"city": "Los Angeles",
	"neighborhood": "Boyle Heights"
}, {
	"location": "Fred Kavli Theatre-Thousand Oaks Civic Arts",
	"address": "Thousand Oaks ",
	"formattedAddress": "Thousand Oaks, CA, USA",
	"lat": 34.1705609,
	"lng": -118.8375937,
	"city": "Thousand Oaks"
}, {
	"location": "Fabien Castanier Gallery",
	"address": "2919 La Cienega Blvd. Culver City ",
	"formattedAddress": "2919 La Cienega Blvd, Culver City, CA 90232, USA",
	"lat": 34.0320663,
	"lng": -118.3736356,
	"zipcode": "90232",
	"city": "Culver City",
	"neighborhood": "McManus"
}, {
	"location": "McGroarty Arts Center",
	"address": "7570 McGroarty Terrace, Tujunga, CA Tujunga ",
	"formattedAddress": "7570 McGroarty Terrace, Tujunga, CA 91042, USA",
	"lat": 34.2498652,
	"lng": -118.2977024,
	"zipcode": "91042",
	"city": "Los Angeles",
	"neighborhood": "Tujunga"
}, {
	"location": "3 LABS",
	"address": "8461 Warner Drive  Culver City ",
	"formattedAddress": "8461 Warner Dr, Culver City, CA 90232, USA",
	"lat": 34.0236083,
	"lng": -118.3792257,
	"zipcode": "90232",
	"city": "Culver City",
	"neighborhood": "Lucerne - Higuera"
}, {
	"location": "Arcadia Performing Arts Center",
	"address": "188 Campus Drive Arcadia ",
	"formattedAddress": "188 Campus Dr, Arcadia, CA 91007, USA",
	"lat": 34.130465,
	"lng": -118.0403503,
	"zipcode": "91007",
	"city": "Arcadia"
}, {
	"location": "This event is in a private house,the exactly location of the dinner will be given to you only after the purchase of tickets.",
	"address": "Magnolia Blvd Sherman Oaks ",
	"formattedAddress": "W Magnolia Blvd, Sherman Oaks, CA, USA",
	"lat": 34.1648699,
	"lng": -118.441012,
	"city": "Los Angeles",
	"neighborhood": "Sherman Oaks"
}, {
	"location": "5 Towers at Universal CityWalk",
	"address": "100 Universal City Plaza Universal City ",
	"formattedAddress": "100 Universal City Plaza, North Hollywood, CA 91602, USA",
	"lat": 34.1361918,
	"lng": -118.3520161,
	"zipcode": "91602",
	"city": "Universal City",
	"neighborhood": "North Hollywood"
}, {
	"location": "Orpheum Theater",
	"address": "842 S Broadway Los Angeles ",
	"formattedAddress": "842 S Broadway, Los Angeles, CA 90014, USA",
	"lat": 34.0426926,
	"lng": -118.2552867,
	"zipcode": "90014",
	"city": "Los Angeles",
	"neighborhood": "Central LA"
}, {
	"location": "ARC Pasadena",
	"address": "1158 East Colorado Blvd. Pasadena ",
	"formattedAddress": "1158 E Colorado Blvd, Pasadena, CA 91106, USA",
	"lat": 34.1456653,
	"lng": -118.1265221,
	"zipcode": "91106",
	"city": "Pasadena"
}, {
	"location": "Downtown Artist Loft",
	"address": "606 Moulton Avenue Lincoln Heights ",
	"formattedAddress": "606 Moulton Ave, Los Angeles, CA 90031, USA",
	"lat": 34.0654031,
	"lng": -118.2179257,
	"zipcode": "90031",
	"city": "Los Angeles",
	"neighborhood": "Central LA"
}, {
	"location": "Luckman Fine Arts Complex at Cal State L.A.",
	"address": "5151 State University Drive Los Angeles ",
	"formattedAddress": "Hertzberg-Davis Forensic Science Center, 5151 State University Dr, Los Angeles, CA 90032, USA",
	"lat": 34.0620391,
	"lng": -118.1736587,
	"zipcode": "90032",
	"city": "Los Angeles"
}, {
	"location": "Culver City Veterans Memorial Auditorium",
	"address": "4117 Overland Ave. Culver City ",
	"formattedAddress": "4117 Overland Ave, Culver City, CA 90230, USA",
	"lat": 34.012953,
	"lng": -118.4026083,
	"zipcode": "90230",
	"city": "Culver City",
	"neighborhood": "Park West"
}, {
	"location": "Acting Studio at Edgemar Center for the Arts",
	"address": "2437 Main St Santa Monica CA",
	"formattedAddress": "2437 Main St, Santa Monica, CA 90405, USA",
	"lat": 34.0035616,
	"lng": -118.4847408,
	"zipcode": "90405",
	"city": "Santa Monica",
	"neighborhood": "Ocean Park"
}, {
	"location": "Franklin D. Murphy Sculpture Garden",
	"address": "Charles E. Young Drive E. Los Angeles, CA  ",
	"formattedAddress": "Charles E Young Dr E, Los Angeles, CA, USA",
	"lat": 34.0722439,
	"lng": -118.4396358,
	"city": "Los Angeles",
	"neighborhood": "Westwood"
}, {
	"location": "Rose Bowl Stadium",
	"address": "1001 Rose Bowl Drive  ",
	"formattedAddress": "1001 Rose Bowl Dr, Pasadena, CA 91103, USA",
	"lat": 34.1606364,
	"lng": -118.1674865,
	"zipcode": "91103",
	"city": "Pasadena",
	"neighborhood": "North Arroyo"
}, {
	"location": "Santa Clarita",
	"address": "24201 Valencia Blvd., Valencia, CA  Valencia ",
	"formattedAddress": "24201 West Valencia Blvd, Valencia, CA 91355, United States",
	"lat": 34.4158106,
	"lng": -118.5580874,
	"zipcode": "91355",
	"neighborhood": "Valencia"
}, {
	"location": "LA Convention Center",
	"address": "1201 South Figueroa Street Los Angeles ",
	"formattedAddress": "1201 S Figueroa St, Los Angeles, CA 90015, USA",
	"lat": 34.0413606,
	"lng": -118.2697771,
	"zipcode": "90015",
	"city": "Los Angeles",
	"neighborhood": "Downtown"
}, {
	"location": "BOCA Dharma Seal Temple",
	"address": "3027 Del Mar Ave. Rosemead ",
	"formattedAddress": "3027 Del Mar Ave, Rosemead, CA 91770, USA",
	"lat": 34.0636986,
	"lng": -118.0997955,
	"zipcode": "91770",
	"city": "Rosemead",
	"neighborhood": "Garvey"
}, {
	"location": "The Home of Lynn & Les Bider",
	"address": "1017 N. Roxbury Drive, Beverly Hills, CA  ",
	"formattedAddress": "1017 N Roxbury Dr, Beverly Hills, CA 90210, USA",
	"lat": 34.0825211,
	"lng": -118.4222163,
	"zipcode": "90210",
	"city": "Beverly Hills",
	"neighborhood": "The Flats"
}, {
	"location": "Rancho Park",
	"address": "2459 Motor Avenue West Los Angeles ",
	"formattedAddress": "2459 Motor Ave, Los Angeles, CA 90064, USA",
	"lat": 34.0484176,
	"lng": -118.4094817,
	"zipcode": "90064",
	"city": "Los Angeles",
	"neighborhood": "Cheviot Hills"
}, {
	"location": "Tagalog Kids Main Office",
	"address": "626 Milan Ave,South Pasadena,CA South Pasadena ",
	"formattedAddress": "626 Milan Ave, South Pasadena, CA 91030, USA",
	"lat": 34.117902,
	"lng": -118.14383,
	"zipcode": "91030",
	"city": "South Pasadena"
}, {
	"location": "Quest Learning Center",
	"address": "11976 Artesia Blvd., Artesia, CA Cerritos ",
	"formattedAddress": "11976 Artesia Blvd, Artesia, CA 90701, USA",
	"lat": 33.8727865,
	"lng": -118.0771803,
	"zipcode": "90701",
	"city": "Artesia"
}, {
	"location": "Carpenter Performing Arts Center",
	"address": "6200 Atherton Long Beach ",
	"formattedAddress": "Richard and Karen Carpenter Performing Arts Center, 6200 E Atherton St, Long Beach, CA 90815, USA",
	"lat": 33.7883359,
	"lng": -118.1126195,
	"zipcode": "90815",
	"city": "Long Beach"
}, {
	"location": "Carpenter Peforming Arts Center",
	"address": "6200 Atherton Street Long Beach ",
	"formattedAddress": "Richard and Karen Carpenter Performing Arts Center, 6200 E Atherton St, Long Beach, CA 90815, USA",
	"lat": 33.7883359,
	"lng": -118.1126195,
	"zipcode": "90815",
	"city": "Long Beach"
}, {
	"location": "Tailwaggers Hollywood",
	"address": "1629 N Bronson Ave Los Angeles ",
	"formattedAddress": "1629 N Bronson Ave, Los Angeles, CA 90028, USA",
	"lat": 34.1002655,
	"lng": -118.3179862,
	"zipcode": "90028",
	"city": "Los Angeles",
	"neighborhood": "Central LA"
}, {
	"location": "Son of a Gun",
	"address": "4067 W. Pico Blvd. Los Angeles ",
	"formattedAddress": "4067 W Pico Blvd, Los Angeles, CA 90019, USA",
	"lat": 34.047775,
	"lng": -118.3241134,
	"zipcode": "90019",
	"city": "Los Angeles",
	"neighborhood": "Mid City"
}, {
	"location": "Whittier Narrows Golf Course",
	"address": "8640 Rush Street, Rosemead, CA Rosemead ",
	"formattedAddress": "8640 Rush St, Rosemead, CA 91770, USA",
	"lat": 34.050348,
	"lng": -118.07642,
	"zipcode": "91770",
	"city": "Rosemead",
	"neighborhood": "Garvey"
}, {
	"location": "Sotto",
	"address": "111 N Los Robles Ave. Pasadena CA",
	"formattedAddress": "111 N Los Robles Ave, Pasadena, CA 91101, USA",
	"lat": 34.1474456,
	"lng": -118.1421443,
	"zipcode": "91101",
	"city": "Pasadena"
}, {
	"location": "Autry National Center",
	"address": "4700 Western Heritage Way Los Angeles ",
	"formattedAddress": "4700 Western Heritage Way, Los Angeles, CA 90027, USA",
	"lat": 34.1486203,
	"lng": -118.2812131,
	"zipcode": "90027",
	"city": "Los Angeles"
}, {
	"location": "Paley Center for Media",
	"address": "465 N. Beverly Drive Beverly Hills ",
	"formattedAddress": "465 N Beverly Dr, Beverly Hills, CA 90210, USA",
	"lat": 34.0708996,
	"lng": -118.4033802,
	"zipcode": "90210",
	"city": "Beverly Hills"
}, {
	"location": "Long Beach Convention and Entertainment Center",
	"address": "300 E Ocean Blvd Long Beach ",
	"formattedAddress": "300 E Ocean Blvd, Long Beach, CA 90802, USA",
	"lat": 33.76520350000001,
	"lng": -118.1893341,
	"zipcode": "90802",
	"city": "Long Beach",
	"neighborhood": "Waterfront"
}, {
	"location": "Goethe-Institut Los Angeles",
	"address": "5750 Wilshire Blvd. Suite 100 Los Angeles ",
	"formattedAddress": "5750 Wilshire Blvd #100, Los Angeles, CA 90036, USA",
	"lat": 34.0615968,
	"lng": -118.3547725,
	"zipcode": "90036",
	"city": "Los Angeles",
	"neighborhood": "Central LA"
}, {
	"location": "Conejo Creek Park South",
	"address": "1300 E Janss Rd, Thousand Oaks Westlake Village ",
	"formattedAddress": "Janss Rd, Westlake Village, CA 91361, USA",
	"lat": 34.1428711,
	"lng": -118.8780594,
	"zipcode": "91361",
	"city": "Westlake Village"
}, {
	"location": "The Broad Stage",
	"address": "1310 11th St., Santa Monica, CA  ",
	"formattedAddress": "1310 11th St, Santa Monica, CA 90401, USA",
	"lat": 34.022176,
	"lng": -118.4898567,
	"zipcode": "90401",
	"city": "Santa Monica",
	"neighborhood": "Downtown"
}, {
	"location": "Atwater Village Theater",
	"address": "3269 Casitas Ave. Los Angeles ",
	"formattedAddress": "3269 Casitas Ave, Los Angeles, CA 90039, USA",
	"lat": 34.1164165,
	"lng": -118.2518773,
	"zipcode": "90039",
	"city": "Los Angeles",
	"neighborhood": "Northeast Los Angeles"
}, {
	"location": "Hermosa Beach Pier",
	"address": "Pier Ave. and Hermosa Ave. Hermosa Beach CA",
	"formattedAddress": "Hermosa Ave & Pier Ave, Hermosa Beach, CA 90254, USA",
	"lat": 33.8622063,
	"lng": -118.3999372,
	"zipcode": "90254",
	"city": "Hermosa Beach"
}, {
	"location": "cairo",
	"address": "Opera Land&#x60C; EL GEZIRAH&#x60C; Zamalek, Cairo Governorate egypt CA 11568"
}, {
	"location": "The Lombardi House",
	"address": "1717 North Bronson Avenue Los Angeles ",
	"formattedAddress": "1717 N Bronson Ave, Los Angeles, CA 90028, USA",
	"lat": 34.1022261,
	"lng": -118.3183167,
	"zipcode": "90028",
	"city": "Los Angeles",
	"neighborhood": "Central LA"
}, {
	"location": "General Assembly LA",
	"address": "360 E. 2nd Street, Suite 400  Downtown ",
	"formattedAddress": "360 SE 2nd St #400, Topeka, KS 66607, USA",
	"lat": 39.0562387,
	"lng": -95.6668244,
	"zipcode": "66607",
	"city": "Topeka",
	"neighborhood": "Downtown"
}, {
	"location": "Equinox",
	"address": "9601 Wilshire Blvd  ",
	"formattedAddress": "9601 Wilshire Blvd, Beverly Hills, CA 90210, USA",
	"lat": 34.0674084,
	"lng": -118.4033688,
	"zipcode": "90210",
	"city": "Beverly Hills"
}, {
	"location": "Barnsdall Gallery Theatre",
	"address": "4800 Hollywood Blvd.,&#xA0;Los Angeles, CA  Los Feliz ",
	"formattedAddress": "4800 Hollywood Blvd, Los Angeles, CA 90027, USA",
	"lat": 34.1017863,
	"lng": -118.294536,
	"zipcode": "90027",
	"city": "Los Angeles",
	"neighborhood": "Little Armenia"
}, {
	"location": "CCLCF",
	"address": "4469 Chevy Chase Dr.  La Canada ",
	"formattedAddress": "4469 Chevy Chase Dr, La Cañada Flintridge, CA 91011, USA",
	"lat": 34.2041598,
	"lng": -118.2014764,
	"zipcode": "91011",
	"city": "La Cañada Flintridge"
}, {
	"location": "Vibiana",
	"address": "214 S Main St Los Angeles ",
	"formattedAddress": "214 S Main St, Los Angeles, CA 90012, USA",
	"lat": 34.0504491,
	"lng": -118.2444335,
	"zipcode": "90012",
	"city": "Los Angeles",
	"neighborhood": "Downtown"
}, {
	"location": "The Downtown Independent",
	"address": "251 S Main St, Los Angeles, CA  Downtown ",
	"formattedAddress": "251 S Main St, Los Angeles, CA 90012, USA",
	"lat": 34.050286,
	"lng": -118.245687,
	"zipcode": "90012",
	"city": "Los Angeles",
	"neighborhood": "Downtown"
}, {
	"location": "Downey Civic Theater",
	"address": "8435 Firestone Blvd. Downey ",
	"formattedAddress": "8435 Firestone Blvd, Downey, CA 90241, USA",
	"lat": 33.9391497,
	"lng": -118.1296209,
	"zipcode": "90241",
	"city": "Downey"
}, {
	"location": "First Church of the Nazarene \"PazNaz\"",
	"address": "3700 East Sierra Madre Blvd., Pasadena  ",
	"formattedAddress": "3700 E Sierra Madre Blvd, Pasadena, CA 91107, USA",
	"lat": 34.1609763,
	"lng": -118.0739988,
	"zipcode": "91107",
	"city": "Pasadena",
	"neighborhood": "Hastings Ranch"
}, {
	"location": "Valencia Heritage Park",
	"address": "24155 Newhall Ranch Road, Valencia, CA Santa Clarita ",
	"formattedAddress": "24155 Newhall Ranch Rd, Santa Clarita, CA 91354, USA",
	"lat": 34.4334962,
	"lng": -118.5594535,
	"zipcode": "91354",
	"city": "Santa Clarita"
}, {
	"location": "Otis College of Art and Design",
	"address": "9045 Lincoln Boulevard, Los Angeles, CA Westchester ",
	"formattedAddress": "9045 Lincoln Blvd, Los Angeles, CA 90045, USA",
	"lat": 33.9569797,
	"lng": -118.4165222,
	"zipcode": "90045",
	"city": "Los Angeles"
}, {
	"location": "Moorpark Park",
	"address": "12061 Moorpark Street, Studio City, CA Studio City ",
	"formattedAddress": "12061 Moorpark St, Studio City, CA 91604, USA",
	"lat": 34.1503722,
	"lng": -118.3959506,
	"zipcode": "91604",
	"city": "Los Angeles",
	"neighborhood": "Studio City"
}, {
	"location": "California State Historical Park",
	"address": "1245 North Spring St. Los Angeles, CA Downtown ",
	"formattedAddress": "1245 N Spring St, Los Angeles, CA 90012, USA",
	"lat": 34.0661743,
	"lng": -118.2342881,
	"zipcode": "90012",
	"city": "Los Angeles",
	"neighborhood": "Central LA"
}, {
	"location": "LA County Arboretum and Botanic Garden",
	"address": "301 North Baldwin Avenue Arcadia ",
	"formattedAddress": "301 N Baldwin Ave, Arcadia, CA 91007, USA",
	"lat": 34.1448279,
	"lng": -118.0508813,
	"zipcode": "91007",
	"city": "Arcadia"
}, {
	"location": "Castaic Lake State Recreation Area",
	"address": "32132 Castaic Lake Dr Castaic ",
	"formattedAddress": "Castaic Lake Recreation Area - Park Headquarters, 32132 Castaic Lake Dr, Castaic, CA 91384, USA",
	"lat": 34.504579,
	"lng": -118.6151139,
	"zipcode": "91384",
	"city": "Castaic"
}, {
	"location": "Grand Hope Park",
	"address": "919 Grand Ave Los Angeles ",
	"formattedAddress": "919 S Grand Ave, Los Angeles, CA 90015, USA",
	"lat": 34.0441931,
	"lng": -118.2600172,
	"zipcode": "90015",
	"city": "Los Angeles",
	"neighborhood": "Downtown"
}, {
	"location": "Loyola Marymount University",
	"address": "1 Loyola Marymount University Dr, Los Angeles, CA45 Westchester ",
	"formattedAddress": "1 Loyola Marymount University Dr, Los Angeles, CA 90045, USA",
	"lat": 33.9708101,
	"lng": -118.4193224,
	"zipcode": "90045",
	"city": "Los Angeles",
	"neighborhood": "Westchester"
}, {
	"location": "California Market Center (The CMC) - Penthouse Floor",
	"address": "110 East Ninth Street Los Angeles CA",
	"formattedAddress": "110 E 9th St, Los Angeles, CA 90079, USA",
	"lat": 34.0404559,
	"lng": -118.2553945,
	"zipcode": "90079",
	"city": "Los Angeles",
	"neighborhood": "Central LA"
}, {
	"location": "Watson Adventures Meet-Up Location",
	"address": "Near Union Street Station Downtown ",
	"formattedAddress": "Union St, Lake Station, IN 46405, USA",
	"lat": 41.5745021,
	"lng": -87.23158939999999,
	"zipcode": "46405",
	"city": "Lake Station"
}, {
	"location": "Long Beach Arena",
	"address": "300 E. Ocean Blvd. Long Beach ",
	"formattedAddress": "300 E Ocean Blvd, Long Beach, CA 90802, USA",
	"lat": 33.76520350000001,
	"lng": -118.1893341,
	"zipcode": "90802",
	"city": "Long Beach",
	"neighborhood": "Waterfront"
}, {
	"location": "2306 Midvale Avenue",
	"address": "2306 Midvale Avenue West Los Angeles ",
	"formattedAddress": "2306 Midvale Ave, Los Angeles, CA 90064, USA",
	"lat": 34.0417679,
	"lng": -118.4308992,
	"zipcode": "90064",
	"city": "Los Angeles",
	"neighborhood": "West Los Angeles"
}, {
	"location": "As We Dwell",
	"address": "1131 E. 5th Street, Los Angeles CA  Little Tokyo ",
	"formattedAddress": "1131 E 5th St, Los Angeles, CA 90013, USA",
	"lat": 34.0416912,
	"lng": -118.2367751,
	"zipcode": "90013",
	"city": "Los Angeles",
	"neighborhood": "Central LA"
}, {
	"location": "Macy's Santa Anita",
	"address": "400 S. Baldwin Ave., Arcadia, CA Arcadia ",
	"formattedAddress": "400 S Baldwin Ave, Arcadia, CA 91007, USA",
	"lat": 34.1349204,
	"lng": -118.0509968,
	"zipcode": "91007",
	"city": "Arcadia"
}, {
	"location": "1150 S. Olive",
	"address": "1150 S. Olive St, Los Angeles ",
	"formattedAddress": "At&t Center, 1150 S Olive St, Los Angeles, CA 90015, USA",
	"lat": 34.0395199,
	"lng": -118.2617072,
	"zipcode": "90015",
	"city": "Los Angeles",
	"neighborhood": "Central LA"
}, {
	"location": "The Dome Arclight Entertainment Center",
	"address": "6360 W. Sunset Blvd. Hollywood, CA Hollywood ",
	"formattedAddress": "6360 Sunset Blvd, Los Angeles, CA 90028, USA",
	"lat": 34.0973718,
	"lng": -118.3278725,
	"zipcode": "90028",
	"city": "Los Angeles",
	"neighborhood": "Hollywood"
}, {
	"location": "Bruce Lurie Gallery",
	"address": "2736 S La Cienega Blvd Palms ",
	"formattedAddress": "2736 S La Cienega Blvd, Los Angeles, CA 90034, USA",
	"lat": 34.033528,
	"lng": -118.3754707,
	"zipcode": "90034",
	"city": "Los Angeles",
	"neighborhood": "Art District"
}, {
	"location": "Descanso Gardens",
	"address": "1418 Descanso Drive La Ca&#xF1;ada Flintridge ",
	"formattedAddress": "1418 Descanso Dr, La Cañada Flintridge, CA 91011, USA",
	"lat": 34.2013877,
	"lng": -118.2101229,
	"zipcode": "91011",
	"city": "La Cañada Flintridge"
}, {
	"location": "Future Studio Gallery",
	"address": "5558 N. Figueroa St. Highland Park ",
	"formattedAddress": "5558 N Figueroa St, Los Angeles, CA 90042, USA",
	"lat": 34.1085305,
	"lng": -118.1943164,
	"zipcode": "90042",
	"city": "Los Angeles",
	"neighborhood": "Northeast Los Angeles"
}, {
	"location": "Agoura Hills/Calabasas Community Center",
	"address": "27040 Malibu Hills Road Calabasas ",
	"formattedAddress": "27040 Malibu Hills Rd, Agoura Hills, CA 91301, USA",
	"lat": 34.1361783,
	"lng": -118.7130797,
	"zipcode": "91301",
	"city": "Agoura Hills"
}, {
	"location": "Grub",
	"address": "911 N. Seward Street Los Angeles, CA  Hollywood ",
	"formattedAddress": "911 Seward St, Los Angeles, CA 90038, USA",
	"lat": 34.0875831,
	"lng": -118.3333345,
	"zipcode": "90038",
	"city": "Los Angeles",
	"neighborhood": "Central LA"
}, {
	"location": "Hornblower ticket booth at Fisherman’s Village",
	"address": "13755 Fiji Way Marina del Rey ",
	"formattedAddress": "13755 Fiji Way, Marina Del Rey, CA 90292, USA",
	"lat": 33.9725614,
	"lng": -118.4462468,
	"zipcode": "90292",
	"city": "Marina del Rey"
}, {
	"location": "Ray's and Stark Bar",
	"address": "5905 WILSHIRE BLVD  Los Angeles CA",
	"formattedAddress": "5905 Wilshire Blvd, Los Angeles, CA 90036, USA",
	"lat": 34.0637913,
	"lng": -118.3588851,
	"zipcode": "90036",
	"city": "Los Angeles",
	"neighborhood": "Central LA"
}, {
	"location": "Kendall’s Brasserie",
	"address": "135 N. Grand Ave. Los Angeles CA",
	"formattedAddress": "135 N Grand Ave, Los Angeles, CA 90012, USA",
	"lat": 34.0566067,
	"lng": -118.2489325,
	"zipcode": "90012",
	"city": "Los Angeles",
	"neighborhood": "Central LA"
}, {
	"location": "Cafe Pinot",
	"address": "700 W. 5th St. Los Angeles ",
	"formattedAddress": "700 W 5th St, Los Angeles, CA 90071, USA",
	"lat": 34.0510466,
	"lng": -118.2557431,
	"zipcode": "90071",
	"city": "Los Angeles",
	"neighborhood": "Central LA"
}, {
	"location": "Millennium Biltmore",
	"address": "506 South Grand Avenue Los Angeles ",
	"formattedAddress": "506 S Grand Ave, Los Angeles, CA 90071, USA",
	"lat": 34.0498012,
	"lng": -118.2539457,
	"zipcode": "90071",
	"city": "Los Angeles",
	"neighborhood": "Downtown"
}, {
	"location": "Boxwood at The London",
	"address": "1020 N. San Vicente Blvd. West Hollywood, CA   ",
	"formattedAddress": "1020 N San Vicente Blvd, West Hollywood, CA 90069, USA",
	"lat": 34.08966789999999,
	"lng": -118.385005,
	"zipcode": "90069",
	"city": "West Hollywood",
	"neighborhood": "Central LA"
}, {
	"location": "Patina Restaurant",
	"address": "141 SOUTH GRAND AVE. Los Angeles CA",
	"formattedAddress": "141 S Grand Ave, Los Angeles, CA 90012, USA",
	"lat": 34.0551881,
	"lng": -118.2491527,
	"zipcode": "90012",
	"city": "Los Angeles",
	"neighborhood": "Downtown"
}, {
	"location": "Farm Sanctuary",
	"address": "5200 Escondido Canyon Road Acton, CA  Acton ",
	"formattedAddress": "5200 Escondido Canyon Rd, Acton, CA 93510, USA",
	"lat": 34.4954824,
	"lng": -118.2223679,
	"zipcode": "93510",
	"city": "Acton"
}, {
	"location": "Nick & Stef's Steakhouse",
	"address": "30 SOUTH HOPE ST.  Los Angeles CA",
	"formattedAddress": "30 S Hope St, Los Angeles, CA 90071, USA",
	"lat": 34.0525017,
	"lng": -118.2534595,
	"zipcode": "90071",
	"city": "Los Angeles",
	"neighborhood": "Downtown"
}, {
	"location": "Los Angeles Theatre Center (LATC)",
	"address": "514 South Spring Street Los Angeles ",
	"formattedAddress": "Security Building, 514 S Spring St, Los Angeles, CA 90013, USA",
	"lat": 34.0466405,
	"lng": -118.2496756,
	"zipcode": "90013",
	"city": "Los Angeles",
	"neighborhood": "Central LA"
}, {
	"location": "United States Trade Tasting 2017",
	"address": "Metropolitan Pavilion, 125 W 18th St, New York, NY 10011 Ny CA 10001",
	"formattedAddress": "125 W 18th St, New York, NY 10011, USA",
	"lat": 40.740543,
	"lng": -73.995756,
	"zipcode": "10011",
	"city": "New York",
	"neighborhood": "Manhattan"
}, {
	"location": "Melrose Lighthouse",
	"address": "7600 Melrose Avenue  ",
	"formattedAddress": "7600 Melrose Ave, West Hollywood, CA 90046, USA",
	"lat": 34.0834592,
	"lng": -118.3555384,
	"zipcode": "90046",
	"city": "West Hollywood",
	"neighborhood": "Central LA"
}, {
	"location": "The Beverly Hilton",
	"address": "9876 Wilshire Blvd, Beverly Hills, CA   ",
	"formattedAddress": "9876 Wilshire Blvd, Beverly Hills, CA 90210, USA",
	"lat": 34.0668695,
	"lng": -118.4135112,
	"zipcode": "90210",
	"city": "Beverly Hills",
	"neighborhood": "Century City"
}, {
	"location": "Joshua Tree",
	"address": "CA",
	"formattedAddress": "California, USA",
	"lat": 36.778261,
	"lng": -119.4179324
}, {
	"location": "Sheraton Universal Hotel",
	"address": "33 Universal Hollywood Dr Universal City ",
	"formattedAddress": "33 Universal Hollywood Dr, Los Angeles, CA 90068, USA",
	"lat": 34.1387059,
	"lng": -118.3609763,
	"zipcode": "90068",
	"city": "Los Angeles"
}, {
	"location": "Boulevard3",
	"address": "6523 W Sunset Blvd, Los Angeles, California  Hollywood ",
	"formattedAddress": "6523 Sunset Blvd, Los Angeles, CA 90028, USA",
	"lat": 34.09849510000001,
	"lng": -118.331806,
	"zipcode": "90028",
	"city": "Los Angeles",
	"neighborhood": "Hollywood"
}, {
	"location": "The Catalina Bar & Grill",
	"address": "6725 W. Sunset Blvd., Los Angeles Hollywood ",
	"formattedAddress": "6725 Sunset Blvd, Los Angeles, CA 90028, USA",
	"lat": 34.0979837,
	"lng": -118.3373331,
	"zipcode": "90028",
	"city": "Los Angeles",
	"neighborhood": "Hollywood"
}, {
	"location": "L.A. LIVE",
	"address": "800 West Olympic Blvd., Los Angeles, CA Downtown ",
	"formattedAddress": "Lucky Strike Bowling - Los Angeles, 800 W Olympic Blvd, Los Angeles, CA 90015, USA",
	"lat": 34.0447954,
	"lng": -118.2652703,
	"zipcode": "90015",
	"city": "Los Angeles",
	"neighborhood": "Central LA"
}, {
	"location": "Brockus Project Studios",
	"address": "618B Moulton Ave. Los Angeles ",
	"formattedAddress": "618 Moulton Ave, Los Angeles, CA 90031, USA",
	"lat": 34.0648214,
	"lng": -118.2189453,
	"zipcode": "90031",
	"city": "Los Angeles",
	"neighborhood": "Central LA"
}, {
	"location": "Orange Coast College, Robert B. Moore Theatre",
	"address": "2701 Fairview Road Costa Mesa, Ca Florence "
}, {
	"location": "Sherry Theatre",
	"address": "11052 Magnolia Blvd., North Hollywood CA North Hollywood ",
	"formattedAddress": "11052 W Magnolia Blvd, North Hollywood, CA 91601, USA",
	"lat": 34.164743,
	"lng": -118.3723852,
	"zipcode": "91601",
	"city": "Los Angeles",
	"neighborhood": "North Hollywood"
}, {
	"location": "Downtown Pasadena",
	"address": "100 E. Colorado Blvd Pasadena ",
	"formattedAddress": "100 E Colorado Blvd, Pasadena, CA 91105, USA",
	"lat": 34.1456896,
	"lng": -118.1484038,
	"zipcode": "91105",
	"city": "Pasadena",
	"neighborhood": "Old Pasadena"
}, {
	"location": "Valley Plaza Park, North Hollywood",
	"address": "12240 Archwood St North Hollywood ",
	"formattedAddress": "12240 Archwood St, North Hollywood, CA 91606, USA",
	"lat": 34.1918698,
	"lng": -118.4008626,
	"zipcode": "91606",
	"city": "Los Angeles",
	"neighborhood": "North Hollywood"
}, {
	"location": "Reyes Winery",
	"address": "10262 Sierra Highway Santa Clarita ",
	"formattedAddress": "10262 Sierra Hwy, Santa Clarita, CA 91390, USA",
	"lat": 34.5168751,
	"lng": -118.314258,
	"zipcode": "91390",
	"city": "Santa Clarita"
}, {
	"location": "Los Angeles State Historic Park",
	"address": "1245 N Spring St Los Angeles CA",
	"formattedAddress": "1245 N Spring St, Los Angeles, CA 90012, USA",
	"lat": 34.0661743,
	"lng": -118.2342881,
	"zipcode": "90012",
	"city": "Los Angeles",
	"neighborhood": "Central LA"
}, {
	"location": "First Christian Church of Pomona",
	"address": "1751 N. Park Ave Pomona ",
	"formattedAddress": "1751 N Park Ave, Pomona, CA 91768, USA",
	"lat": 34.0775254,
	"lng": -117.7535146,
	"zipcode": "91768",
	"city": "Pomona",
	"neighborhood": "Westmont"
}, {
	"location": "Avalon Casino Ballroom",
	"address": "1 Casino Way Avalon ",
	"formattedAddress": "1 Casino Way, Avalon, CA 90704, USA",
	"lat": 33.3490013,
	"lng": -118.3256507,
	"zipcode": "90704",
	"city": "Avalon"
}, {
	"location": "Linwood Dunn Theater",
	"address": "1313 Vine St., Hollywood, CA Hollywood ",
	"formattedAddress": "1313 Vine St, Los Angeles, CA 90028, USA",
	"lat": 34.0947077,
	"lng": -118.326965,
	"zipcode": "90028",
	"city": "Los Angeles",
	"neighborhood": "Central LA"
}, {
	"location": "Crucifixion-Resurrection Hall at Forest Lawn Glendale",
	"address": "1712 S Glendale Ave, Glendale, CA Glendale ",
	"formattedAddress": "1712 S Glendale Ave, Glendale, CA 91205, USA",
	"lat": 34.1247166,
	"lng": -118.2515038,
	"zipcode": "91205",
	"city": "Glendale",
	"neighborhood": "Adams Hill"
}, {
	"location": "The Performing Arts Center",
	"address": "18230 Kittridge Street, Reseda CA Reseda ",
	"formattedAddress": "18230 Kittridge St, Reseda, CA 91335, USA",
	"lat": 34.1899991,
	"lng": -118.5302945,
	"zipcode": "91335",
	"city": "Los Angeles",
	"neighborhood": "Reseda"
}, {
	"location": "Luckman Fine Arts Complex at Cal State LA",
	"address": "5151 State University Drive Los Angeles ",
	"formattedAddress": "Hertzberg-Davis Forensic Science Center, 5151 State University Dr, Los Angeles, CA 90032, USA",
	"lat": 34.0620391,
	"lng": -118.1736587,
	"zipcode": "90032",
	"city": "Los Angeles"
}, {
	"location": "A ROOM TO CREATE (ARC) Pasadena",
	"address": "1158 East Colorado Pasadena ",
	"formattedAddress": "1158 E Colorado Blvd, Pasadena, CA 91106, USA",
	"lat": 34.1456653,
	"lng": -118.1265221,
	"zipcode": "91106",
	"city": "Pasadena"
}, {
	"location": "Paramount Ranch",
	"address": "2813 Cornell Road Agoura Hills CA",
	"formattedAddress": "2813 Cornell Rd, Agoura Hills, CA 91301, USA",
	"lat": 34.1146353,
	"lng": -118.7522397,
	"zipcode": "91301",
	"city": "Agoura Hills"
}, {
	"location": "The Autry Museum at Griffith Park",
	"address": "4700 Western Heritage Way Los Angeles ",
	"formattedAddress": "4700 Western Heritage Way, Los Angeles, CA 90027, USA",
	"lat": 34.1486203,
	"lng": -118.2812131,
	"zipcode": "90027",
	"city": "Los Angeles"
}, {
	"location": "Autry Museum at Griffith Park",
	"address": "4700 Western Heritage Way Los Angeles ",
	"formattedAddress": "4700 Western Heritage Way, Los Angeles, CA 90027, USA",
	"lat": 34.1486203,
	"lng": -118.2812131,
	"zipcode": "90027",
	"city": "Los Angeles"
}, {
	"location": "Universal Studios Hollywood Backlot",
	"address": "100 Universal City Plaza Universal City ",
	"formattedAddress": "100 Universal City Plaza, North Hollywood, CA 91602, USA",
	"lat": 34.1361918,
	"lng": -118.3520161,
	"zipcode": "91602",
	"city": "Universal City",
	"neighborhood": "North Hollywood"
}, {
	"location": "Laemmle Monica 4-Plex",
	"address": "1332 2nd St Santa Monica ",
	"formattedAddress": "1332 2nd St, Santa Monica, CA 90401, USA",
	"lat": 34.0152416,
	"lng": -118.4979955,
	"zipcode": "90401",
	"city": "Santa Monica"
}, {
	"location": "Otium",
	"address": "222 S Hope St Los Angeles CA",
	"formattedAddress": "222 S Hope St, Los Angeles, CA 90012, USA",
	"lat": 34.0543753,
	"lng": -118.2512758,
	"zipcode": "90012",
	"city": "Los Angeles",
	"neighborhood": "Downtown"
}, {
	"location": "The Gamble House",
	"address": "4 Westmoreland Place  ",
	"formattedAddress": "4 Westmoreland Pl, Pasadena, CA 91103, USA",
	"lat": 34.1516225,
	"lng": -118.1609168,
	"zipcode": "91103",
	"city": "Pasadena",
	"neighborhood": "North Arroyo"
}, {
	"location": "CBS Radford - Backlot",
	"address": "4024 Radford Ave Studio City ",
	"formattedAddress": "4024 Radford Ave, Studio City, CA 91604, USA",
	"lat": 34.1446003,
	"lng": -118.392351,
	"zipcode": "91604",
	"city": "Los Angeles",
	"neighborhood": "Studio City"
}, {
	"location": "Ann & Jerry Moss Theatre",
	"address": "3131 Olympic Blvd 3131 Olympic Blvd CA 0",
	"formattedAddress": "3131 Olympic Blvd, Santa Monica, CA 90404, USA",
	"lat": 34.0313088,
	"lng": -118.4613038,
	"zipcode": "90404",
	"city": "Santa Monica"
}, {
	"location": "Hart High School Auditorium",
	"address": "24825 North Newhall Avenue  Santa Clarita ",
	"formattedAddress": "24825 Newhall Ave, Santa Clarita, CA 91321, USA",
	"lat": 34.3851121,
	"lng": -118.53955,
	"zipcode": "91321",
	"city": "Santa Clarita"
}, {
	"location": "St James Presbyterian Church",
	"address": "19414 Ventura Blvd Tarzana ",
	"formattedAddress": "19414 Ventura Blvd, Tarzana, CA 91356, USA",
	"lat": 34.1724319,
	"lng": -118.5563574,
	"zipcode": "91356",
	"city": "Los Angeles",
	"neighborhood": "Tarzana"
}, {
	"location": "Gateway Chrisitian Church",
	"address": "11760 Gateway Blvd. Los Angeles ",
	"formattedAddress": "11760 Gateway Blvd, Los Angeles, CA 90064, USA",
	"lat": 34.0267761,
	"lng": -118.4433898,
	"zipcode": "90064",
	"city": "Los Angeles",
	"neighborhood": "Mar Vista"
}, {
	"location": "Shore Office",
	"address": "1433 6th Street  ",
	"formattedAddress": "1433 6th St, Brookings, SD 57006, USA",
	"lat": 44.3114846,
	"lng": -96.7800573,
	"zipcode": "57006",
	"city": "Brookings"
}, {
	"location": "Unit 120",
	"address": "111 N Los Robles Ave. Pasadena CA",
	"formattedAddress": "111 N Los Robles Ave, Pasadena, CA 91101, USA",
	"lat": 34.1474456,
	"lng": -118.1421443,
	"zipcode": "91101",
	"city": "Pasadena"
}, {
	"location": "Los Angeles Conservancy",
	"address": "615 S Broadway Los Angeles ",
	"formattedAddress": "615 S Broadway, Los Angeles, CA 90014, USA",
	"lat": 34.046444,
	"lng": -118.2526466,
	"zipcode": "90014",
	"city": "Los Angeles",
	"neighborhood": "Central LA"
}, {
	"location": "LUXE Hotel",
	"address": "11461 Sunset Blvd Los Angeles ",
	"formattedAddress": "11461 Sunset Blvd, Los Angeles, CA 90049, USA",
	"lat": 34.0726109,
	"lng": -118.4685961,
	"zipcode": "90049",
	"city": "Los Angeles",
	"neighborhood": "Brentwood"
}, {
	"location": "Le Lycée Français de Los Angeles - Theater Raymond Kabbaz",
	"address": "10361 West Pico Blvd West Los Angeles ",
	"formattedAddress": "10361 W Pico Blvd, Los Angeles, CA 90064, USA",
	"lat": 34.0472141,
	"lng": -118.4160617,
	"zipcode": "90064",
	"city": "Los Angeles",
	"neighborhood": "Century City"
}, {
	"location": "Hornblower Cruises & Events",
	"address": "13755 Fiji Way Marina Del Rey ",
	"formattedAddress": "13755 Fiji Way, Marina Del Rey, CA 90292, USA",
	"lat": 33.9725614,
	"lng": -118.4462468,
	"zipcode": "90292",
	"city": "Marina del Rey"
}, {
	"location": "Diavolo Dance Theatre  The Brewery",
	"address": "616 Moulton Ave Los Angeles ",
	"formattedAddress": "616 Moulton Ave, Los Angeles, CA 90031, USA",
	"lat": 34.0649875,
	"lng": -118.2191349,
	"zipcode": "90031",
	"city": "Los Angeles",
	"neighborhood": "Central LA"
}, {
	"location": "Private Residence",
	"address": "Near Intersection of Hollywood Blvd and Laurel Canyon Blvd  ",
	"formattedAddress": "Laurel Canyon Blvd & Hollywood Blvd, Los Angeles, CA 90046, USA",
	"lat": 34.1019138,
	"lng": -118.3655166,
	"zipcode": "90046",
	"city": "Los Angeles",
	"neighborhood": "Central LA"
}, {
	"location": "ArtShare LA",
	"address": "801 E 4th Pl. Los Angeles, California Little Tokyo ",
	"formattedAddress": "801 E 4th Pl, Los Angeles, CA 90013, USA",
	"lat": 34.0445952,
	"lng": -118.2364072,
	"zipcode": "90013",
	"city": "Los Angeles",
	"neighborhood": "Downtown"
}, {
	"location": "Woman's Club of South Pasadena",
	"address": "1424 Fremont Ave South Pasadena ",
	"formattedAddress": "1424 Fremont Ave, South Pasadena, CA 91030, USA",
	"lat": 34.109017,
	"lng": -118.1527753,
	"zipcode": "91030",
	"city": "South Pasadena"
}, {
	"location": "Studio Theater at Cal State Long Beach",
	"address": "1250 Bellflower Blvd, Long Beach,CA Long Beach ",
	"formattedAddress": "1250 N Bellflower Blvd, Long Beach, CA 90815, USA",
	"lat": 33.7825823,
	"lng": -118.1223979,
	"zipcode": "90815",
	"city": "Long Beach"
}, {
	"location": "Los Angles Convention Center South Hall",
	"address": "1201 S Figueroa St, Los Angeles, Downtown ",
	"formattedAddress": "1201 S Figueroa St, Los Angeles, CA 90015, USA",
	"lat": 34.0419133,
	"lng": -118.2668802,
	"zipcode": "90015",
	"city": "Los Angeles",
	"neighborhood": "Downtown"
}, {
	"location": "Art Theatre",
	"address": "2025 E 4th St Long Beach ",
	"formattedAddress": "2025 E 4th St, Long Beach, CA 90814, USA",
	"lat": 33.77192369999999,
	"lng": -118.1669997,
	"zipcode": "90814",
	"city": "Long Beach",
	"neighborhood": "Eastside"
}, {
	"location": "Areal Restaurant",
	"address": "2820 Main Street Santa Monica ",
	"formattedAddress": "2820 Main St, Santa Monica, CA 90405, USA",
	"lat": 33.9995832,
	"lng": -118.4815145,
	"zipcode": "90405",
	"city": "Santa Monica",
	"neighborhood": "Ocean Park"
}, {
	"location": "Santa Monica High School, Barnum Hall",
	"address": "601 Pico Blvd Santa Monica ",
	"formattedAddress": "601 Pico Blvd, Santa Monica, CA 90405, USA",
	"lat": 34.0114172,
	"lng": -118.4852521,
	"zipcode": "90405",
	"city": "Santa Monica"
}, {
	"location": "Hyatt Regency Osaka 1-13-11 Nanko-Kita",
	"address": "Suminoe-Ku,Osaka Mid-Wilshire "
}, {
	"location": "Morgan-Wixson Theater",
	"address": "2627 Pico Blvd.  ",
	"formattedAddress": "2627 Pico Blvd, Santa Monica, CA 90405, USA",
	"lat": 34.0237571,
	"lng": -118.4619338,
	"zipcode": "90405",
	"city": "Santa Monica",
	"neighborhood": "Pico"
}, {
	"location": "Mayan Theater",
	"address": "1038 S. Hill St. Los Angeles CA"
}]