[{"location":"Pasadena Museum of History","address":"470 W. Walnut St. Pasadena, ","formattedAddress":"470 W Walnut St, Pasadena, CA 91103, USA","neighborhood":"North Arroyo","lat":34.1490951,"lng":-118.1609863,"zipcode":"91103"},{"location":"Antaeus Theatre Company","address":"110 E. Broadway Glendale, ","formattedAddress":"110 E Broadway, Glendale, CA 91205, USA","neighborhood":"Downtown","lat":34.1461412,"lng":-118.2543168,"zipcode":"91205"},{"location":"Create Nightclub","address":"6021 Hollywood Blvd. Los Angeles, ","formattedAddress":"6021 Hollywood Blvd, Los Angeles, CA 90028, USA","neighborhood":"Hollywood","lat":34.1020426,"lng":-118.3209169,"zipcode":"90028"},{"location":"UCLA Center For Intercultural Performance","address":"120 Westwood Plaza Los Angeles, ","formattedAddress":"120 Westwood Plaza, Los Angeles, CA 90095, USA","neighborhood":"Westwood","lat":34.0728461,"lng":-118.4447953,"zipcode":"90095"},{"location":"Trip","address":"2101 Lincoln Blvd. Santa Monica, ","formattedAddress":"2101 Lincoln Blvd, Santa Monica, CA 90405, USA","neighborhood":"Ocean Park","lat":34.0109254,"lng":-118.4809526,"zipcode":"90405"},{"location":"Fox Performing Arts Center","address":"3801 Mission Inn Ave. Riverside, ","formattedAddress":"3801 Mission Inn Avenue, Riverside, CA 92501, USA","neighborhood":"Downtown Riverside","lat":33.9839822,"lng":-117.3752903,"zipcode":"92501"},{"location":"Griffins of Kinsale","address":"1007 Mission St. South Pasadena, CA 626-799-0926","formattedAddress":"1007 Mission St, South Pasadena, CA 91030, USA","neighborhood":null,"lat":34.1155694,"lng":-118.1568061,"zipcode":"91030"},{"location":"The Greek Theatre","address":"2700 N. Vermont Ave. Los Angeles, ","formattedAddress":"2700 N Vermont Ave, Los Angeles, CA 90027, USA","neighborhood":null,"lat":34.1205588,"lng":-118.2963915,"zipcode":"90027"},{"location":"Luckman Fine Arts Complex","address":"5151 State University Drive Los Angeles CA","formattedAddress":"5151 State University Dr, Los Angeles, CA 90032, USA","neighborhood":null,"lat":34.0615308,"lng":-118.1733051,"zipcode":"90032"},{"location":"California Institute of Abnormal Arts (C.I.A.)","address":"11334 Burbank Blvd. North Hollywood, ","formattedAddress":"11334 Burbank Blvd, North Hollywood, CA 91601, USA","neighborhood":"North Hollywood","lat":34.1719873,"lng":-118.3774298,"zipcode":"91601"},{"location":"Spaghettini Seal Beach","address":"3005 Old Ranch Parkway Seal Beach, ","formattedAddress":"3005 Old Ranch Pkwy, Seal Beach, CA 90740, USA","neighborhood":null,"lat":33.7765033,"lng":-118.0736813,"zipcode":"90740"},{"location":"Richard & Karen Carpenter Performing Arts Center","address":"6200 Atherton St. Long Beach, ","formattedAddress":"6200 E Atherton St, Long Beach, CA 90815, USA","neighborhood":null,"lat":33.788396,"lng":-118.1126051,"zipcode":"90815"},{"location":"Cheviot Hills Recreation Center","address":"2551 Motor Ave. Los Angeles, ","formattedAddress":"2551 Motor Ave, Los Angeles, CA 90064, USA","neighborhood":"Cheviot Hills","lat":34.0452361,"lng":-118.4079537,"zipcode":"90064"},{"location":"San Gabriel Mission Playhouse","address":"320 Mission Dr. San Gabriel, ","formattedAddress":"320 N Mission Dr, San Gabriel, CA 91775, USA","neighborhood":null,"lat":34.1068399,"lng":-118.1112117,"zipcode":"91775"},{"location":"Colombo's Italian Steakhouse & Jazz Club","address":"1833 Colorado Blvd. Eagle Rock, ","formattedAddress":"1833 Colorado Blvd, Los Angeles, CA 90041, USA","neighborhood":"Northeast Los Angeles","lat":34.1395978,"lng":-118.2072713,"zipcode":"90041"},{"location":"Los Angeles Convention Center","address":"1201 S. Figueroa St. Los Angeles, ","formattedAddress":"1201 S Figueroa St, Los Angeles, CA 90015, USA","neighborhood":"Central LA","lat":34.0413606,"lng":-118.2697771,"zipcode":"90015"},{"location":"The Townhouse","address":"52 Windward Ave. Venice, ","formattedAddress":"52 Windward Ave, Venice, CA 90291, USA","neighborhood":"Venice","lat":33.9871768,"lng":-118.4726295,"zipcode":"90291"},{"location":"Exchange L.A.","address":"618 S. Spring St. Los Angeles, ","formattedAddress":"618 S Spring St, Los Angeles, CA 90014, USA","neighborhood":"Downtown","lat":34.0452545,"lng":-118.2511393,"zipcode":"90014"},{"location":"Acerogami","address":"228 W. Second St. Pomona, ","formattedAddress":"228 W 2nd St, Pomona, CA 91766, USA","neighborhood":"Westmont","lat":34.0575391,"lng":-117.751646,"zipcode":"91766"},{"location":"Campbell Hall, UC Santa Barbara","address":"Building 538, Mesa Rd. Santa Barbara, ","formattedAddress":"538 Mesa Rd, Santa Barbara, CA 93117, USA","neighborhood":null,"lat":34.4207224,"lng":-119.8504666,"zipcode":"93117"},{"location":"Junior High","address":"5656 Hollywood Blvd. Hollywood, ","formattedAddress":"5656 Hollywood Blvd, Los Angeles, CA 90028, USA","neighborhood":"Hollywood","lat":34.1015213,"lng":-118.3133915,"zipcode":"90028"},{"location":"Downey Civic Theatre","address":"8435 Firestone Blvd Downey ","formattedAddress":"8435 Firestone Blvd, Downey, CA 90241, USA","neighborhood":null,"lat":33.9392379,"lng":-118.1297583,"zipcode":"90241"},{"location":"The Monty","address":"1222 W. Seventh St. Los Angeles, ","formattedAddress":"1222 W 7th St, Los Angeles, CA 90017, USA","neighborhood":"Central LA","lat":34.0515896,"lng":-118.2667901,"zipcode":"90017"},{"location":"Downtown Independent Theater","address":"251 S. Main St. Los Angeles, ","formattedAddress":"251 S Main St, Los Angeles, CA 90012, USA","neighborhood":"Central LA","lat":34.050286,"lng":-118.245687,"zipcode":"90012"},{"location":"The Prospector","address":"2400 E. Seventh St. Long Beach, ","formattedAddress":"2400 E 7th St, Long Beach, CA 90804, USA","neighborhood":"Eastside","lat":33.775159,"lng":-118.163089,"zipcode":"90804"},{"location":"Pasadena Civic Auditorium","address":"300 E. Green St. Pasadena, ","formattedAddress":"300 E Green St, Pasadena, CA 91101, USA","neighborhood":null,"lat":34.143817,"lng":-118.144302,"zipcode":"91101"},{"location":"Precinct","address":"357 S. Broadway Los Angeles, ","formattedAddress":"357 S Broadway, Los Angeles, CA 90013, USA","neighborhood":"Downtown","lat":34.0498858,"lng":-118.2495102,"zipcode":"90013"},{"location":"Libbey Bowl","address":"210 S. Signal St. Ojai, ","formattedAddress":"210 S Signal St, Ojai, CA 93023, USA","neighborhood":null,"lat":34.4458781,"lng":-119.2458306,"zipcode":"93023"},{"location":"Wilshire Ebell Theatre","address":"4401 W 8th St. Los Angeles ","formattedAddress":"4401 W 8th St, Los Angeles, CA 90005, USA","neighborhood":"Central LA","lat":34.0609082,"lng":-118.3250733,"zipcode":"90005"},{"location":"Shrine Auditorium & Expo Hall","address":"665 W. Jefferson Blvd. Los Angeles, ","formattedAddress":"665 W Jefferson Blvd, Los Angeles, CA 90007, USA","neighborhood":"South Los Angeles","lat":34.0236612,"lng":-118.2812202,"zipcode":"90007"},{"location":"Egyptian Theatre","address":"6712 Hollywood Blvd., Hollywood, CA Hollywood ","formattedAddress":"6712 Hollywood Blvd, Los Angeles, CA 90028, USA","neighborhood":"Hollywood","lat":34.1013684,"lng":-118.3366935,"zipcode":"90028"},{"location":"The Gem Theatre","address":"12852 Main St. Garden Grove, California 92840 714-741-9550","formattedAddress":"12852 Main St, Garden Grove, CA 92840, USA","neighborhood":null,"lat":33.77639449999999,"lng":-117.9407127,"zipcode":"92840"},{"location":"Verdugo Bar","address":"3408 Verdugo Road Los Angeles ","formattedAddress":"3408 Verdugo Rd, Los Angeles, CA 90065, USA","neighborhood":"Northeast Los Angeles","lat":34.1137406,"lng":-118.2349602,"zipcode":"90065"},{"location":"Dabney Lounge, Caltech","address":"1200 E. California Blvd. Pasadena ","formattedAddress":"1200 E California Blvd, Pasadena, CA 91106, USA","neighborhood":null,"lat":34.1342922,"lng":-118.1248773,"zipcode":"91106"},{"location":"Angel City Brewing Co.","address":"216 S. Alameda St. Los Angeles, ","formattedAddress":"216 S Alameda St, Los Angeles, CA 90012, USA","neighborhood":"Central LA","lat":34.0467796,"lng":-118.2380984,"zipcode":"90012"},{"location":"Westfield Valencia Town Center","address":"24201 Valencia Blvd. Valencia, ","formattedAddress":"24201 Valencia Blvd, Valencia, CA 91355, USA","neighborhood":"Valencia","lat":34.4176299,"lng":-118.5608039,"zipcode":"91355"},{"location":"Riviera 31","address":"Hotel Sofitel, 8555 Beverly Blvd. Los Angeles, California 90048 310-278-5444","formattedAddress":"8555 Beverly Blvd, Los Angeles, CA 90048, USA","neighborhood":"Central LA","lat":34.0763642,"lng":-118.3774949,"zipcode":"90048"},{"location":"The Copper Still","address":"4493 Beverly Blvd. Los Angeles, ","formattedAddress":"4493 Beverly Blvd, Los Angeles, CA 90004, USA","neighborhood":"Hollywood","lat":34.0764323,"lng":-118.3066935,"zipcode":"90004"},{"location":"The Kibitz Room","address":"419 N. Fairfax Ave. Los Angeles, ","formattedAddress":"419 N Fairfax Ave, Los Angeles, CA 90036, USA","neighborhood":"Central LA","lat":34.0789742,"lng":-118.361875,"zipcode":"90036"},{"location":"Palm Tree L.A.","address":"3240 Wilshire Blvd. Los Angeles, ","formattedAddress":"3240 Wilshire Blvd, Los Angeles, CA 90010, USA","neighborhood":"Koreatown","lat":34.0614383,"lng":-118.2925458,"zipcode":"90010"},{"location":"Rafa's Lounge","address":"1836 W. Sunset Blvd. Los Angeles, ","formattedAddress":"1836 Sunset Blvd, Los Angeles, CA 90026, USA","neighborhood":"Echo Park","lat":34.0778325,"lng":-118.2603935,"zipcode":"90026"},{"location":"The Conga Room","address":"800 W. Olympic Blvd. Los Angeles, ","formattedAddress":"800 W Olympic Blvd, Los Angeles, CA 90015, USA","neighborhood":"Downtown","lat":34.0449376,"lng":-118.2654979,"zipcode":"90015"},{"location":"OPICA Adult Day Care Center","address":"11759 Missouri Ave. West Los Angeles, ","formattedAddress":"11759 Missouri Ave, Los Angeles, CA 90025, USA","neighborhood":"Sawtelle","lat":34.0377763,"lng":-118.4532338,"zipcode":"90025"},{"location":"American Legion Hollywood Post 43","address":"2035 N. Highland Ave. Los Angeles, ","formattedAddress":"2035 Highland Ave, Los Angeles, CA 90068, USA","neighborhood":"Central LA","lat":34.1078175,"lng":-118.337995,"zipcode":"90068"},{"location":"Miles Memorial Playhouse","address":"1130 Lincoln Blvd. Santa Monica, ","formattedAddress":"1130 Lincoln Blvd, Santa Monica, CA 90403, USA","neighborhood":"Wilshire Montana","lat":34.0226618,"lng":-118.4956828,"zipcode":"90403"},{"location":"Lineage Performing Arts Center","address":"89 S. Fair Oaks Avenue Pasadena ","formattedAddress":"89 S Fair Oaks Ave, Pasadena, CA 91105, USA","neighborhood":"Northeast Los Angeles","lat":34.1441498,"lng":-118.15071,"zipcode":"91105"},{"location":"Tongva Park","address":"1615 Ocean Ave. Santa Monica ","formattedAddress":"1615 Ocean Ave, Santa Monica, CA 90401, USA","lat":34.0110163,"lng":-118.4944244,"zipcode":"90401"},{"location":"Lewis Family Playhouse","address":"12505 Cultural Center Dr. Rancho Cucamonga, ","formattedAddress":"12505 Cultural Center Dr, Rancho Cucamonga, CA 91739, USA","neighborhood":null,"lat":34.112922,"lng":-117.532576,"zipcode":"91739"},{"location":"Edgemar Center for the Arts","address":"2437 Main St. Santa Monica, ","formattedAddress":"2437 Main St, Santa Monica, CA 90405, USA","neighborhood":"Ocean Park","lat":34.0035616,"lng":-118.4847408,"zipcode":"90405"},{"location":"Vintage Grocers","address":"140 Promenade Way Westlake Village, California 91362 805-230-0010","formattedAddress":"140 Promenade Way, Thousand Oaks, CA 91362, USA","neighborhood":null,"lat":34.1587765,"lng":-118.8208825,"zipcode":"91362"},{"location":"The Pink Elephant","address":"2810 Main St. Santa Monica, ","formattedAddress":"2810 Main St, Santa Monica, CA 90405, USA","neighborhood":"Ocean Park","lat":33.999782,"lng":-118.4817373,"zipcode":"90405"},{"location":"Escape Room L.A.","address":"120 E. 8th St Los Angeles, ","formattedAddress":"120 E 8th St, Los Angeles, CA 90014, USA","neighborhood":"Downtown","lat":34.0420721,"lng":-118.2528292,"zipcode":"90014"},{"location":"Cinespace","address":"6356 Hollywood Blvd. Los Angeles, ","formattedAddress":"6356 Hollywood Blvd, Los Angeles, CA 90028, USA","neighborhood":"Hollywood","lat":34.101267,"lng":-118.328501,"zipcode":"90028"},{"location":"Hyperion Tavern","address":"1941 Hyperion Ave. Los Angeles, ","formattedAddress":"1941 Hyperion Ave, Los Angeles, CA 90027, USA","neighborhood":"Los Feliz","lat":34.0982695,"lng":-118.2750725,"zipcode":"90027"},{"location":"Pantages Theatre","address":"6233 Hollywood Blvd. Los Angeles, ","formattedAddress":"6233 Hollywood Blvd, Los Angeles, CA 90028, USA","neighborhood":"Hollywood","lat":34.102001,"lng":-118.325867,"zipcode":"90028"},{"location":"Santa Monica Playhouse - The Other Space","address":"1211 4th Street Santa Monica ","formattedAddress":"1211 4th St, Santa Monica, CA 90401, USA","neighborhood":"Downtown","lat":34.0189556,"lng":-118.4977074,"zipcode":"90401"},{"location":"Beverly O'Neill Theater - Long Beach Conv and Entertainment Ctr","address":"300 E Ocean BL Long Beach CA","formattedAddress":"300 E Ocean Blvd, Long Beach, CA 90802, USA","neighborhood":"Waterfront","lat":33.76520350000001,"lng":-118.1893341,"zipcode":"90802"},{"location":"Highways Performance Space","address":"1651 18th St. Santa Monica ","formattedAddress":"1651 18th St, Santa Monica, CA 90404, USA","neighborhood":null,"lat":34.0236722,"lng":-118.4772538,"zipcode":"90404"},{"location":"Exposition Park","address":"Los Angeles ","formattedAddress":"Los Angeles, CA, USA","neighborhood":null,"lat":34.0522342,"lng":-118.2436849},{"location":"Citadel Outlets","address":"100 Citadel Drive, Suite 480 Los Angeles ","formattedAddress":"100 Citadel Dr #480, Commerce, CA 90040, USA","neighborhood":"South Montebello","lat":34.006156,"lng":-118.1516239,"zipcode":"90040"},{"location":"Santa Monica Playhouse Main Stage","address":"1211 4th Street Santa Monica ","formattedAddress":"1211 4th St, Santa Monica, CA 90401, USA","neighborhood":"Downtown","lat":34.0189556,"lng":-118.4977074,"zipcode":"90401"},{"location":"Getty Center","address":"1200 Getty Center Drive Los Angeles ","formattedAddress":"1200 Getty Center Dr, Los Angeles, CA 90049, USA","neighborhood":"Brentwood","lat":34.0790329,"lng":-118.4751057,"zipcode":"90049"},{"location":"South Park Center","address":"1139 S. Hill St. Los Angeles, ","formattedAddress":"1139 Hill St, Los Angeles, CA 90015, USA","neighborhood":"Downtown","lat":34.0390574,"lng":-118.2611996,"zipcode":"90015"},{"location":"Annenberg Space for Photography","address":"2000 Avenue of the Stars Century City ","formattedAddress":"2000 Avenue of the Stars, Los Angeles, CA 90067, USA","neighborhood":"Century City","lat":34.0583595,"lng":-118.4148332,"zipcode":"90067"},{"location":"Caltech Beckman Auditorium","address":"332 S Michigan Ave  ","formattedAddress":"332 S Michigan Ave, Chicago, IL 60604, USA","neighborhood":"Chicago Loop","lat":41.8773145,"lng":-87.6248258,"zipcode":"60604"},{"location":"Greek Theatre","address":"2700 N. Vermont Ave. Los Angeles ","formattedAddress":"2700 N Vermont Ave, Los Angeles, CA 90027, USA","neighborhood":null,"lat":34.1205588,"lng":-118.2963915,"zipcode":"90027"},{"location":"Acme Comedy Theatre","address":"135 N La Brea Avenue, Los Angeles, CA La Brea ","formattedAddress":"135 N La Brea Ave, Los Angeles, CA 90036, USA","neighborhood":"Central LA","lat":34.0746854,"lng":-118.3443585,"zipcode":"90036"},{"location":"Rubicon Theatre Company","address":"1006 E. Main Street Ventura ","formattedAddress":"1006 E Main St, Ventura, CA 93001, USA","neighborhood":null,"lat":34.2805973,"lng":-119.2852082,"zipcode":"93001"},{"location":"Little Fish Theatre","address":"777 S. Centre St. San Pedro ","formattedAddress":"777 S Centre St, San Pedro, CA 90731, USA","neighborhood":"San Pedro","lat":33.7372675,"lng":-118.2837083,"zipcode":"90731"},{"location":"Downtown Los Angeles Historic Core","address":"Sixth St. and Spring St. Los Angeles CA","formattedAddress":"W 6th St & S Spring St, Los Angeles, CA 90014, USA","neighborhood":"Downtown","lat":34.0459485,"lng":-118.2509641,"zipcode":"90014"},{"location":"The Pike Outlets","address":"95 South Pine Avenue Long Beach ","formattedAddress":"95 S Pine Ave, Long Beach, CA 90802, USA","neighborhood":"Waterfront","lat":33.76475,"lng":-118.1941419,"zipcode":"90802"},{"location":"Marsee Auditorium, Center for the Arts at El Camino College","address":"16007 Crenshaw Boulevard Torrance ","formattedAddress":"16007 Crenshaw Blvd, Torrance, CA 90506, USA","neighborhood":null,"lat":33.8852359,"lng":-118.3284419,"zipcode":"90506"},{"location":"Battleship IOWA","address":"250 s harbor blvd san pedro ","formattedAddress":"250 S Harbor Blvd, San Pedro, CA 90731, USA","neighborhood":"San Pedro","lat":33.7420554,"lng":-118.2773064,"zipcode":"90731"},{"location":"Boston Court Performing Arts Center","address":"70 N Mentor Ave Pasadena ","formattedAddress":"70 N Mentor Ave, Pasadena, CA 91106, USA","lat":34.1470269,"lng":-118.1305675,"zipcode":"91106"},{"location":"Downtown Long Beach","address":"Linden Ave. and E. Broadway Long Beach CA","formattedAddress":"E Broadway & Linden Ave, Long Beach, CA 90802, USA","neighborhood":"Downtown","lat":33.7692751,"lng":-118.1863671,"zipcode":"90802"},{"location":"Highland Park and surrounding areas","address":"York Blvd. and N. Ave. 50 Los Angeles CA","formattedAddress":"York Blvd & N Avenue 50, Los Angeles, CA 90042, USA","neighborhood":"Eagle Rock","lat":34.1214799,"lng":-118.206906,"zipcode":"90042"},{"location":"Downtown Pomona","address":"Downtown Pomona Pomona ","formattedAddress":"119 W 2nd St, Pomona, CA 91766, USA","neighborhood":"Westmont","lat":34.0580378,"lng":-117.7506816,"zipcode":"91766"},{"location":"Pasadena Convention Center","address":"300 E. Green St. Pasadena CA","formattedAddress":"300 E Green St, Pasadena, CA 91101, USA","neighborhood":null,"lat":34.143817,"lng":-118.144302,"zipcode":"91101"},{"location":"we live in space","address":"2520 W Jefferson Blvd Jefferson ","formattedAddress":"2520 W Jefferson Blvd, Los Angeles, CA 90018, USA","neighborhood":"South Los Angeles","lat":34.0254836,"lng":-118.3232017,"zipcode":"90018"},{"location":"The Pasadena Civic","address":"300 E Green St. Pasadena CA","formattedAddress":"300 E Green St, Pasadena, CA 91101, USA","neighborhood":null,"lat":34.143817,"lng":-118.144302,"zipcode":"91101"},{"location":"Long Beach Arena- Long Beach Convention and Entertainment Center","address":"300 E. Ocean Blvd. Long Beach CA","formattedAddress":"300 E Ocean Blvd, Long Beach, CA 90802, USA","neighborhood":"Waterfront","lat":33.76520350000001,"lng":-118.1893341,"zipcode":"90802"},{"location":"Shrine Expo Hall","address":"665 W Jefferson Blvd. Los Angeles CA","formattedAddress":"665 W Jefferson Blvd, Los Angeles, CA 90007, USA","neighborhood":"South Los Angeles","lat":34.0236612,"lng":-118.2812202,"zipcode":"90007"},{"location":"Luxe Sunset Boulevard Hotel","address":"11461 Sunset Blvd. Brentwood, ","formattedAddress":"11461 Sunset Blvd, Los Angeles, CA 90049, USA","neighborhood":"Brentwood","lat":34.0726109,"lng":-118.4685961,"zipcode":"90049"},{"location":"Lewis Family Playhouse at Victoria Gardens Cultural Center","address":"12505 Cultural Center Drive Rancho Cucamonga ","formattedAddress":"12505 Cultural Center Dr, Rancho Cucamonga, CA 91739, USA","lat":34.112922,"lng":-117.532576,"zipcode":"91739"},{"location":"Heritage Square Museum","address":"3800 Homer Street Los Angeles, CA Lincoln Heights ","formattedAddress":"3800 Homer St, Los Angeles, CA 90031, USA","neighborhood":"Northeast Los Angeles","lat":34.0880775,"lng":-118.208078,"zipcode":"90031"},{"location":"SKYLIGHT THEATRE","address":"1816 1/2 N Vermont Ave. Los Angeles ","formattedAddress":"1816 1/2 N Vermont Ave, Los Angeles, CA 90027, USA","neighborhood":"Central LA","lat":34.1040603,"lng":-118.2915836,"zipcode":"90027"},{"location":"The Regent","address":"448 South Main Street Los Angeles CA","formattedAddress":"448 S Main St, Los Angeles, CA 90013, USA","neighborhood":"Central LA","lat":34.046981,"lng":-118.2478,"zipcode":"90013"},{"location":"LAMAG at Barnsdall Park","address":"4800 Hollywood Blvd Los Angeles ","formattedAddress":"4800 Hollywood Blvd, Los Angeles, CA 90027, USA","neighborhood":"Hollywood","lat":34.1015282,"lng":-118.2943343,"zipcode":"90027"},{"location":"First United Methodist Church of Santa Monica","address":"1008 11th Street California CA","formattedAddress":"1008 11th St, Santa Monica, CA 90403, USA","neighborhood":"Wilshire Montana","lat":34.0265761,"lng":-118.4948044,"zipcode":"90403"}]